{"version": 0.6, "generator": "Overpass API 0.7.62.5 1bd436f1", "osm3s": {"timestamp_osm_base": "2025-03-10T16:59:06Z", "copyright": "The data included in this document is from www.openstreetmap.org. The data is made available under ODbL."}, "elements": [{"type": "node", "id": 1337087170, "lat": 41.4205916, "lon": 2.1407432, "tags": {"addr:housenumber": "262", "addr:street": "Avinguda de Vallcarca", "amenity": "veterinary", "contact:phone": "+34 932111097", "name": "Consultori Veterinari Amazonas"}}, {"type": "node", "id": 1377225823, "lat": 41.4053182, "lon": 2.1611846, "tags": {"amenity": "veterinary", "contact:phone": "+34 932130662", "description": "Urg\u00e8ncies 654358919", "name": "Centre Veterinari Joanic", "opening_hours": "Mo-Sa 10:30-13:30,17:00-20:30"}}, {"type": "node", "id": 1377225880, "lat": 41.4026911, "lon": 2.1596464, "tags": {"addr:housenumber": "12", "addr:street": "Carrer de Torrijos", "amenity": "veterinary", "check_date": "2024-03-24", "name": "Kiwi Mascotas"}}, {"type": "node", "id": 2969276711, "lat": 41.4014964, "lon": 2.1702563, "tags": {"amenity": "veterinary", "name": "Lovedogs", "shop": "pet_grooming", "website": "http://www.lovedogs.es"}}, {"type": "node", "id": 3006305766, "lat": 41.4130772, "lon": 2.1638776, "tags": {"addr:housenumber": "16", "addr:postcode": "08024", "addr:street": "Carrer de Praga", "amenity": "veterinary", "name": "Centre Veterinari Saluki"}}, {"type": "node", "id": 3755072576, "lat": 41.3768079, "lon": 2.1209296, "tags": {"addr:city": "l'Hospitalet de Llobregat", "addr:housenumber": "10,12", "addr:postcode": "08903", "addr:street": "Carrer de l'Onze de Setembre", "amenity": "veterinary", "contact:instagram": "https://www.instagram.com/cvgatika", "name": "G\u00e0tika", "opening_hours": "Mo-Fr 10:00-14:00; Mo-Fr 17:00-20:30; Sa 10:00-14:00", "phone": "+34656600562"}}, {"type": "node", "id": 4254662799, "lat": 41.3934748, "lon": 2.1853792, "tags": {"amenity": "veterinary"}}, {"type": "node", "id": 4350349092, "lat": 41.4253434, "lon": 2.1556342, "tags": {"amenity": "veterinary", "name": "Veterinaria Horta"}}, {"type": "node", "id": 4725621696, "lat": 41.3757421, "lon": 2.1640885, "tags": {"amenity": "veterinary"}}, {"type": "node", "id": 4860084431, "lat": 41.4062309, "lon": 2.1333341, "tags": {"amenity": "veterinary", "name": "Bonavet", "name:ca": "Bonavet"}}, {"type": "node", "id": 5790107553, "lat": 41.4123211, "lon": 2.1864519, "tags": {"amenity": "veterinary", "name": "VM veterinaris Meridiana", "toilets:wheelchair": "no", "wheelchair": "limited"}}, {"type": "node", "id": 5791835553, "lat": 41.3922735, "lon": 2.1512457, "tags": {"addr:city": "Barcelona", "addr:country": "ES", "addr:street": "Carrer de Par\u00eds", "amenity": "veterinary", "name": "F. Florit-J.M.Casas"}}, {"type": "node", "id": 5922267085, "lat": 41.416707, "lon": 2.197189, "tags": {"addr:postcode": "08020", "amenity": "veterinary", "name": "Nexo", "wheelchair": "no"}}, {"type": "node", "id": 6093789456, "lat": 41.4075753, "lon": 2.1881872, "tags": {"addr:city": "Barcelona", "addr:country": "ES", "addr:housenumber": "56", "addr:postcode": "08018", "addr:street": "Carrer del Clot", "amenity": "veterinary", "contact:phone": "+34 936815173", "name": "Centre Veterinari", "operator": "Dr. Francesc Darnaculleta"}}, {"type": "node", "id": 6166411587, "lat": 41.3843341, "lon": 2.1440233, "tags": {"addr:city": "Barcelona", "addr:country": "ES", "addr:housenumber": "171", "addr:postcode": "08029", "addr:street": "Carrer d'Enten\u00e7a", "amenity": "veterinary", "contact:phone": "+34 933227112", "name": "Cl\u00ednica Veterin\u00e0ria Enten\u00e7a"}}, {"type": "node", "id": 6382725618, "lat": 41.384234, "lon": 2.1271543, "tags": {"addr:city": "Barcelona", "addr:country": "ES", "addr:housenumber": "67", "addr:street": "Gran Via de Carles III", "amenity": "veterinary", "contact:phone": "+34 934912388", "name": "Cl\u00ednica Veterin\u00e0ria Carles III", "opening_hours": "Mo-Fr 16:30-20:30; Mo-Sa 10:00-14:00"}}, {"type": "node", "id": 6488829061, "lat": 41.3782, "lon": 2.1377504, "tags": {"amenity": "veterinary", "name": "GAREM"}}, {"type": "node", "id": 6538037915, "lat": 41.392258, "lon": 2.1897605, "tags": {"amenity": "veterinary", "name": "Veterinari del Mar", "name:ca": "Veterinari del Mar"}}, {"type": "node", "id": 6882353343, "lat": 41.388819, "lon": 2.1792143, "tags": {"amenity": "veterinary"}}, {"type": "node", "id": 6952198369, "lat": 41.382528, "lon": 2.128977, "tags": {"amenity": "veterinary", "name": "Cl\u00ednica Veterin\u00e0ria - perros y felinos"}}, {"type": "node", "id": 7525186885, "lat": 41.4089817, "lon": 2.1932095, "tags": {"amenity": "veterinary", "name": "Petjades"}}, {"type": "node", "id": 7525316786, "lat": 41.4189832, "lon": 2.1741258, "tags": {"amenity": "veterinary", "name": "M. \u00c1ngeles Martinez"}}, {"type": "node", "id": 7528220686, "lat": 41.3917158, "lon": 2.1736345, "tags": {"amenity": "veterinary", "name": "Vet & stil Casp"}}, {"type": "node", "id": 7550777585, "lat": 41.4029782, "lon": 2.1658584, "tags": {"amenity": "veterinary", "name": "Grimm"}}, {"type": "node", "id": 7706832807, "lat": 41.3738676, "lon": 2.1302494, "tags": {"addr:city": "Barcelona", "addr:housenumber": "41", "addr:postcode": "08028", "addr:street": "Carrer de Begur", "amenity": "veterinary", "name": "Centre Veterinari Badal i botiga animalons", "phone": "+34934319798", "website": "https://www.veterinariosants.com/"}}, {"type": "node", "id": 7760747518, "lat": 41.3750876, "lon": 2.127643, "tags": {"addr:city": "Barcelona", "addr:housenumber": "7", "addr:postcode": "08028", "addr:street": "Carrer de Sugranyes", "amenity": "veterinary", "name": "Canisants Centre Veterinari", "phone": "+34934321660"}}, {"type": "node", "id": 7860686199, "lat": 41.3903991, "lon": 2.1560354, "tags": {"amenity": "veterinary", "check_date": "2024-03-15", "name": "Hospital Veterinari Proven\u00e7a"}}, {"type": "node", "id": 7996797885, "lat": 41.3969312, "lon": 2.1754145, "tags": {"amenity": "veterinary", "name": "Bestioles"}}, {"type": "node", "id": 8169960618, "lat": 41.3988492, "lon": 2.1649047, "tags": {"amenity": "veterinary", "name": "Els altres", "name:ca": "Els altres"}}, {"type": "node", "id": 8170029218, "lat": 41.3985574, "lon": 2.1617947, "tags": {"amenity": "veterinary", "check_date": "2023-10-04", "name": "Centre can\u00ed C\u00f2rsega", "opening_hours": "Mo-Fr 10:00-20:30; Sa 10:00-14:00,17:00-20:00"}}, {"type": "node", "id": 8236999158, "lat": 41.3978898, "lon": 2.151393, "tags": {"addr:housenumber": "205", "addr:street": "Carrer de Balmes", "amenity": "veterinary", "check_date": "2023-07-19", "contact:email": "info@balmesvet.com", "contact:phone": "+34 931 173 173", "contact:website": "https://balmesvet.com/", "name": "Balmesvet Veterinaris", "opening_hours": "24/7", "wheelchair": "yes"}}, {"type": "node", "id": 8237139416, "lat": 41.3977198, "lon": 2.151239, "tags": {"addr:housenumber": "205, baixos", "addr:street": "Carrer de Balmes", "amenity": "veterinary", "name": "Yorky's Consultori Veterinari"}}, {"type": "node", "id": 8396371170, "lat": 41.398405, "lon": 2.1513032, "tags": {"addr:housenumber": "222", "addr:street": "Carrer de Balmes", "amenity": "veterinary", "contact:email": "info@exomedveterinaria.com", "contact:mobile": "+34 696247528", "contact:phone": "+34 93 2372004", "contact:website": "https://www.exomedveterinaria.com/", "name": "Exomed"}}, {"type": "node", "id": 8614544820, "lat": 41.3764095, "lon": 2.1321374, "tags": {"addr:city": "Barcelona", "addr:housenumber": "25", "addr:postcode": "08028", "addr:street": "Carrer del Tenor Masini", "amenity": "veterinary", "name": "Vetsants", "opening_hours": "Mo-Fr 09:30-20:00; Sa 10:00-14:00; PH closed", "phone": "+34 934912003", "website": "https://www.veteralia.com/inici/", "wheelchair": "no"}}, {"type": "node", "id": 8709754526, "lat": 41.4254333, "lon": 2.1537289, "tags": {"amenity": "veterinary", "name": "Lladrucs"}}, {"type": "node", "id": 8709754537, "lat": 41.4249988, "lon": 2.1525793, "tags": {"amenity": "veterinary"}}, {"type": "node", "id": 8939342341, "lat": 41.3868117, "lon": 2.1612807, "tags": {"amenity": "veterinary", "name": "Kivet Cl\u00edniques Veterin\u00e0ries", "opening_hours": "Mo-Fr 10:00-21:00; Sa 10:00-20:00", "website": "https://www.kivet.com/clinicas-veterinarias/kivet-barcelona-aribau/"}}, {"type": "node", "id": 9695204269, "lat": 41.4284484, "lon": 2.1674374, "tags": {"amenity": "veterinary", "name": "Centre Veterinari 2015", "shop": "pet"}}, {"type": "node", "id": 9732867816, "lat": 41.3849442, "lon": 2.1872678}, {"type": "node", "id": 9732910626, "lat": 41.3852381, "lon": 2.1871159}, {"type": "node", "id": 9801833518, "lat": 41.3883411, "lon": 2.1441524, "tags": {"amenity": "veterinary", "name:en": "Vetland"}}, {"type": "node", "id": 9823306717, "lat": 41.3975087, "lon": 2.1649397, "tags": {"amenity": "veterinary", "check_date": "2024-05-18", "name": "don perro"}}, {"type": "node", "id": 9823542718, "lat": 41.4040256, "lon": 2.1718276, "tags": {"amenity": "veterinary", "name": "Eixample Veterinaris", "name:ca": "Eixample Veterinaris"}}, {"type": "node", "id": 9825319817, "lat": 41.3844481, "lon": 2.1380907, "tags": {"amenity": "veterinary"}}, {"type": "node", "id": 9868535619, "lat": 41.3903065, "lon": 2.1441738, "tags": {"amenity": "veterinary"}}, {"type": "node", "id": 10586977073, "lat": 41.3535811, "lon": 2.1181278, "tags": {"amenity": "veterinary", "name": "Bitxos"}}, {"type": "node", "id": 10839181572, "lat": 41.4089261, "lon": 2.1642371, "tags": {"amenity": "veterinary", "check_date": "2023-04-25", "name": "Taxdirt"}}, {"type": "node", "id": 10916491666, "lat": 41.3851984, "lon": 2.1871718}, {"type": "node", "id": 10916491667, "lat": 41.3850444, "lon": 2.186951}, {"type": "node", "id": 10916491668, "lat": 41.3852896, "lon": 2.1871826}, {"type": "node", "id": 10916491669, "lat": 41.3852232, "lon": 2.1873079}, {"type": "node", "id": 10916491670, "lat": 41.3851732, "lon": 2.1872918}, {"type": "node", "id": 10916491671, "lat": 41.3851267, "lon": 2.1874686}, {"type": "node", "id": 10916491672, "lat": 41.3849182, "lon": 2.1873772}, {"type": "node", "id": 11116991544, "lat": 41.4078568, "lon": 2.1584674, "tags": {"addr:housenumber": "6", "addr:street": "Pla\u00e7a de Rovira i Trias", "amenity": "veterinary", "check_date": "2024-05-01", "name": "Cl\u00ednica Provid\u00e8ncia", "phone": "+34 932 18 23 15", "wheelchair": "yes"}}, {"type": "node", "id": 11141889982, "lat": 41.376759, "lon": 2.1210954, "tags": {"addr:city": "l'Hospitalet de Llobregat", "addr:housenumber": "5", "addr:postcode": "08903", "addr:street": "Carrer de l'Onze de Setembre", "amenity": "veterinary", "name": "Cl\u00ednica veterinaria Artviu", "phone": "+34934496937"}}, {"type": "node", "id": 11299883569, "lat": 41.3885804, "lon": 2.1958997, "tags": {"addr:housenumber": "23", "addr:postcode": "08005", "addr:street": "Carrer de Salvador Espriu", "amenity": "veterinary", "check_date": "2024-03-23", "name": "Cl\u00ednica veterinaria Marina", "name:ca": "Cl\u00ednica veterin\u00e0ria Marina", "name:en": "Veterinary clinic Marina", "opening_hours": "Mo-Fr 10:00-20:00; Sa 10:00-14:00", "phone": "+34 932254938", "website": "https://cvetmarina.com/"}}, {"type": "node", "id": 11308435593, "lat": 41.4002602, "lon": 2.1645045, "tags": {"addr:housenumber": "402", "addr:street": "Carrer de C\u00f2rsega", "amenity": "veterinary", "check_date": "2023-11-02", "name": "SaluVet"}}, {"type": "node", "id": 11672348944, "lat": 41.401186, "lon": 2.1553952, "tags": {"addr:housenumber": "24", "addr:street": "Carrer de Pere Seraf\u00ed", "amenity": "veterinary", "check_date": "2024-06-02", "name": "Gr\u00e0cia Veterinaris"}}, {"type": "node", "id": 12195039001, "lat": 41.410356, "lon": 2.1708489, "tags": {"amenity": "veterinary", "name": "animalis"}}, {"type": "node", "id": 12209339002, "lat": 41.4057149, "lon": 2.1713373, "tags": {"amenity": "veterinary", "name": "Sagrada Fam\u00edlia", "opening_hours": "Mo-Fr 09:00-20:00"}}, {"type": "node", "id": 12279073201, "lat": 41.3992463, "lon": 2.1714134, "tags": {"addr:housenumber": "317", "addr:street": "Avinguda Diagonal", "amenity": "veterinary", "check_date": "2024-10-22", "name": "Urg\u00e8ncies Veterin\u00e0ries", "opening_hours": "24/7", "phone": "+34 934 59 45 00"}}, {"type": "node", "id": 12603497857, "lat": 41.3773894, "lon": 2.1617685, "tags": {"addr:city": "Barcelona", "addr:housenumber": "56", "addr:postcode": "08015", "addr:street": "Carrer de Manso", "amenity": "veterinary", "name": "Hospital Veterinari Riera Alta", "opening_hours": "Mo-Fr 09:00-21:00, Sa 10:00-14:00", "website": "https://www.veterinaririeraalta.com/"}}, {"type": "way", "id": 1174827587, "nodes": [10916491668, 10916491669, 10916491670, 10916491671, 10916491672, 9732867816, 10916491667, 10916491666, 9732910626, 10916491668], "tags": {"amenity": "veterinary", "building": "yes", "name": "Instal\u00b7lacions veterin\u00e0ries del Zoo de Barcelona", "operator": "Zoo de Barcelona"}}]}