{"version": 0.6, "generator": "Overpass API 0.7.62.5 1bd436f1", "osm3s": {"timestamp_osm_base": "2025-03-10T17:10:15Z", "copyright": "The data included in this document is from www.openstreetmap.org. The data is made available under ODbL."}, "elements": [{"type": "node", "id": 449384559, "lat": 41.4211517, "lon": 2.1826373, "tags": {"amenity": "post_office", "wheelchair": "yes"}}, {"type": "node", "id": 715159469, "lat": 41.3813492, "lon": 2.1812624}, {"type": "node", "id": 961052286, "lat": 41.3729344, "lon": 2.1138519, "tags": {"amenity": "post_office"}}, {"type": "node", "id": 1312325094, "lat": 41.4218937, "lon": 2.1420738, "tags": {"amenity": "post_office", "brand": "Correos", "brand:wikidata": "Q776605", "brand:wikipedia": "es:Correos (Espa\u00f1a)", "name": "Oficina de Correos", "name:ca": "Oficina de Correus", "name:es": "Oficina de Correos", "operator": "Correos", "operator:wikidata": "Q776605", "operator:wikipedia": "es:Correos (Espa\u00f1a)", "website": "https://www.correos.es/"}}, {"type": "node", "id": 1558088706, "lat": 41.3716239, "lon": 2.1450215, "tags": {"addr:city": "Barcelona", "addr:housenumber": "282", "addr:street": "Gran Via de les Corts Catalanes", "amenity": "post_office", "brand": "Correos", "brand:wikidata": "Q776605", "brand:wikipedia": "es:Correos (Espa\u00f1a)", "entrance": "yes", "name": "Oficina de Correos", "name:ca": "Oficina de Correus", "name:es": "Oficina de Correos", "operator": "Correos", "operator:wikidata": "Q776605", "operator:wikipedia": "es:Correos (Espa\u00f1a)", "source": "survey", "website": "https://www.correos.es/"}}, {"type": "node", "id": 1623401589, "lat": 41.3684316, "lon": 2.1297486, "tags": {"amenity": "post_office", "brand": "Correos", "brand:wikidata": "Q776605", "brand:wikipedia": "es:Correos (Espa\u00f1a)", "name": "Oficina de Correos", "name:ca": "Oficina de Correus", "name:es": "Oficina de Correos", "operator": "Correos", "operator:wikidata": "Q776605", "operator:wikipedia": "es:Correos (Espa\u00f1a)", "website": "https://www.correos.es/", "wheelchair": "yes"}}, {"type": "node", "id": 1860583983, "lat": 41.4073487, "lon": 2.1774395, "tags": {"addr:city": "Barcelona", "addr:housenumber": "276", "addr:postcode": "08025", "addr:street": "Castillejos", "amenity": "post_office", "opening_hours": "Mo-Fr 08:30-20:30; Aug Mo-Fr 08:30-14:30", "phone": "+34 934565684"}}, {"type": "node", "id": 1948958162, "lat": 41.397924, "lon": 2.1745818, "tags": {"addr:housenumber": "445", "addr:street": "Consell de Cent", "amenity": "post_office", "brand": "Correos", "brand:wikidata": "Q776605", "brand:wikipedia": "es:Correos (Espa\u00f1a)", "check_date": "2024-10-22", "name": "Oficina de Correos", "name:ca": "Oficina de Correus", "name:es": "Oficina de Correos", "opening_hours": "Mo-Fr 08:30-20:30", "operator": "Correos", "operator:wikidata": "Q776605", "operator:wikipedia": "es:Correos (Espa\u00f1a)", "website": "https://www.correos.es/"}}, {"type": "node", "id": 1948962336, "lat": 41.386908, "lon": 2.1668084, "tags": {"addr:city": "Barcelona", "addr:housenumber": "23", "addr:postcode": "08007", "addr:street": "Ronda de la Universitat", "amenity": "post_office", "brand": "Correos", "brand:wikidata": "Q776605", "brand:wikipedia": "es:Correos (Espa\u00f1a)", "name": "Oficina de Correos", "name:ca": "Oficina de Correus", "name:es": "Oficina de Correos", "opening_hours": "Mo-Fr 08:30-14:30; Sa 09:30-13:00", "operator": "Correos", "operator:wikidata": "Q776605", "operator:wikipedia": "es:Correos (Espa\u00f1a)", "phone": "+34933180591", "website": "https://www.correos.es/"}}, {"type": "node", "id": 1948963687, "lat": 41.3925834, "lon": 2.195657, "tags": {"addr:city": "Barcelona", "addr:housenumber": "58-60", "addr:postcode": "08018", "addr:street": "Doctor Trueta", "amenity": "post_office", "brand": "Correos", "brand:wikidata": "Q776605", "brand:wikipedia": "es:Correos (Espa\u00f1a)", "name": "Oficina de Correos", "name:ca": "Oficina de Correus", "name:es": "Oficina de Correos", "opening_hours": "Mo-Fr 08:30-20:30", "operator": "Correos", "operator:wikidata": "Q776605", "operator:wikipedia": "es:Correos (Espa\u00f1a)", "website": "https://www.correos.es/"}}, {"type": "node", "id": 1948965608, "lat": 41.385837, "lon": 2.154938, "tags": {"addr:city": "Barcelona", "addr:housenumber": "119", "addr:postcode": "08036", "addr:street": "Avinguda de Roma", "amenity": "post_office", "brand": "Correos", "brand:wikidata": "Q776605", "brand:wikipedia": "es:Correos (Espa\u00f1a)", "name": "Correos", "name:ca": "Oficina de Correus", "name:es": "Oficina de Correos", "operator": "Correos", "operator:wikidata": "Q776605", "operator:wikipedia": "es:Correos (Espa\u00f1a)", "website": "https://www.correos.es/"}}, {"type": "node", "id": 1948966520, "lat": 41.4041827, "lon": 2.1637322, "tags": {"addr:city": "Barcelona", "addr:housenumber": "196", "addr:postcode": "08009", "addr:street": "Passeig de Sant Joan", "amenity": "post_office", "brand": "Correos", "brand:wikidata": "Q776605", "brand:wikipedia": "es:Correos (Espa\u00f1a)", "check_date": "2023-08-21", "name": "Oficina de Correos", "name:ca": "Oficina de Correus", "name:es": "Oficina de Correos", "operator": "Correos", "operator:wikidata": "Q776605", "operator:wikipedia": "es:Correos (Espa\u00f1a)", "website": "https://www.correos.es/"}}, {"type": "node", "id": 1948968138, "lat": 41.4012733, "lon": 2.1539383, "tags": {"addr:city": "Barcelona", "addr:housenumber": "118", "addr:postcode": "08008", "addr:street": "Carrer Gran de Gr\u00e0cia", "amenity": "post_office", "brand": "Correos", "brand:wikidata": "Q776605", "brand:wikipedia": "es:Correos (Espa\u00f1a)", "check_date": "2024-02-28", "name": "Oficina de Correos", "name:ca": "Oficina de Correus", "name:es": "Oficina de Correos", "opening_hours": "Mo-Fr 08:30-20:30", "operator": "Correos", "operator:wikidata": "Q776605", "operator:wikipedia": "es:Correos (Espa\u00f1a)", "website": "https://www.correos.es/", "wheelchair": "yes"}}, {"type": "node", "id": 1948969302, "lat": 41.3963724, "lon": 2.1542398, "tags": {"addr:city": "Barcelona", "addr:housenumber": "5", "addr:postcode": "08008", "addr:street": "Comte de Salvatierra", "amenity": "post_office", "brand": "Correos", "brand:wikidata": "Q776605", "brand:wikipedia": "es:Correos (Espa\u00f1a)", "name": "Oficina de Correos", "name:ca": "Oficina de Correus", "name:es": "Oficina de Correos", "opening_hours": "Mo-Fr 08:30-20:30", "operator": "Correos", "operator:wikidata": "Q776605", "operator:wikipedia": "es:Correos (Espa\u00f1a)", "website": "https://www.correos.es/", "wheelchair": "yes"}}, {"type": "node", "id": 1948969931, "lat": 41.4120422, "lon": 2.1601177, "tags": {"addr:city": "Barcelona", "addr:housenumber": "131", "addr:postcode": "08024", "addr:street": "Carrer de Pau Alsina", "amenity": "post_office", "brand": "Correos", "brand:wikidata": "Q776605", "brand:wikipedia": "es:Correos (Espa\u00f1a)", "name": "Oficina de Correos", "name:ca": "Oficina de Correus", "name:es": "Oficina de Correos", "operator": "Correos", "operator:wikidata": "Q776605", "operator:wikipedia": "es:Correos (Espa\u00f1a)", "website": "https://www.correos.es/", "wheelchair": "yes"}}, {"type": "node", "id": 1948970980, "lat": 41.409944, "lon": 2.1803059, "tags": {"addr:city": "Barcelona", "addr:housenumber": "333", "addr:postcode": "08025", "addr:street": "Independencia", "amenity": "post_office", "brand": "Correos", "brand:wikidata": "Q776605", "brand:wikipedia": "es:Correos (Espa\u00f1a)", "name": "Oficina de Correos", "name:ca": "Oficina de Correus", "name:es": "Oficina de Correos", "operator": "Correos", "operator:wikidata": "Q776605", "operator:wikipedia": "es:Correos (Espa\u00f1a)", "website": "https://www.correos.es/", "wheelchair": "yes"}}, {"type": "node", "id": 1948973682, "lat": 41.3764704, "lon": 2.1552528, "tags": {"addr:city": "Barcelona", "addr:housenumber": "42", "addr:postcode": "08015", "addr:street": "Avinguda de Mistral", "amenity": "post_office", "brand": "Correos", "brand:wikidata": "Q776605", "brand:wikipedia": "es:Correos (Espa\u00f1a)", "name": "Correos", "name:ca": "Oficina de Correus", "name:es": "Oficina de Correos", "operator": "Correos", "operator:wikidata": "Q776605", "operator:wikipedia": "es:Correos (Espa\u00f1a)", "website": "https://www.correos.es/"}}, {"type": "node", "id": 1948974577, "lat": 41.408896, "lon": 2.18964, "tags": {"addr:city": "Barcelona", "addr:housenumber": "31", "addr:postcode": "08018", "addr:street": "Carrer de Rossend Nobas", "amenity": "post_office", "brand": "Correos", "brand:wikidata": "Q776605", "brand:wikipedia": "es:Correos (Espa\u00f1a)", "name": "Oficina de Correos", "name:ca": "Oficina de Correus", "name:es": "Oficina de Correos", "opening_hours": "Mo-Fr 08:30-20:30", "operator": "Correos", "operator:wikidata": "Q776605", "operator:wikipedia": "es:Correos (Espa\u00f1a)", "website": "https://www.correos.es/"}}, {"type": "node", "id": 1948977518, "lat": 41.4019239, "lon": 2.205821, "tags": {"addr:city": "Barcelona", "addr:housenumber": "248-250", "addr:postcode": "08005", "addr:street": "Carrer de Ramon Turr\u00f3", "amenity": "post_office", "brand": "Correos", "brand:wikidata": "Q776605", "brand:wikipedia": "es:Correos (Espa\u00f1a)", "name": "Oficina de Correos", "name:ca": "Oficina de Correus", "name:es": "Oficina de Correos", "operator": "Correos", "operator:wikidata": "Q776605", "operator:wikipedia": "es:Correos (Espa\u00f1a)", "website": "https://www.correos.es/"}}, {"type": "node", "id": 2264384296, "lat": 41.3813671, "lon": 2.1811703}, {"type": "node", "id": 2264384297, "lat": 41.3813682, "lon": 2.1811679}, {"type": "node", "id": 2264384298, "lat": 41.381372, "lon": 2.181129}, {"type": "node", "id": 2264384299, "lat": 41.3816367, "lon": 2.1815157}, {"type": "node", "id": 2264384300, "lat": 41.3813742, "lon": 2.1811293}, {"type": "node", "id": 2264384303, "lat": 41.3819912, "lon": 2.1807716}, {"type": "node", "id": 2264384304, "lat": 41.382096, "lon": 2.1808433}, {"type": "node", "id": 2264399520, "lat": 41.3814635, "lon": 2.1808735}, {"type": "node", "id": 2306349147, "lat": 41.4178715, "lon": 2.2191341, "tags": {"amenity": "post_office", "brand": "Correos", "brand:wikidata": "Q776605", "brand:wikipedia": "es:Correos (Espa\u00f1a)", "name": "Oficina de Correos", "name:ca": "Oficina de Correus", "name:es": "Oficina de Correos", "operator": "Correos", "operator:wikidata": "Q776605", "operator:wikipedia": "es:Correos (Espa\u00f1a)", "website": "https://www.correos.es/"}}, {"type": "node", "id": 2492686518, "lat": 41.3859852, "lon": 2.1464548, "tags": {"amenity": "post_office", "brand": "Correos", "brand:wikidata": "Q776605", "brand:wikipedia": "es:Correos (Espa\u00f1a)", "opening_hours": "Mo-Fr 08:30-20:30; Sa 09:30-13:00", "operator": "Correos", "operator:wikidata": "Q776605", "operator:wikipedia": "es:Correos (Espa\u00f1a)", "website": "https://www.correos.es/"}}, {"type": "node", "id": 2524489383, "lat": 41.3817883, "lon": 2.1805095}, {"type": "node", "id": 3240091361, "lat": 41.3764142, "lon": 2.1369276, "tags": {"amenity": "post_office"}}, {"type": "node", "id": 3317199561, "lat": 41.4077429, "lon": 2.137965, "tags": {"amenity": "post_office", "brand": "Correos", "brand:wikidata": "Q776605", "brand:wikipedia": "es:Correos (Espa\u00f1a)", "name": "Oficina de Correos", "name:ca": "Oficina de Correus", "name:es": "Oficina de Correos", "operator": "Correos", "operator:wikidata": "Q776605", "operator:wikipedia": "es:Correos (Espa\u00f1a)", "website": "https://www.correos.es/"}}, {"type": "node", "id": 3551790526, "lat": 41.4208545, "lon": 2.2027717}, {"type": "node", "id": 3551790528, "lat": 41.4209834, "lon": 2.2026006}, {"type": "node", "id": 3551790529, "lat": 41.4210446, "lon": 2.203027}, {"type": "node", "id": 3551790531, "lat": 41.4211755, "lon": 2.2028541}, {"type": "node", "id": 3605370753, "lat": 41.3975903, "lon": 2.1385579, "tags": {"addr:city": "Barcelona", "addr:country": "ES", "addr:housenumber": "207", "addr:street": "Via Augusta", "amenity": "post_office"}}, {"type": "node", "id": 3884107049, "lat": 41.3813463, "lon": 2.1812015}, {"type": "node", "id": 3884107050, "lat": 41.3813428, "lon": 2.1812152}, {"type": "node", "id": 3884107051, "lat": 41.3813489, "lon": 2.1811943}, {"type": "node", "id": 3884107052, "lat": 41.3813418, "lon": 2.1812228}, {"type": "node", "id": 3884107053, "lat": 41.3813521, "lon": 2.1811887}, {"type": "node", "id": 3884107054, "lat": 41.3813421, "lon": 2.1812353}, {"type": "node", "id": 3884107055, "lat": 41.381364, "lon": 2.1811742}, {"type": "node", "id": 3884107056, "lat": 41.3813602, "lon": 2.1811779}, {"type": "node", "id": 3884107857, "lat": 41.3813431, "lon": 2.1812437}, {"type": "node", "id": 3884107858, "lat": 41.3813469, "lon": 2.1812568}, {"type": "node", "id": 3884107863, "lat": 41.3813688, "lon": 2.181163}, {"type": "node", "id": 3884107864, "lat": 41.3813681, "lon": 2.1811588}, {"type": "node", "id": 3884107865, "lat": 41.3813665, "lon": 2.1811564}, {"type": "node", "id": 3884107866, "lat": 41.3816508, "lon": 2.1815242}, {"type": "node", "id": 3884107867, "lat": 41.3813678, "lon": 2.1811512}, {"type": "node", "id": 3884107868, "lat": 41.3816533, "lon": 2.1815192}, {"type": "node", "id": 3884107869, "lat": 41.3816566, "lon": 2.1815214}, {"type": "node", "id": 3884107871, "lat": 41.3816574, "lon": 2.1815197}, {"type": "node", "id": 3884107873, "lat": 41.3813652, "lon": 2.1811494}, {"type": "node", "id": 3884107874, "lat": 41.3816695, "lon": 2.1815297}, {"type": "node", "id": 3884107876, "lat": 41.3816774, "lon": 2.1815382}, {"type": "node", "id": 3884107877, "lat": 41.3813685, "lon": 2.1811396}, {"type": "node", "id": 3884107878, "lat": 41.3816856, "lon": 2.1815453}, {"type": "node", "id": 3884107879, "lat": 41.3816904, "lon": 2.1815473}, {"type": "node", "id": 3884107881, "lat": 41.3816995, "lon": 2.1815493}, {"type": "node", "id": 3884107882, "lat": 41.3817042, "lon": 2.1815493}, {"type": "node", "id": 3884107883, "lat": 41.3817132, "lon": 2.1815465}, {"type": "node", "id": 3884107899, "lat": 41.381879, "lon": 2.1806709}, {"type": "node", "id": 3884107905, "lat": 41.3819425, "lon": 2.1807266}, {"type": "node", "id": 3884107910, "lat": 41.3819701, "lon": 2.1807534}, {"type": "node", "id": 3884107911, "lat": 41.3820978, "lon": 2.1808405}, {"type": "node", "id": 3884107912, "lat": 41.3819933, "lon": 2.1807684}, {"type": "node", "id": 3884107913, "lat": 41.3820398, "lon": 2.1808}, {"type": "node", "id": 3884107915, "lat": 41.3819969, "lon": 2.1807706}, {"type": "node", "id": 3884107916, "lat": 41.3819999, "lon": 2.1807693}, {"type": "node", "id": 4052381451, "lat": 41.396407, "lon": 2.1286894, "tags": {"addr:city": "Barcelona", "addr:housenumber": "59", "addr:street": "Carrer de Castellnou", "amenity": "post_office", "brand": "Correos", "brand:wikidata": "Q776605", "brand:wikipedia": "es:Correos (Espa\u00f1a)", "name": "Oficina de Correos", "name:ca": "Oficina de Correus", "name:es": "Oficina de Correos", "operator": "Correos", "operator:wikidata": "Q776605", "operator:wikipedia": "es:Correos (Espa\u00f1a)", "website": "https://www.correos.es/"}}, {"type": "node", "id": 4182135624, "lat": 41.3815262, "lon": 2.1814151, "tags": {"addr:housenumber": "1", "addr:postcode": "08002", "addr:street": "Pla\u00e7a d'Antonio L\u00f3pez", "entrance": "main"}}, {"type": "node", "id": 4859449977, "lat": 41.3718571, "lon": 2.1747162, "tags": {"addr:city": "Barcelona", "addr:housenumber": "33", "addr:postcode": "08038", "addr:province": "Barcelona", "addr:street": "Passeig de Josep Carner", "amenity": "post_office", "local_ref": "1852", "name": "Correos", "operator": "Correos", "operator:wikidata": "Q776605", "ref:ES:catastro": "1105302DF3810E"}}, {"type": "node", "id": 5012272965, "lat": 41.4172411, "lon": 2.2126161, "tags": {"amenity": "post_office", "wheelchair": "no"}}, {"type": "node", "id": 5244954977, "lat": 41.3903794, "lon": 2.1741461, "tags": {"amenity": "post_office", "opening_hours": "Mo-Fr 08:30-20:30", "post_office:brand": "Correos"}}, {"type": "node", "id": 5552047921, "lat": 41.3868878, "lon": 2.1667682, "tags": {"amenity": "post_office"}}, {"type": "node", "id": 6133387192, "lat": 41.3817459, "lon": 2.1814863}, {"type": "node", "id": 6133387194, "lat": 41.3819872, "lon": 2.1811819}, {"type": "node", "id": 6133387205, "lat": 41.3817593, "lon": 2.1814842}, {"type": "node", "id": 6133387206, "lat": 41.381396, "lon": 2.1813068}, {"type": "node", "id": 6133387209, "lat": 41.3817564, "lon": 2.181481}, {"type": "node", "id": 6133387211, "lat": 41.3813984, "lon": 2.1813129}, {"type": "node", "id": 6133387214, "lat": 41.3821566, "lon": 2.1809357}, {"type": "node", "id": 6133387218, "lat": 41.38166, "lon": 2.1815181}, {"type": "node", "id": 6133387220, "lat": 41.3821147, "lon": 2.1808584}, {"type": "node", "id": 6133387223, "lat": 41.3818184, "lon": 2.1806263}, {"type": "node", "id": 6133387224, "lat": 41.3817449, "lon": 2.1814915}, {"type": "node", "id": 6133387225, "lat": 41.3817534, "lon": 2.1814842}, {"type": "node", "id": 6133387227, "lat": 41.3816851, "lon": 2.1805286}, {"type": "node", "id": 6133387229, "lat": 41.3814967, "lon": 2.1807671}, {"type": "node", "id": 6133387232, "lat": 41.3813675, "lon": 2.181285}, {"type": "node", "id": 6133387235, "lat": 41.3816619, "lon": 2.1815189}, {"type": "node", "id": 6133387239, "lat": 41.3817196, "lon": 2.1805526}, {"type": "node", "id": 6133387241, "lat": 41.3817586, "lon": 2.1805852}, {"type": "node", "id": 6133387242, "lat": 41.3814146, "lon": 2.1813243}, {"type": "node", "id": 6133387243, "lat": 41.3821378, "lon": 2.1808791}, {"type": "node", "id": 6133387245, "lat": 41.3817671, "lon": 2.1814687}, {"type": "node", "id": 6133387248, "lat": 41.3813946, "lon": 2.1813095}, {"type": "node", "id": 6133387249, "lat": 41.3817512, "lon": 2.181483}, {"type": "node", "id": 6133387255, "lat": 41.3813942, "lon": 2.1812982}, {"type": "node", "id": 6133387257, "lat": 41.3821248, "lon": 2.1809992}, {"type": "node", "id": 6133387259, "lat": 41.3813965, "lon": 2.1813175}, {"type": "node", "id": 6133387270, "lat": 41.3817402, "lon": 2.1815132}, {"type": "node", "id": 6133387271, "lat": 41.3817354, "lon": 2.181524}, {"type": "node", "id": 6133387273, "lat": 41.3813586, "lon": 2.181277}, {"type": "node", "id": 6133387275, "lat": 41.3814112, "lon": 2.1813314}, {"type": "node", "id": 6133387276, "lat": 41.3817419, "lon": 2.1815073}, {"type": "node", "id": 6133387283, "lat": 41.3813626, "lon": 2.181281}, {"type": "node", "id": 6133387331, "lat": 41.3818071, "lon": 2.1806188}, {"type": "node", "id": 6133387332, "lat": 41.3817451, "lon": 2.1814891}, {"type": "node", "id": 6133387333, "lat": 41.3814895, "lon": 2.1807981}, {"type": "node", "id": 6133387334, "lat": 41.3818218, "lon": 2.1804287}, {"type": "node", "id": 6133387335, "lat": 41.3821134, "lon": 2.1808531}, {"type": "node", "id": 6133387337, "lat": 41.381718, "lon": 2.1805566}, {"type": "node", "id": 6133387338, "lat": 41.3815652, "lon": 2.1805889}, {"type": "node", "id": 6133387339, "lat": 41.3821332, "lon": 2.1808765}, {"type": "node", "id": 6133387344, "lat": 41.3814993, "lon": 2.1807687}, {"type": "node", "id": 6133387345, "lat": 41.3817208, "lon": 2.1815422}, {"type": "node", "id": 6133387367, "lat": 41.3817324, "lon": 2.1815298}, {"type": "node", "id": 6133387370, "lat": 41.3817497, "lon": 2.1814835}, {"type": "node", "id": 6133387373, "lat": 41.3821539, "lon": 2.1809031}, {"type": "node", "id": 6133387374, "lat": 41.3817836, "lon": 2.1806036}, {"type": "node", "id": 6133387381, "lat": 41.3813725, "lon": 2.1812877}, {"type": "node", "id": 6133387394, "lat": 41.3816721, "lon": 2.1805235}, {"type": "node", "id": 6133387406, "lat": 41.3816656, "lon": 2.1805215}, {"type": "node", "id": 6133387410, "lat": 41.3821145, "lon": 2.1808624}, {"type": "node", "id": 6133387418, "lat": 41.381389, "lon": 2.1812931}, {"type": "node", "id": 6133387419, "lat": 41.3816481, "lon": 2.1805203}, {"type": "node", "id": 6133387424, "lat": 41.3816387, "lon": 2.1805213}, {"type": "node", "id": 6133387426, "lat": 41.3814713, "lon": 2.180842}, {"type": "node", "id": 6133387435, "lat": 41.3816143, "lon": 2.1805296}, {"type": "node", "id": 6133387440, "lat": 41.3821457, "lon": 2.1809656}, {"type": "node", "id": 6133387499, "lat": 41.3815119, "lon": 2.180733, "tags": {"entrance": "yes"}}, {"type": "node", "id": 6133387500, "lat": 41.3814524, "lon": 2.1809053, "tags": {"entrance": "yes"}}, {"type": "node", "id": 6133387501, "lat": 41.3814811, "lon": 2.1808222, "tags": {"addr:housenumber": "1-3", "addr:postcode": "08002", "addr:street": "Carrer de la Fusteria", "entrance": "yes"}}, {"type": "node", "id": 6133387502, "lat": 41.3816141, "lon": 2.1814866, "tags": {"entrance": "yes"}}, {"type": "node", "id": 6133387503, "lat": 41.3814489, "lon": 2.1813523, "tags": {"entrance": "yes"}}, {"type": "node", "id": 6133387504, "lat": 41.381939, "lon": 2.1812396, "tags": {"addr:housenumber": "1", "addr:postcode": "08003", "addr:street": "Via Laietana", "entrance": "yes"}}, {"type": "node", "id": 6133387506, "lat": 41.3820185, "lon": 2.1807836, "tags": {"addr:housenumber": "4", "addr:postcode": "08002", "addr:street": "Carrer d'\u00c0ngel J. Baixeras", "entrance": "yes"}}, {"type": "node", "id": 6133387529, "lat": 41.3817016, "lon": 2.1805387}, {"type": "node", "id": 6133387536, "lat": 41.3813863, "lon": 2.1812919}, {"type": "node", "id": 6133387537, "lat": 41.3816922, "lon": 2.1805323}, {"type": "node", "id": 6133387549, "lat": 41.3821575, "lon": 2.1809232}, {"type": "node", "id": 6133387550, "lat": 41.3821556, "lon": 2.1809101}, {"type": "node", "id": 6133387552, "lat": 41.3821488, "lon": 2.1808917}, {"type": "node", "id": 6133387553, "lat": 41.3815672, "lon": 2.1805838}, {"type": "node", "id": 6133387554, "lat": 41.3821457, "lon": 2.1808875}, {"type": "node", "id": 6133387555, "lat": 41.3819327, "lon": 2.1812538}, {"type": "node", "id": 6133387561, "lat": 41.3821235, "lon": 2.1808722}, {"type": "node", "id": 6133387563, "lat": 41.3821164, "lon": 2.1808669}, {"type": "node", "id": 6133387566, "lat": 41.3821129, "lon": 2.1808569}, {"type": "node", "id": 6133387569, "lat": 41.3813927, "lon": 2.1812959}, {"type": "node", "id": 6133387570, "lat": 41.3815627, "lon": 2.1805878}, {"type": "node", "id": 6133387571, "lat": 41.381461, "lon": 2.1808715}, {"type": "node", "id": 6133387685, "lat": 41.381605, "lon": 2.1805354}, {"type": "node", "id": 6133387686, "lat": 41.38177, "lon": 2.1814748}, {"type": "node", "id": 6133387690, "lat": 41.3818924, "lon": 2.1813016}, {"type": "node", "id": 6133387692, "lat": 41.3818944, "lon": 2.1813039}, {"type": "node", "id": 6133387695, "lat": 41.3819306, "lon": 2.1812508}, {"type": "node", "id": 6133387697, "lat": 41.3819468, "lon": 2.1812292}, {"type": "node", "id": 6133387698, "lat": 41.3819493, "lon": 2.1812327}, {"type": "node", "id": 6133387701, "lat": 41.3819858, "lon": 2.1811801}, {"type": "node", "id": 6133387702, "lat": 41.3816397, "lon": 2.1815075}, {"type": "node", "id": 6133387703, "lat": 41.3821108, "lon": 2.1810108}, {"type": "node", "id": 6133387704, "lat": 41.3817941, "lon": 2.1806111}, {"type": "node", "id": 6133387705, "lat": 41.3817555, "lon": 2.1805839}, {"type": "node", "id": 6133387706, "lat": 41.3821137, "lon": 2.1810141}, {"type": "node", "id": 6133387707, "lat": 41.3815872, "lon": 2.1805516}, {"type": "node", "id": 6133387708, "lat": 41.381396, "lon": 2.1813034}, {"type": "node", "id": 6133387709, "lat": 41.3817197, "lon": 2.1805578}, {"type": "node", "id": 6133387710, "lat": 41.3821227, "lon": 2.1809962}, {"type": "node", "id": 6133387713, "lat": 41.3821241, "lon": 2.1809933}, {"type": "node", "id": 6133387714, "lat": 41.3821238, "lon": 2.1809861}, {"type": "node", "id": 6133387717, "lat": 41.3821251, "lon": 2.1809828}, {"type": "node", "id": 6133387719, "lat": 41.3821267, "lon": 2.1809807}, {"type": "node", "id": 6133387720, "lat": 41.3815804, "lon": 2.1805608}, {"type": "node", "id": 6133387721, "lat": 41.3821333, "lon": 2.1809753}, {"type": "node", "id": 6133387722, "lat": 41.3821424, "lon": 2.1809692}, {"type": "node", "id": 6133387723, "lat": 41.3821181, "lon": 2.1808685}, {"type": "node", "id": 6133387725, "lat": 41.3816217, "lon": 2.180526}, {"type": "node", "id": 6133387726, "lat": 41.3821495, "lon": 2.1809599}, {"type": "node", "id": 6133387729, "lat": 41.3821528, "lon": 2.1809538}, {"type": "node", "id": 6133387731, "lat": 41.3821549, "lon": 2.1809452}, {"type": "node", "id": 6133387732, "lat": 41.3815738, "lon": 2.1805703}, {"type": "node", "id": 6133387733, "lat": 41.3821574, "lon": 2.1809291}, {"type": "node", "id": 6133387785, "lat": 41.381487, "lon": 2.1807964}, {"type": "node", "id": 6133387786, "lat": 41.3817872, "lon": 2.1804025}, {"type": "node", "id": 6133387790, "lat": 41.3817255, "lon": 2.1815381}, {"type": "node", "id": 6133387795, "lat": 41.3814739, "lon": 2.180843}, {"type": "node", "id": 6133387796, "lat": 41.3815956, "lon": 2.1805435}, {"type": "node", "id": 6133388093, "lat": 41.3813832, "lon": 2.1812913}, {"type": "node", "id": 6133388099, "lat": 41.3816565, "lon": 2.18052}, {"type": "node", "id": 6222663442, "lat": 41.3971506, "lon": 2.1242068, "tags": {"amenity": "post_office", "brand": "Correos", "brand:wikidata": "Q776605", "brand:wikipedia": "es:Correos (Espa\u00f1a)", "name": "Oficina de Correos", "name:ca": "Oficina de Correus", "name:es": "Oficina de Correos", "operator": "Correos", "operator:wikidata": "Q776605", "operator:wikipedia": "es:Correos (Espa\u00f1a)", "website": "https://www.correos.es/"}}, {"type": "node", "id": 6232798048, "lat": 41.3590321, "lon": 2.1410599, "tags": {"addr:city": "Barcelona", "addr:country": "ES", "addr:housenumber": "67", "addr:postcode": "08038", "addr:street": "Carrer dels Alts Forns", "amenity": "post_office", "brand": "Correos", "brand:wikidata": "Q776605", "brand:wikipedia": "es:Correos (Espa\u00f1a)", "contact:fax": "+34 934328883", "contact:phone": "+34 934213757", "name": "Oficina de Correos", "name:ca": "Oficina de Correus", "name:es": "Oficina de Correos", "opening_hours": "Mo-Fr 08:30-20:30; Sa 09:30-13:00; PH closed", "operator": "Correos", "operator:wikidata": "Q776605", "operator:wikipedia": "es:Correos (Espa\u00f1a)", "website": "https://www.correos.es/"}}, {"type": "node", "id": 6381137985, "lat": 41.3786894, "lon": 2.1282564, "tags": {"addr:housenumber": "106", "addr:street": "Avinguda de Madrid", "amenity": "post_office", "name": "Correos"}}, {"type": "node", "id": 7550742185, "lat": 41.4084837, "lon": 2.1727614, "tags": {"amenity": "post_office"}}, {"type": "node", "id": 7716896406, "lat": 41.3757339, "lon": 2.1244611, "tags": {"addr:city": "Barcelona", "addr:housenumber": "324", "addr:postcode": "08028", "addr:street": "Carrer de Sants", "amenity": "post_office", "brand": "Mail Boxes Etc.", "brand:wikidata": "Q1139182", "brand:wikipedia": "en:Mail Boxes Etc.", "name": "Mail Boxes Etc."}}, {"type": "node", "id": 7760747526, "lat": 41.3752767, "lon": 2.127307, "tags": {"addr:city": "Barcelona", "addr:housenumber": "4", "addr:postcode": "08028", "addr:street": "Carrer de Sugranyes", "addr:unit": "local 1", "amenity": "post_office", "brand": "Mail Boxes Etc.", "brand:wikidata": "Q1139182", "brand:wikipedia": "en:Mail Boxes Etc.", "name": "Mail Boxes Etc.", "phone": "+34934496392", "website": "https://www.mbe.es/es/envios-impresion/barcelona/0312"}}, {"type": "node", "id": 7958759185, "lat": 41.3763068, "lon": 2.1368551, "tags": {"amenity": "post_office", "brand": "Correos", "brand:wikidata": "Q776605", "name": "Oficina de Correos", "name:ca": "Oficina de Correus", "name:es": "Oficina de Correos", "opening_hours": "Mo-Fr 08:30-20:30", "operator": "Correos", "operator:wikidata": "Q776605", "website": "https://www.correos.es/"}}, {"type": "node", "id": 8263475324, "lat": 41.3885546, "lon": 2.1607338, "tags": {"amenity": "post_office", "brand": "Correos", "brand:wikidata": "Q776605", "check_date": "2025-01-02", "name": "Oficina de Correos", "name:ca": "Oficina de Correus", "name:es": "Oficina de Correos", "operator": "Correos", "operator:wikidata": "Q776605", "payment:cash": "yes", "payment:credit_cards": "yes", "payment:debit_cards": "yes", "website": "https://www.correos.es/", "wheelchair": "yes"}}, {"type": "node", "id": 8327015246, "lat": 41.4283755, "lon": 2.1669435, "tags": {"addr:postcode": "08001", "amenity": "post_office", "brand": "Correos", "brand:wikidata": "Q776605", "brand:wikipedia": "es:Correos (Espa\u00f1a)", "name": "Oficina de Correos", "name:ca": "Oficina de Correus", "name:es": "Oficina de Correos", "opening_hours": "Mo-Fr 08:30-20:30", "operator": "Correos", "operator:wikidata": "Q776605", "operator:wikipedia": "es:Correos (Espa\u00f1a)", "website": "https://www.correos.es/", "wheelchair": "yes"}}, {"type": "node", "id": 9126478875, "lat": 41.3818173, "lon": 2.1804393}, {"type": "node", "id": 9126478876, "lat": 41.3817826, "lon": 2.1804131}, {"type": "node", "id": 9131367182, "lat": 41.3967947, "lon": 2.1482784, "tags": {"addr:housenumber": "221", "addr:street": "Carrer d'Aribau", "amenity": "post_office", "contact:phone": "+34 93 4146070", "contact:website": "https://www.mbe.es/es/envios-impresion/barcelona/0121", "name": "Mail Boxes Etc", "opening_hours": "Mo-Th 09:00-14:00,15:30-18:30; Fr 09:00-14:00,15:30-18:00"}}, {"type": "node", "id": 9397639661, "lat": 41.3595104, "lon": 2.1417517, "tags": {"addr:city": "Barcelona", "addr:country": "ES", "addr:housenumber": "73", "addr:postcode": "08038", "addr:street": "Carrer dels Alts Forns", "amenity": "post_office", "branch": "BARCELONA (0820)", "brand": "Nacex", "contact:email": "0820.operativa@nacex.es", "contact:phone": "+34 932238620", "name": "Nacex", "opening_hours": "Mo-Fr 08:00-20:00"}}, {"type": "node", "id": 9568930269, "lat": 41.390295, "lon": 2.1225159, "tags": {"addr:city": "Barcelona", "addr:housenumber": "18", "addr:postcode": "08034", "addr:street": "Carrer de Pedro i Pons", "addr:unit": "20", "amenity": "post_office", "name": "Mail Boxes Etc.", "website": "https://www.mbe.es/en/store-locator"}}, {"type": "node", "id": 9808466318, "lat": 41.3862649, "lon": 2.1454736, "tags": {"addr:housenumber": "89", "addr:postcode": "08029", "addr:street": "Carrer de C\u00f2rsega", "amenity": "post_office", "email": "00643@grupomrw.com", "name:en": "MRW", "opening_hours": "Mo-Fr 09:00-14:00, 16:00-19:00", "phone": "+34 934262131"}}, {"type": "node", "id": 10771433990, "lat": 41.39818, "lon": 2.1623574, "tags": {"amenity": "post_office", "check_date": "2023-11-02", "operator": "MRW", "operator:wikidata": "Q23767821"}}, {"type": "node", "id": 11028575871, "lat": 41.4138903, "lon": 2.1383038, "tags": {"addr:housenumber": "274", "addr:street": "Avinguda de la Rep\u00fablica Argentina", "amenity": "post_office", "name": "Correos"}}, {"type": "node", "id": 11032313002, "lat": 41.3751701, "lon": 2.1667549, "tags": {"addr:housenumber": "86", "addr:street": "Avinguda del Paral\u00b7lel", "amenity": "post_office", "name": "Correos"}}, {"type": "node", "id": 11290681159, "lat": 41.3776908, "lon": 2.1789811, "tags": {"addr:city": "Barcelona", "addr:housenumber": "23", "addr:street": "Passeig de Colom", "amenity": "post_office", "name": "Nacex", "operator": "Nacex"}}, {"type": "node", "id": 11308435591, "lat": 41.4003776, "lon": 2.1646365, "tags": {"addr:housenumber": "404-406", "addr:street": "Carrer de C\u00f2rsega", "amenity": "post_office", "check_date": "2023-11-02", "name": "GLS"}}, {"type": "node", "id": 11360010135, "lat": 41.3864311, "lon": 2.1647635, "tags": {"amenity": "post_office", "brand": "DHL", "brand:wikidata": "Q489815", "name": "DHL Express"}}, {"type": "node", "id": 11360015880, "lat": 41.3897852, "lon": 2.1664332, "tags": {"amenity": "post_office", "brand": "DHL", "brand:wikidata": "Q489815", "name": "DHL", "opening_hours": "Mo-Fr 09:00-19:30"}}, {"type": "node", "id": 11412901769, "lat": 41.3955623, "lon": 2.1721769, "tags": {"addr:housenumber": "71", "addr:postcode": "08009", "addr:street": "Carrer de Bail\u00e8n", "amenity": "post_office", "email": "00642@grupomrw.com", "name": "MRW", "opening_hours": "Mo-Fr 08:00-14:00, 16:00-20:00", "operator": "MRW", "operator:wikidata": "Q23767821", "phone": "+34 932657111", "website": "https://mrw.es/"}}, {"type": "node", "id": 11522917046, "lat": 41.397085, "lon": 2.1634035, "tags": {"addr:housenumber": "129", "addr:street": "Carrer de Roger de Ll\u00faria", "amenity": "post_office", "brand": "Mail Boxes Etc.", "brand:wikidata": "Q1139182", "check_date": "2024-05-18", "name": "Mail Boxes ETC", "shop": "copyshop"}}, {"type": "node", "id": 11554621419, "lat": 41.3980021, "lon": 2.1539418, "tags": {"addr:housenumber": "40", "addr:street": "Via Augusta", "amenity": "post_office", "check_date": "2024-01-26", "name": "DHL"}}, {"type": "node", "id": 11635077644, "lat": 41.4039945, "lon": 2.1639391, "tags": {"addr:housenumber": "196", "addr:street": "Passeig de Sant Joan", "amenity": "post_office", "brand": "Correos", "brand:wikidata": "Q776605", "brand:wikipedia": "es:Correos (Espa\u00f1a)", "check_date": "2023-08-21", "name": "Oficina de Correos", "name:ca": "Oficina de Correus", "name:es": "Oficina de Correos", "operator": "Correos", "operator:wikidata": "Q776605", "operator:wikipedia": "es:Correos (Espa\u00f1a)", "website": "https://www.correos.es/"}}, {"type": "node", "id": 11874913769, "lat": 41.4058602, "lon": 2.1724113, "tags": {"addr:housenumber": "287 bis", "addr:postcode": "08025", "addr:street": "Carrer de la Marina", "amenity": "post_office", "name": "Nacex Franqu\u00edcia 818", "opening_hours": "Mo-Fr 08:00-20:00", "phone": "934330404"}}, {"type": "node", "id": 12186790102, "lat": 41.4082931, "lon": 2.1725596, "tags": {"amenity": "post_office"}}, {"type": "node", "id": 12204830150, "lat": 41.3963096, "lon": 2.1711645, "tags": {"addr:housenumber": "85", "addr:street": "Carrer de Bail\u00e8n", "amenity": "post_office", "check_date": "2024-09-27", "name": "Tamarindo Express", "wheelchair": "yes"}}, {"type": "node", "id": 12269902579, "lat": 41.3953323, "lon": 2.1701123, "tags": {"addr:housenumber": "85", "addr:street": "Carrer de Girona", "amenity": "post_office", "check_date": "2024-10-20", "name": "Nacex"}}, {"type": "way", "id": 217135134, "nodes": [2264399520, 6133387500, 2264384300, 2264384298, 3884107877, 3884107873, 3884107867, 3884107865, 3884107864, 3884107863, 2264384297, 2264384296, 3884107055, 3884107056, 3884107053, 3884107051, 3884107049, 3884107050, 3884107052, 3884107054, 3884107857, 3884107858, 715159469, 6133387273, 6133387283, 6133387232, 6133387381, 6133388093, 6133387536, 6133387418, 6133387569, 6133387255, 6133387708, 6133387206, 6133387248, 6133387211, 6133387259, 6133387275, 6133387242, 6133387503, 4182135624, 6133387502, 6133387702, 2264384299, 3884107866, 3884107868, 3884107869, 3884107871, 6133387218, 6133387235, 3884107874, 3884107876, 3884107878, 3884107879, 3884107881, 3884107882, 3884107883, 6133387345, 6133387790, 6133387367, 6133387271, 6133387270, 6133387276, 6133387224, 6133387332, 6133387192, 6133387370, 6133387249, 6133387225, 6133387209, 6133387205, 6133387686, 6133387245, 6133387690, 6133387692, 6133387555, 6133387695, 6133387504, 6133387697, 6133387698, 6133387194, 6133387701, 6133387703, 6133387706, 6133387257, 6133387710, 6133387713, 6133387714, 6133387717, 6133387719, 6133387721, 6133387722, 6133387440, 6133387726, 6133387729, 6133387731, 6133387214, 6133387733, 6133387549, 6133387550, 6133387373, 6133387552, 6133387554, 6133387243, 6133387339, 6133387561, 6133387723, 6133387563, 6133387410, 6133387220, 6133387566, 6133387335, 3884107911, 2264384304, 3884107913, 6133387506, 3884107916, 3884107915, 3884107912, 2264384303, 3884107910, 3884107905, 3884107899, 6133387223, 6133387331, 6133387704, 6133387374, 6133387241, 6133387705, 2524489383, 9126478875, 6133387334, 6133387786, 9126478876, 6133387709, 6133387337, 6133387239, 6133387529, 6133387537, 6133387227, 6133387394, 6133387406, 6133388099, 6133387419, 6133387424, 6133387725, 6133387435, 6133387685, 6133387796, 6133387707, 6133387720, 6133387732, 6133387553, 6133387338, 6133387570, 6133387499, 6133387344, 6133387229, 6133387785, 6133387333, 6133387501, 6133387795, 6133387426, 6133387571, 2264399520], "tags": {"amenity": "post_office", "brand": "Correos", "brand:wikidata": "Q776605", "building": "public", "building:levels": "5", "building:levels:underground": "1", "name": "Oficina de Correos", "name:ca": "Oficina de Correus", "name:es": "Oficina de Correos", "note": "La espectacular b\u00f3veda de cristal que corona la sede central del servicio postal de Barcelona aporta una extraordinaria iluminaci\u00f3n que solo se entiende visitando su parte superior", "operator": "Correos", "operator:wikidata": "Q776605", "operator:wikipedia": "es:Correos (Espa\u00f1a)", "website": "https://www.correos.es/", "wikidata": "Q21903346", "wikimedia_commons": "Category:Central Post Office building (Barcelona)", "wikipedia": "ca:Casa de Correus i Tel\u00e8grafs (Barcelona)"}}, {"type": "way", "id": 349276962, "nodes": [3551790529, 3551790526, 3551790528, 3551790531, 3551790529], "tags": {"amenity": "post_office", "brand": "Correos", "brand:wikidata": "Q776605", "brand:wikipedia": "es:Correos (Espa\u00f1a)", "building": "yes", "building:levels": "2", "name": "Oficina de Correos", "name:ca": "Oficina de Correus", "name:es": "Oficina de Correos", "operator": "Correos", "operator:wikidata": "Q776605", "operator:wikipedia": "es:Correos (Espa\u00f1a)", "website": "https://www.correos.es/", "wheelchair": "yes"}}]}