{"version": 0.6, "generator": "Overpass API 0.7.62.5 1bd436f1", "osm3s": {"timestamp_osm_base": "2025-03-10T17:08:15Z", "copyright": "The data included in this document is from www.openstreetmap.org. The data is made available under ODbL."}, "elements": [{"type": "node", "id": 191894875, "lat": 41.3804543, "lon": 2.1741843, "tags": {"amenity": "fast_food", "brand": "McDonald's", "brand:wikidata": "Q38076", "brand:wikipedia": "es:McDonald's", "check_date": "2024-07-20", "cuisine": "burger", "diet:gluten_free": "yes", "internet_access": "wlan", "name": "McDonald's", "name:ca": "McDonald's", "operator": "McDonald's", "takeaway": "yes", "toilets": "yes", "toilets:wheelchair": "yes", "wheelchair": "yes"}}, {"type": "node", "id": 191895326, "lat": 41.3803081, "lon": 2.1743286, "tags": {"alt_name": "Kentucky Fried Chicken", "amenity": "fast_food", "brand": "KFC", "brand:wikidata": "Q524757", "brand:wikipedia": "en:KFC", "check_date": "2024-07-20", "cuisine": "chicken", "indoor_seating": "yes", "name": "KFC", "outdoor_seating": "no", "takeaway": "yes", "wheelchair": "yes"}}, {"type": "node", "id": 194541445, "lat": 41.3747708, "lon": 2.1658516, "tags": {"amenity": "fast_food", "brand": "Burger King", "brand:wikidata": "Q177054", "brand:wikipedia": "es:Burger King", "cuisine": "burger", "diet:gluten_free": "yes", "indoor_seating": "yes", "name": "Burger King", "outdoor_seating": "yes", "takeaway": "yes"}}, {"type": "node", "id": 287007603, "lat": 41.426787, "lon": 2.2102159}, {"type": "node", "id": 616483268, "lat": 41.4107436, "lon": 2.1745558, "tags": {"amenity": "fast_food", "brand": "Pans & Company", "brand:wikidata": "Q11697586", "cuisine": "sandwich", "name": "Pans & Company", "name:ca": "Pans & Company", "takeaway": "yes"}}, {"type": "node", "id": 616483277, "lat": 41.4047602, "lon": 2.1746628, "tags": {"addr:housenumber": "2", "addr:postcode": "08025", "addr:street": "Avinguda de Gaud\u00ed", "alt_name": "Kentucky Fried Chicken", "amenity": "fast_food", "brand": "KFC", "brand:wikidata": "Q524757", "brand:wikipedia": "en:KFC", "cuisine": "chicken", "delivery": "no", "drive_through": "no", "indoor_seating": "yes", "internet_access": "wlan", "name": "KFC", "opening_hours": "Mo-We 11:00-01:00; Th 11:00-02:00; Fr,Sa 11:00-03:00; Su 10:30-02:00", "outdoor_seating": "no", "takeaway": "yes", "toilets:wheelchair": "yes", "wheelchair": "yes"}}, {"type": "node", "id": 640465494, "lat": 41.3814704, "lon": 2.1757171, "tags": {"amenity": "fast_food", "cuisine": "pizza", "name": "Italo", "survey:date": "2022-12-07"}}, {"type": "node", "id": 660771772, "lat": 41.4035018, "lon": 2.1977649, "tags": {"addr:housenumber": "117", "addr:postcode": "08018", "addr:street": "Rambla del Poblenou", "amenity": "fast_food", "cuisine": "chicken", "name": "Apluma", "website": "https://www.apluma.com/"}}, {"type": "node", "id": 671914494, "lat": 41.3819524, "lon": 2.1723439, "tags": {"amenity": "fast_food", "brand": "Dunkin' Coffee", "brand:wikidata": "Q847743", "brand:wikipedia": "es:Dunkin'", "cuisine": "donut;coffee_shop", "name": "Dunkin' Coffee", "outdoor_seating": "no", "takeaway": "yes", "toilets": "no", "wheelchair": "yes"}}, {"type": "node", "id": 671914497, "lat": 41.3818518, "lon": 2.172403, "tags": {"amenity": "fast_food", "name": "Bocatta"}}, {"type": "node", "id": 671914504, "lat": 41.3816636, "lon": 2.1725305, "tags": {"amenity": "fast_food", "name": "Pita Inn"}}, {"type": "node", "id": 671914511, "lat": 41.3822966, "lon": 2.1719827, "tags": {"addr:city": "Barcelona", "addr:housenumber": "95", "addr:postcode": "08002", "addr:street": "la Rambla", "amenity": "fast_food", "brand": "Wok to Walk", "brand:wikidata": "Q4020634", "cuisine": "asian", "name": "Wok to Walk", "opening_hours": "Su-Th 10:30-24:00; Fr-Sa 10:30-02:00", "phone": "+34 678 60 45 23", "source": "http://woktowalk.com/es", "takeaway": "yes", "website": "https://woktowalk.com/es/localizacion/restaurante-en-barcelona-ramblas/", "wheelchair": "yes"}}, {"type": "node", "id": 672398201, "lat": 41.3842121, "lon": 2.1706668, "tags": {"amenity": "fast_food"}}, {"type": "node", "id": 673969809, "lat": 41.3847423, "lon": 2.1682309, "tags": {"amenity": "fast_food", "cuisine": "kebab", "name": "Mustafa's"}}, {"type": "node", "id": 691581802, "lat": 41.3845397, "lon": 2.1703802, "tags": {"amenity": "fast_food", "name": "Pita Inn"}}, {"type": "node", "id": 691581804, "lat": 41.3845823, "lon": 2.1703539, "tags": {"amenity": "fast_food", "brand": "Pans & Company", "brand:wikidata": "Q11697586", "brand:wikipedia": "es:Pans & Company", "cuisine": "sandwich", "diet:gluten_free": "yes", "name": "Pans & Company", "name:ca": "Pans & Company", "takeaway": "yes"}}, {"type": "node", "id": 704031480, "lat": 41.385359, "lon": 2.1696362, "tags": {"amenity": "fast_food", "brand": "McDonald's", "brand:wikidata": "Q38076", "brand:wikipedia": "es:McDonald's", "cuisine": "burger", "diet:gluten_free": "yes", "drive_through": "no", "internet_access": "wlan", "internet_access:fee": "no", "name": "McDonald's", "name:ca": "McDonald's", "outdoor_seating": "no", "takeaway": "yes", "toilets": "yes", "toilets:wheelchair": "yes", "wheelchair": "yes"}}, {"type": "node", "id": 704032545, "lat": 41.3852671, "lon": 2.1698477, "tags": {"amenity": "fast_food", "brand": "Burger King", "brand:wikidata": "Q177054", "brand:wikipedia": "es:Burger King", "cuisine": "burger", "diet:gluten_free": "yes", "name": "Burger King", "takeaway": "yes", "wheelchair": "no"}}, {"type": "node", "id": 704041360, "lat": 41.388488, "lon": 2.172522, "tags": {"amenity": "fast_food", "brand": "Pans & Company", "brand:wikidata": "Q11697586", "cuisine": "sandwich", "name": "Pans & Company", "takeaway": "yes", "wheelchair": "yes"}}, {"type": "node", "id": 704047460, "lat": 41.3875862, "lon": 2.1678985, "tags": {"amenity": "fast_food", "brand": "Burger King", "brand:wikidata": "Q177054", "brand:wikipedia": "es:Burger King", "cuisine": "burger", "diet:gluten_free": "yes", "name": "Burger King", "opening_hours": "Mo-Th 11:00-00:30; Fr,Sa 11:00-01:30; Su 12:00-00:30", "takeaway": "yes"}}, {"type": "node", "id": 704058857, "lat": 41.3918763, "lon": 2.1657972, "tags": {"addr:city": "Barcelona", "addr:housenumber": "48", "addr:postcode": "08007", "addr:street": "Passeig de Gr\u00e0cia", "amenity": "fast_food", "branch": "Passeig de Gr\u00e0cia", "brand": "McDonald's", "brand:wikidata": "Q38076", "brand:wikipedia": "es:McDonald's", "check_date": "2024-06-13", "cuisine": "burger", "delivery": "yes", "diet:gluten_free": "yes", "diet:vegetarian": "yes", "drive_through": "no", "internet_access": "wlan", "internet_access:fee": "no", "name": "McDonald's", "name:ca": "McDonald's", "opening_hours": "Su-Th 06:00-01:30; Fr-Sa 06:00-02:30", "outdoor_seating": "yes", "payment:mastercard": "yes", "payment:visa": "yes", "phone": "+34 934874460", "smoking": "no", "takeaway": "yes", "toilets:wheelchair": "yes", "wheelchair": "yes"}}, {"type": "node", "id": 704059522, "lat": 41.390324, "lon": 2.1676904, "tags": {"addr:housenumber": "28", "addr:postcode": "08007", "addr:street": "Passeig de Gr\u00e0cia", "amenity": "fast_food", "brand": "Five Guys", "brand:wikidata": "Q1131810", "cuisine": "burger", "name": "Five Guys", "official_name": "Five Guys Burgers and Fries", "takeaway": "yes", "wheelchair": "no"}}, {"type": "node", "id": 704066361, "lat": 41.3890488, "lon": 2.1657391, "tags": {"amenity": "fast_food", "name": "Pans", "wheelchair": "no"}}, {"type": "node", "id": 814996958, "lat": 41.3895408, "lon": 2.1553488, "tags": {"amenity": "fast_food", "cuisine": "churro"}}, {"type": "node", "id": 818809851, "lat": 41.388503, "lon": 2.1519989, "tags": {"addr:city": "Barcelona", "addr:country": "ES", "addr:postcode": "08036", "addr:street": "Carrer Villarroel", "amenity": "fast_food", "brand": "Pans & Company", "brand:wikidata": "Q11697586", "brand:wikipedia": "es:Pans & Company", "cuisine": "sandwich", "diet:gluten_free": "yes", "name": "Pans & Company", "name:ca": "Pans & Company", "takeaway": "yes"}}, {"type": "node", "id": 984333489, "lat": 41.3857848, "lon": 2.1681028, "tags": {"amenity": "fast_food", "name": "Pure Cusine", "wheelchair": "yes"}}, {"type": "node", "id": 1044859208, "lat": 41.4038166, "lon": 2.1733642, "tags": {"amenity": "fast_food", "branch": "Sagrada Fam\u00edlia", "brand": "McDonald's", "brand:wikidata": "Q38076", "brand:wikipedia": "es:McDonald's", "cuisine": "burger", "diet:gluten_free": "yes", "drive_through": "no", "internet_access": "wlan", "name": "McDonald's", "name:ca": "McDonald's", "opening_hours": "Mo-Su 09:00-01:00", "takeaway": "yes", "toilets": "yes", "toilets:wheelchair": "yes", "website": "https://mcdonalds.es", "wheelchair": "yes"}}, {"type": "node", "id": 1250504972, "lat": 41.3881857, "lon": 2.1509332, "tags": {"amenity": "fast_food", "cuisine": "burger", "name": "Frankfurt Urgell", "name:ca": "Frankfurt Urgell", "opening_hours": "Mo 12:00-17:00; Tu-Sa 12:00-00:00", "wheelchair": "limited"}}, {"type": "node", "id": 1276414622, "lat": 41.383052, "lon": 2.1771014, "tags": {"addr:housename": "Conesa", "addr:housenumber": "1", "addr:postcode": "08002", "addr:street": "Carrer de la Llibreteria", "amenity": "fast_food", "cuisine": "spanish", "diet:gluten_free": "only", "email": "clients@conesaentrepans.com", "int_name": "Conesa", "internet_access": "no", "name": "Conesa", "opening_hours": "Mo-Sa 08:30-22:15", "opening_hours:covid19": "off", "phone": "+34 933 10 13 94", "smoking": "no", "website": "https://www.conesaentrepans.com/", "wheelchair": "no"}}, {"type": "node", "id": 1278264514, "lat": 41.3811969, "lon": 2.1811013, "tags": {"addr:housename": "Merce", "addr:housenumber": "14-16", "addr:postcode": "08002", "addr:street": "Carrer de la Fusteria", "amenity": "fast_food", "cuisine": "sandwich", "drink:club-mate": "served", "name": "B\u00f3 de B", "opening_hours": "Mo-Fr 12:00-24:00; Sa 00:00-01:00,12:00-24:00; Su 00:00-01:00,12:00-19:00"}}, {"type": "node", "id": 1357211202, "lat": 41.4029891, "lon": 2.1538821, "tags": {"addr:city": "Barcelona", "addr:country": "ES", "addr:housenumber": "20", "addr:street": "Carrer d'Ast\u00faries", "amenity": "fast_food", "check_date": "2023-02-19", "cuisine": "pizza", "name": "Micaela", "opening_hours": "Mo-Su 09:00-24:00; Sa 10:00-24:00; Su 12:00-24:00", "wheelchair": "yes"}}, {"type": "node", "id": 1377899679, "lat": 41.3984057, "lon": 2.1612354, "tags": {"addr:city": "Barcelona", "addr:housenumber": "3", "addr:postcode": "08012", "addr:street": "Carrer del Torrent de l'Olla", "amenity": "fast_food", "contact:phone": "+34932174689", "entrance": "yes", "name": "Frankfurt TR3S", "ref:vatin": "ESB63559173", "wheelchair": "no"}}, {"type": "node", "id": 1497112727, "lat": 41.3781816, "lon": 2.1693341, "tags": {"addr:housenumber": "18", "addr:postcode": "08001", "addr:street": "Rambla del Raval", "amenity": "fast_food", "cuisine": "american", "name": "La Caleta Burger", "name:fr": "SANDWICHERIA EL ATLAS", "opening_hours": "Mo-Su 13:00-23:00", "website": "http://www.lacaletaburgerbarcelona.com/"}}, {"type": "node", "id": 1553073575, "lat": 41.3755539, "lon": 2.1832688, "tags": {"amenity": "fast_food", "brand": "McDonald's", "brand:wikidata": "Q38076", "brand:wikipedia": "es:McDonald's", "check_date": "2023-04-26", "cuisine": "burger", "diet:gluten_free": "yes", "internet_access": "wlan", "name": "McDonald's", "name:ca": "McDonald's", "opening_hours": "Mo-Fr 09:00-23:00; Sa-Su 09:00-00:00", "wheelchair": "limited"}}, {"type": "node", "id": 1600160307, "lat": 41.3758217, "lon": 2.1203135, "tags": {"addr:city": "L'Hospitalet de Llobregat", "addr:housenumber": "22", "addr:neighbourhood": "Collblanc", "addr:postcode": "08903", "addr:street": "Carretera de Collblanc", "amenity": "fast_food", "brand": "McDonald's", "brand:wikidata": "Q38076", "brand:wikipedia": "ca:McDonald\u2019s", "check_date": "2024-04-09", "cuisine": "burger", "delivery": "yes", "diet:gluten_free": "yes", "internet_access": "wlan", "name": "McDonald's", "name:ca": "McDonald's", "opening_hours": "Mo-Th 08:00-01:00; Fr-Su 08:00-02:00", "operator": "McDonald's", "outdoor_seating": "no", "payment:mastercard": "yes", "payment:visa": "yes", "phone": "+34 93 448 25 05", "smoking": "no", "takeaway": "yes", "website": "https://mcdonalds.es"}}, {"type": "node", "id": 1658424921, "lat": 41.3972738, "lon": 2.1884132, "tags": {"amenity": "fast_food", "check_date": "2023-04-16", "name": "Forastera"}}, {"type": "node", "id": 1804161037, "lat": 41.3817598, "lon": 2.1787307, "tags": {"addr:housenumber": "1", "addr:postcode": "08002", "addr:street": "Pla\u00e7a del Regomir", "amenity": "fast_food", "cuisine": "sushi", "name": "Matsuri"}}, {"type": "node", "id": 1867973707, "lat": 41.385604, "lon": 2.1790402, "tags": {"addr:city": "Barcelona", "addr:housenumber": "2", "addr:postcode": "08003", "addr:province": "Barcelona", "addr:street": "Carrer de Colomines", "amenity": "fast_food", "branch": "Little Born", "cuisine": "burger", "name": "Bacoa", "opening_hours": "We-Th 13:00-17:00, 19:00-23:00; Fr 13:00-17:00, 19:00-00:00; Sa 13:00-00:00; Su 13:00-23:00", "toilets": "yes", "website": "https://www.bacoaburger.com/"}}, {"type": "node", "id": 1878684095, "lat": 41.3909279, "lon": 2.1978477, "tags": {"amenity": "fast_food"}}, {"type": "node", "id": 1886635512, "lat": 41.3929208, "lon": 2.1566606, "tags": {"addr:city": "Barcelona", "addr:country": "ES", "addr:postcode": "08008", "addr:street": "Carrer del Rossell\u00f3", "amenity": "fast_food", "cuisine": "kebab", "drive_through": "no", "name": "Baribar Istanbul"}}, {"type": "node", "id": 1889913524, "lat": 41.3922702, "lon": 2.1580421, "tags": {"amenity": "fast_food", "name": "Nostrum"}}, {"type": "node", "id": 1935831389, "lat": 41.4245124, "lon": 2.1401204, "tags": {"amenity": "fast_food", "name": "Kebab Turca"}}, {"type": "node", "id": 1936562786, "lat": 41.3763336, "lon": 2.1359734, "tags": {"addr:street": "Carrer de Galileu", "amenity": "fast_food", "cuisine": "fast_food", "delivery": "no", "name": "Pans & Company - Pollo Campero", "takeaway": "yes"}}, {"type": "node", "id": 1936566225, "lat": 41.374786, "lon": 2.1695624, "tags": {"amenity": "fast_food", "brand": "Pollo Campero", "brand:wikidata": "Q942741", "brand:wikipedia": "en:Pollo Campero", "cuisine": "chicken", "name": "Pollo Campero", "takeaway": "yes"}}, {"type": "node", "id": 2085656653, "lat": 41.3814233, "lon": 2.1871181, "tags": {"addr:city": "Barcelona", "amenity": "fast_food", "brand": "Burger King", "brand:wikidata": "Q177054", "brand:wikipedia": "es:Burger King", "cuisine": "burger", "diet:gluten_free": "yes", "diet:vegetarian": "no", "indoor_seating": "yes", "name": "Burger King", "outdoor_seating": "no", "takeaway": "yes"}}, {"type": "node", "id": 2085656654, "lat": 41.3884832, "lon": 2.1731191, "tags": {"addr:city": "Barcelona", "addr:housenumber": "11", "addr:street": "Pla\u00e7a d'Urquinaona", "amenity": "fast_food", "brand": "Burger King", "brand:wikidata": "Q177054", "brand:wikipedia": "es:Burger King", "contact:phone": "+34 934125160", "cuisine": "burger", "diet:gluten_free": "yes", "name": "Burger King", "takeaway": "yes"}}, {"type": "node", "id": 2085656655, "lat": 41.3917726, "lon": 2.1640539, "tags": {"addr:city": "Barcelona", "amenity": "fast_food", "brand": "Burger King", "brand:wikidata": "Q177054", "brand:wikipedia": "es:Burger King", "cuisine": "burger", "diet:gluten_free": "yes", "name": "Burger King", "opening_hours": "Fr,Sa 10:30-01:30; Su-Th 10:30-00:30", "takeaway": "yes"}}, {"type": "node", "id": 2091604674, "lat": 41.3857499, "lon": 2.1765663, "tags": {"amenity": "fast_food", "brand": "Burger King", "brand:wikidata": "Q177054", "brand:wikipedia": "es:Burger King", "check_date": "2023-04-23", "cuisine": "burger", "diet:gluten_free": "yes", "name": "Burger King", "source": "survey", "takeaway": "yes"}}, {"type": "node", "id": 2091604704, "lat": 41.3820813, "lon": 2.1476394, "tags": {"amenity": "fast_food", "name": "La Garrotxa", "name:ca": "La Garrotxa", "source": "survey"}}, {"type": "node", "id": 2102755754, "lat": 41.404753, "lon": 2.1559974, "tags": {"addr:housenumber": "58", "addr:postcode": "08012", "addr:street": "Carrer de Verdi", "amenity": "fast_food", "check_date": "2023-03-18", "name": "Pasticceria di Gracia", "name:ca": "La Pasticceria di Gracia", "website": "https://acasaportuguesa.com/", "wheelchair": "no"}}, {"type": "node", "id": 2149161944, "lat": 41.4024827, "lon": 2.1702045, "tags": {"addr:city": "Barcelona", "addr:housenumber": "272", "addr:postcode": "08025", "addr:street": "Carrer de N\u00e0pols", "amenity": "fast_food", "cuisine": "chicken", "diet:gluten_free": "yes", "name": "Els \"pollos\" de Llull", "opening_hours": "Mo-Th 12:00-18:00; We off; Fr-Sa 12:00-23:00; Su 12:00-20:00", "phone": "+34 931 62 22 50", "website": "https://www.elspollos.com/", "wheelchair": "yes"}}, {"type": "node", "id": 2170715420, "lat": 41.4095889, "lon": 2.2159057, "tags": {"addr:floor": "3", "addr:place": "Local 3450", "amenity": "fast_food", "cuisine": "german", "level": "1", "level:ref": "3", "name": "Kurz & Gut", "operator": "Kurz & Gut", "phone": "+34 931 42 84 07;+34 933 56 03 05", "website": "https://www.kurz-gut.com/"}}, {"type": "node", "id": 2170756627, "lat": 41.4093668, "lon": 2.2164925, "tags": {"amenity": "fast_food", "brand": "McDonald's", "brand:wikidata": "Q38076", "brand:wikipedia": "es:McDonald's", "cuisine": "burger", "diet:gluten_free": "yes", "name": "McDonald's", "name:ca": "McDonald's", "opening_hours": "Mo-Th 09:30-23:30; Fr 09:30-24:00; Sa 00:00-00:30,09:30-24:00; Su 00:00-01:00,11:00-23:30", "operator": "McDonald's", "phone": "+34 933560410", "takeaway": "yes", "website": "https://www.mcdonalds.es/"}}, {"type": "node", "id": 2170756632, "lat": 41.4091945, "lon": 2.2164444, "tags": {"amenity": "fast_food", "brand": "Viena", "brand:wikidata": "Q11954717", "cuisine": "sandwich", "diet:gluten_free": "yes", "name": "Viena", "name:ca": "Viena", "opening_hours": "Mo-Fr 09:00-24:00; Sa 00:00-01:00,09:00-24:00; Su 00:00-01:00,10:00-24:00", "phone": "+34 933562359", "website": "https://www.viena.es"}}, {"type": "node", "id": 2193095290, "lat": 41.4054932, "lon": 2.1943451, "tags": {"amenity": "fast_food", "cuisine": "kebab", "name": "El rinc\u00f3n de Glorias"}}, {"type": "node", "id": 2193421652, "lat": 41.405107, "lon": 2.1919659, "tags": {"amenity": "fast_food", "brand": "Burger King", "brand:wikidata": "Q177054", "brand:wikipedia": "es:Burger King", "cuisine": "burger", "diet:gluten_free": "yes", "level": "0", "name": "Burger King", "opening_hours": "Su-Th 11:00-24:00; Fr,Sa 11:00-01:00", "takeaway": "yes", "toilets:wheelchair": "yes", "wheelchair": "yes"}}, {"type": "node", "id": 2268659507, "lat": 41.3926063, "lon": 2.2037697, "tags": {"addr:city": "Barcelona", "addr:postcode": "08005", "amenity": "fast_food", "brand": "McDonald's", "brand:wikidata": "Q38076", "brand:wikipedia": "es:McDonald's", "cuisine": "burger", "diet:gluten_free": "yes", "name": "McDonald's", "name:ca": "McDonald's", "takeaway": "yes"}}, {"type": "node", "id": 2354451591, "lat": 41.3747533, "lon": 2.1586505, "tags": {"amenity": "fast_food", "brand": "Telepizza", "brand:wikidata": "Q2699863", "brand:wikipedia": "es:Telepizza", "cuisine": "pizza", "name": "Telepizza", "takeaway": "yes"}}, {"type": "node", "id": 2421223094, "lat": 41.3813329, "lon": 2.1356606, "tags": {"amenity": "fast_food", "name": "Nostrum"}}, {"type": "node", "id": 2484218133, "lat": 41.3883669, "lon": 2.1707319, "tags": {"addr:housenumber": "3", "addr:street": "Ronda de Sant Pere", "amenity": "fast_food", "brand": "McDonald's", "brand:wikidata": "Q38076", "brand:wikipedia": "es:McDonald's", "check_date": "2024-06-14", "cuisine": "burger", "diet:gluten_free": "yes", "indoor_seating": "yes", "name": "McDonald's", "name:ca": "McDonald's", "outdoor_seating": "no", "takeaway": "yes", "wheelchair": "yes"}}, {"type": "node", "id": 2491599564, "lat": 41.3747887, "lon": 2.1691119, "tags": {"addr:country": "ES", "amenity": "fast_food", "brand": "Pans & Company", "brand:wikidata": "Q11697586", "brand:wikipedia": "es:Pans & Company", "cuisine": "sandwich", "diet:gluten_free": "yes", "name": "Pans & Company", "name:ca": "Pans & Company", "takeaway": "yes"}}, {"type": "node", "id": 2493201394, "lat": 41.3865587, "lon": 2.1658694, "tags": {"amenity": "fast_food", "brand": "The Good Burger", "brand:wikidata": "Q20962086", "cuisine": "burger", "delivery": "yes", "indoor_seating": "yes", "name": "The Good Burger", "outdoor_seating": "yes", "short_name": "TGB", "takeaway": "yes", "wheelchair": "limited"}}, {"type": "node", "id": 2617962817, "lat": 41.4049285, "lon": 2.1919361, "tags": {"addr:city": "Barcelona", "addr:housenumber": "188", "addr:postcode": "08018", "addr:street": "Avinguda Diagonal", "amenity": "fast_food", "brand": "McDonald's", "brand:wikidata": "Q38076", "brand:wikipedia": "es:McDonald's", "cuisine": "burger", "diet:gluten_free": "yes", "level": "0", "name": "McDonald's", "name:ca": "McDonald's", "opening_hours": "Su-Th 08:00-23:30; Fr,Sa 08:00-01:00", "takeaway": "yes"}}, {"type": "node", "id": 2967993563, "lat": 41.3824002, "lon": 2.1764461, "tags": {"addr:housenumber": "26", "addr:postcode": "08002", "addr:street": "Carrer del Call", "amenity": "fast_food", "entrance": "yes", "name": "nostrum"}}, {"type": "node", "id": 2968921886, "lat": 41.4051994, "lon": 2.1629782, "tags": {"addr:city": "Barcelona", "addr:street": "Carrer de Ram\u00f3n y Cajal", "amenity": "fast_food", "cuisine": "regional", "name": "El viejo almac\u00e9n", "takeaway": "only", "wheelchair": "limited"}}, {"type": "node", "id": 3023964339, "lat": 41.4007199, "lon": 2.1997229, "tags": {"addr:city": "Barcelona", "addr:housenumber": "168", "addr:postcode": "08005", "addr:street": "Carrer de Pujades", "amenity": "fast_food", "branch": "Poblenou", "contact:phone": "+34933285188", "cuisine": "burger", "name": "Timesburg", "smoking": "outside", "website": "https://www.timesburg.com/"}}, {"type": "node", "id": 3023972700, "lat": 41.3890716, "lon": 2.1468704, "tags": {"addr:housenumber": "95", "addr:postcode": "08029", "addr:street": "Carrer de Par\u00eds", "amenity": "fast_food", "branch": "Par\u00eds", "cuisine": "burger", "internet_access": "no", "name": "Timesburg", "outdoor_seating": "no", "phone": "+34936677454", "smoking": "outside", "takeaway": "yes", "toilets": "yes", "website": "https://www.timesburg.com/"}}, {"type": "node", "id": 3049395445, "lat": 41.4099761, "lon": 2.1891637, "tags": {"amenity": "fast_food", "cuisine": "argentinian;pizza", "description": "Pizzer\u00eda Argentina", "name": "Sis\u00f3"}}, {"type": "node", "id": 3079351582, "lat": 41.3756359, "lon": 2.1830818, "tags": {"amenity": "fast_food", "name": "Pans & Co"}}, {"type": "node", "id": 3128188880, "lat": 41.4096446, "lon": 2.2153039, "tags": {"amenity": "fast_food", "brand": "Burger King", "brand:wikidata": "Q177054", "brand:wikipedia": "es:Burger King", "cuisine": "burger", "diet:gluten_free": "yes", "level": "1", "level:ref": "3", "name": "Burger King", "phone": "+3493 356 09 46", "takeaway": "yes", "website": "https://www.burgerking.es"}}, {"type": "node", "id": 3128203789, "lat": 41.4099284, "lon": 2.2158395, "tags": {"amenity": "fast_food", "brand": "Subway", "brand:wikidata": "Q244457", "brand:wikipedia": "en:Subway (restaurant)", "cuisine": "sandwich", "level": "1", "level:ref": "3", "name": "Subway", "phone": "+3493 356 05 87", "takeaway": "yes", "website": "https://subwayspain.com"}}, {"type": "node", "id": 3311599168, "lat": 41.4048905, "lon": 2.1324544, "tags": {"addr:city": "Barcelona", "addr:housenumber": "1", "addr:postcode": "08022", "addr:street": "Carrer de Bigai", "amenity": "fast_food", "branch": "La Bonanova", "cuisine": "burger", "delivery": "yes", "delivery:partner": "Resto In", "name": "Pim Pam Burger", "opening_hours": "12:00-24:00", "organic": "no", "phone": "+34932115606", "takeaway": "yes", "toilets:wheelchair": "no", "website": "https://www.pimpamburger.com/"}}, {"type": "node", "id": 3386550692, "lat": 41.4051386, "lon": 2.1928962, "tags": {"addr:street": "Barcelona Glorias", "amenity": "fast_food", "cuisine": "german", "indoor_seating": "yes", "level": "0", "name": "kurz & gut", "outdoor_seating": "no", "toilets:wheelchair": "yes", "wheelchair": "yes"}}, {"type": "node", "id": 3441381093, "lat": 41.4119021, "lon": 2.1504302, "tags": {"amenity": "fast_food", "cuisine": "sandwich", "diet:vegetarian": "yes", "indoor_seating": "no", "name": "G\u00fcelly Sandwichpark", "outdoor_seating": "no", "payment:credit_cards": "yes", "payment:debit_cards": "yes", "takeaway": "only", "url": "https://www.facebook.com/profile.php?id=235725763244011"}}, {"type": "node", "id": 3498943679, "lat": 41.4074906, "lon": 2.1483999, "tags": {"addr:city": "Barcelona", "addr:housenumber": "12", "addr:postcode": "08023", "addr:street": "Avinguda de la Rep\u00fablica Argentina", "amenity": "fast_food", "name": "Frankfurt El Pibe"}}, {"type": "node", "id": 3517278622, "lat": 41.4009969, "lon": 2.1476157, "tags": {"addr:city": "Barcelona", "addr:housenumber": "8", "addr:postcode": "08006", "addr:street": "Pla\u00e7a de Molina", "amenity": "fast_food", "contact:email": "plazamolina@muns.cat", "contact:phone": "+34 930 23 52 89", "contact:website": "https://lasmuns.com/", "name": "Las Muns", "opening_hours": "11:30-23:00"}}, {"type": "node", "id": 3659774532, "lat": 41.4001037, "lon": 2.1212808, "tags": {"addr:housenumber": "103", "addr:street": "Carrer Major de Sarri\u00e0", "amenity": "fast_food", "cuisine": "regional", "name": "L'ast de sarria", "opening_hours": "09:00-15:00", "phone": "+34 932036537", "takeaway": "only"}}, {"type": "node", "id": 3711096625, "lat": 41.3886216, "lon": 2.1806014, "tags": {"addr:city": "Barcelona", "addr:housenumber": "19", "addr:postcode": "08003", "addr:street": "Carrer del Portal Nou", "amenity": "fast_food", "cuisine": "burger", "name": "Festin"}}, {"type": "node", "id": 3749438192, "lat": 41.4023708, "lon": 2.1741726, "tags": {"amenity": "fast_food", "brand": "Subway", "brand:wikidata": "Q244457", "brand:wikipedia": "en:Subway (restaurant)", "check_date": "2024-02-11", "cuisine": "sandwich", "name": "Subway", "takeaway": "yes"}}, {"type": "node", "id": 3768896550, "lat": 41.3812734, "lon": 2.1809075, "tags": {"addr:city": "Barcelona", "addr:housenumber": "6", "addr:postcode": "08002", "addr:street": "Carrer de la Fusteria", "amenity": "fast_food", "cuisine": "kebab", "diet:halal": "yes", "name": "Kapadokya", "phone": "+34 933283227", "takeaway": "yes"}}, {"type": "node", "id": 3857067159, "lat": 41.3572847, "lon": 2.1279528, "tags": {"amenity": "fast_food", "brand": "McDonald's", "brand:wikidata": "Q38076", "brand:wikipedia": "es:McDonald's", "cuisine": "burger", "diet:gluten_free": "yes", "name": "McDonald's", "name:ca": "McDonald's", "wheelchair": "yes"}}, {"type": "node", "id": 3857067160, "lat": 41.3580937, "lon": 2.1291385, "tags": {"amenity": "fast_food", "brand": "Subway", "brand:wikidata": "Q244457", "brand:wikipedia": "en:Subway (restaurant)", "cuisine": "sandwich", "drive_through": "no", "level": "0", "name": "Subway", "takeaway": "yes", "wheelchair": "yes"}}, {"type": "node", "id": 3913288111, "lat": 41.4136746, "lon": 2.1813514, "tags": {"addr:city": "Barcelona", "addr:postcode": "08026", "addr:street": "Carrer del Freser", "amenity": "fast_food", "brand": "Domino's", "brand:wikidata": "Q839466", "brand:wikipedia": "en:Domino's Pizza", "cuisine": "pizza", "delivery": "yes", "delivery:covid19": "yes", "drive_through:covid19": "no", "name": "Domino's", "phone": "+34 934554010", "takeaway": "yes"}}, {"type": "node", "id": 3954272082, "lat": 41.3948671, "lon": 2.2005669, "tags": {"addr:city": "Barcelona", "addr:postcode": "08005", "addr:street": "Carrer de Badajoz", "amenity": "fast_food", "name": "Frankfurt Tito Paco"}}, {"type": "node", "id": 3962556129, "lat": 41.3995952, "lon": 2.2029522, "tags": {"addr:city": "Barcelona", "addr:postcode": "08005", "addr:street": "Rambla del Poblenou", "amenity": "fast_food", "check_date": "2023-12-25", "cuisine": "burger", "name": "El Pibe"}}, {"type": "node", "id": 4031836893, "lat": 41.377745, "lon": 2.164666, "tags": {"amenity": "fast_food", "brand": "Burger King", "brand:wikidata": "Q177054", "brand:wikipedia": "es:Burger King", "cuisine": "burger", "diet:gluten_free": "yes", "name": "Burger King", "takeaway": "yes", "wheelchair": "limited"}}, {"type": "node", "id": 4083945035, "lat": 41.3802221, "lon": 2.1762739, "tags": {"addr:city": "Barcelona", "addr:housenumber": "14", "addr:postcode": "08002", "addr:street": "Carrer dels Escudellers Blancs", "amenity": "fast_food", "contact:facebook": "100054652440272", "cuisine": "pizza", "name": "L'Antico Borgo Napoletano", "opening_hours": "Mo-Su 12:00-00:00", "phone": "+34664711927", "takeaway": "yes"}}, {"type": "node", "id": 4158217891, "lat": 41.4157741, "lon": 2.1691507, "tags": {"addr:city": "Barcelona", "addr:housenumber": "119", "addr:postcode": "08041", "addr:street": "Avinguda de la Mare de D\u00e9u de Montserrat", "amenity": "fast_food", "cuisine": "kebab", "drive_through": "no", "name": "Kebab Bar Pica Pica", "opening_hours": "Mo-Su 11:00-24:00", "phone": "+34 93 4567337", "wheelchair": "no"}}, {"type": "node", "id": 4208077491, "lat": 41.3870961, "lon": 2.1671807, "tags": {"addr:housenumber": "31", "addr:street": "Ronda de la Universitat", "air_conditioning": "yes", "amenity": "fast_food", "branch": "Universitat", "cuisine": "burger", "diet:halal": "no", "diet:kosher": "no", "diet:vegan": "yes", "diet:vegetarian": "yes", "indoor_seating": "yes", "internet_access": "wlan", "internet_access:fee": "no", "name": "Bacoa Universitat", "opening_hours": "Su-Th 12:00-23:30; Fr,Sa 12:00-24:00", "outdoor_seating": "parklet", "payment:credit_cards": "yes", "payment:debit_cards": "yes", "phone": "+34932507290", "smoking": "outside", "website": "https://www.bacoaburguer.com", "wheelchair": "yes"}}, {"type": "node", "id": 4252269409, "lat": 41.3855731, "lon": 2.1811011, "tags": {"amenity": "fast_food", "fast_food": "cafeteria", "name": "Boheme"}}, {"type": "node", "id": 4254731020, "lat": 41.388631, "lon": 2.1732364, "tags": {"amenity": "fast_food", "brand": "Telepizza", "brand:wikidata": "Q2699863", "brand:wikipedia": "es:Telepizza", "cuisine": "pizza", "indoor_seating": "yes", "name": "Telepizza", "outdoor_seating": "no", "takeaway": "yes"}}, {"type": "node", "id": 4261767089, "lat": 41.3802954, "lon": 2.1876182, "tags": {"amenity": "fast_food", "diet:vegetarian": "no", "name": "Las Fritas"}}, {"type": "node", "id": 4264372796, "lat": 41.3808373, "lon": 2.1747065, "tags": {"addr:city": "Barcelona", "addr:housenumber": "13", "addr:postcode": "08002", "addr:street": "Carrer de Ferran", "amenity": "fast_food", "check_date": "2024-07-20", "cuisine": "falafel", "diet:vegan": "only", "diet:vegetarian": "yes", "drive_through": "no", "indoor_seating": "yes", "name": "Maoz", "opening_hours": "Mo-Su 11:00-02:30", "outdoor_seating": "no", "takeaway": "yes", "website": "http://www.maozusa.com/restaurants/locations/barcelona", "wheelchair": "no"}}, {"type": "node", "id": 4281685057, "lat": 41.4181793, "lon": 2.1943443}, {"type": "node", "id": 4281685059, "lat": 41.4182387, "lon": 2.1942623}, {"type": "node", "id": 4281685060, "lat": 41.4182438, "lon": 2.1944275}, {"type": "node", "id": 4281685064, "lat": 41.4183032, "lon": 2.1943454}, {"type": "node", "id": 4290056070, "lat": 41.4181885, "lon": 2.2036622, "tags": {"amenity": "fast_food", "cuisine": "churro", "diet:vegetarian": "no", "name": "Churrer\u00eda A. Mart\u00ednez", "takeaway": "only", "wheelchair": "yes"}}, {"type": "node", "id": 4306656641, "lat": 41.4164909, "lon": 2.1969017, "tags": {"amenity": "fast_food", "cuisine": "pizza", "delivery": "no", "diet:vegetarian": "no", "drive_through": "yes", "name": "Red Pizza", "phone": "+34 93 266 45 46", "takeaway": "only", "website": "http://www.redpizzasantmarti.es/", "wheelchair": "no"}}, {"type": "node", "id": 4307026122, "lat": 41.4172048, "lon": 2.2044118, "tags": {"amenity": "fast_food", "cuisine": "pizza", "name": "Pizza", "name:ca": "Pizza", "takeaway": "yes"}}, {"type": "node", "id": 4317331605, "lat": 41.4013759, "lon": 2.1534955, "tags": {"addr:city": "Barcelona", "addr:housenumber": "113", "addr:postcode": "08012", "addr:street": "Carrer Gran de Gr\u00e0cia", "amenity": "fast_food", "branch": "Gran de Gr\u00e0cia", "brand": "McDonald's", "brand:wikidata": "Q38076", "brand:wikipedia": "es:McDonald's", "cuisine": "burger", "diet:gluten_free": "yes", "internet_access": "wlan", "internet_access:fee": "no", "name": "McDonald's", "name:ca": "McDonald's", "opening_hours": "Mo-Th, Su 08:00-01:00; Fr, Sa 08:00-02:00", "phone": "+34932178432", "takeaway": "yes", "toilets": "yes", "website": "https://mcdonalds.es", "wheelchair": "yes"}}, {"type": "node", "id": 4323326589, "lat": 41.4044219, "lon": 2.1741645, "tags": {"amenity": "fast_food", "brand": "Burger King", "brand:wikidata": "Q177054", "brand:wikipedia": "es:Burger King", "cuisine": "burger", "diet:gluten_free": "yes", "name": "Burger King", "takeaway": "yes", "wheelchair": "yes"}}, {"type": "node", "id": 4359209493, "lat": 41.3778452, "lon": 2.1728957, "tags": {"addr:housenumber": "40", "addr:postcode": "08001", "addr:street": "Carrer Nou de la Rambla", "amenity": "fast_food", "cuisine": "pizza", "name": "Pizza Circus", "name:ca": "Pizza Circus", "name:es": "Pizza Circus", "name:fr": "Pizza Circus", "name:ru": "\u043f\u0438\u0446\u0446\u0430 \u0446\u0438\u0440\u043a\u0443\u0441", "phone": "+34934123810"}}, {"type": "node", "id": 4360979090, "lat": 41.3859417, "lon": 2.1657285, "tags": {"amenity": "fast_food", "brand": "Subway", "brand:wikidata": "Q244457", "brand:wikipedia": "en:Subway (restaurant)", "check_date": "2024-11-20", "check_date:opening_hours": "2024-11-20", "cuisine": "sandwich", "level": "0", "name": "Subway", "opening_hours": "Su-Th 09:00-23:00, Fr,Sa 09:00-24:00", "smoking": "no", "takeaway": "yes", "wheelchair": "yes"}}, {"type": "node", "id": 4362575196, "lat": 41.3774405, "lon": 2.1218676, "tags": {"addr:city": "Barcelona", "addr:housenumber": "5", "addr:street": "Carrer de la Riera Blanca", "amenity": "fast_food", "check_date": "2025-01-22", "contact:phone": "+34933346794", "name": "Frankfurt La Llesca", "payment:cash": "yes", "payment:mastercard": "yes", "payment:visa": "yes"}}, {"type": "node", "id": 4362596794, "lat": 41.3894227, "lon": 2.1348247, "tags": {"amenity": "fast_food", "brand": "Burger King", "brand:wikidata": "Q177054", "brand:wikipedia": "es:Burger King", "cuisine": "burger", "diet:gluten_free": "yes", "name": "Burger King", "takeaway": "yes", "wheelchair": "yes"}}, {"type": "node", "id": 4362629889, "lat": 41.3775776, "lon": 2.1166657, "tags": {"amenity": "fast_food", "name": "Rostiseria", "name:es": "Rostiseria"}}, {"type": "node", "id": 4365097189, "lat": 41.3832407, "lon": 2.1817055, "tags": {"addr:city": "Barcelona", "addr:housenumber": "6", "addr:postcode": "08003", "addr:street": "Carrer de les Caputxes", "amenity": "fast_food", "name": "Poke S\u00ed"}}, {"type": "node", "id": 4370846708, "lat": 41.4113811, "lon": 2.1433931, "tags": {"addr:city": "Barcelona", "addr:housenumber": "161", "addr:postcode": "08023", "addr:street": "Avinguda de la Rep\u00fablica Argentina", "amenity": "fast_food", "cuisine": "kebab", "name": "El Pont Kebab", "phone": "+34930133769"}}, {"type": "node", "id": 4375359290, "lat": 41.3875965, "lon": 2.1362143, "tags": {"addr:housenumber": "305", "amenity": "fast_food", "cuisine": "tea;sandwich;coffee_shop", "name": "SandwiChez", "wheelchair": "yes"}}, {"type": "node", "id": 4386702691, "lat": 41.3825181, "lon": 2.176454, "tags": {"addr:housenumber": "19", "addr:postcode": "08002", "addr:street": "Carrer del Call", "amenity": "fast_food", "diet:kosher": "no", "name": "La Fabrica", "name:ca": "La F\u00e0brica", "name:he": "\u05dc\u05d4 \u05e4\u05d1\u05e8\u05d9\u05e7\u05d4", "takeaway": "only"}}, {"type": "node", "id": 4392869792, "lat": 41.3964845, "lon": 2.1739332, "tags": {"amenity": "fast_food", "name": "Celebre"}}, {"type": "node", "id": 4419899911, "lat": 41.3764039, "lon": 2.1172217, "tags": {"addr:city": "Barcelona", "addr:housenumber": "12", "addr:postcode": "08028", "addr:street": "Avinguda de Sant Ramon Nonat", "amenity": "fast_food", "cuisine": "pizza", "delivery": "yes", "name": "Pizzeria Tot\u00f2", "opening_hours": "19:30-22:30", "takeaway": "yes"}}, {"type": "node", "id": 4433375467, "lat": 41.3767299, "lon": 2.1906427}, {"type": "node", "id": 4433375468, "lat": 41.3767016, "lon": 2.1907302}, {"type": "node", "id": 4433375469, "lat": 41.3765998, "lon": 2.1906667}, {"type": "node", "id": 4433375470, "lat": 41.376632, "lon": 2.1905809}, {"type": "node", "id": 4433375475, "lat": 41.3767176, "lon": 2.1906806, "tags": {"entrance": "yes"}}, {"type": "node", "id": 4438876364, "lat": 41.38018, "lon": 2.1792363, "tags": {"addr:housenumber": "58", "addr:postcode": "08002", "addr:street": "Carrer d'Aviny\u00f3", "amenity": "fast_food", "name": "Buen Bocado", "note": "Shawarma, falafel y empanadas. Gran calidad", "opening_hours": "Mo-Su 13:00-03:00"}}, {"type": "node", "id": 4449149163, "lat": 41.3847394, "lon": 2.1598955, "tags": {"amenity": "fast_food", "name": "El Berro"}}, {"type": "node", "id": 4473017185, "lat": 41.4134853, "lon": 2.1379474, "tags": {"amenity": "fast_food", "brand": "Telepizza", "brand:wikidata": "Q2699863", "brand:wikipedia": "es:Telepizza", "cuisine": "pizza", "name": "Telepizza", "takeaway": "yes"}}, {"type": "node", "id": 4493497889, "lat": 41.3815088, "lon": 2.135881, "tags": {"amenity": "fast_food", "name": "Frankfurt Vallespir", "name:ca": "Frankfurt Vallespir", "name:zh": "\u9762\u5305\u5e97", "opening_hours": "Mo-Su 10:30-00:30"}}, {"type": "node", "id": 4496622094, "lat": 41.3901697, "lon": 2.1448443, "tags": {"addr:city": "Barcelona", "addr:housenumber": "33", "addr:postcode": "08029", "addr:street": "Avinguda de Sarri\u00e0", "amenity": "fast_food", "cuisine": "burger;sandwich;grill;sausage;argentinian;local;american;steak_house;chicken;spanish;mexican;barbecue", "delivery": "yes", "email": "Info@bbqexpress.es", "internet_access": "wlan", "name": "BBQ Express \u00ae", "name:en": "BBQ Express \u00ae", "name:es": "BBQ Express \u00ae", "opening_hours": "Mo-Su 19:30-04:00", "phone": "+34 935130330", "website": "https://www.bbqexpress.es/"}}, {"type": "node", "id": 4509291128, "lat": 41.4028464, "lon": 2.1360274, "tags": {"amenity": "fast_food", "name": "Pizzeria", "name:ca": "Pizzeria"}}, {"type": "node", "id": 4520403667, "lat": 41.3960635, "lon": 2.1566762, "tags": {"addr:city": "Barcelona", "addr:housenumber": "466", "addr:postcode": "08006", "addr:street": "Avinguda Diagonal", "amenity": "fast_food", "branch": "Diagonal - Rambla Catalunya", "brand": "McDonald's", "brand:wikidata": "Q38076", "brand:wikipedia": "es:McDonald's", "cuisine": "burger", "delivery": "yes", "diet:gluten_free": "yes", "drive_through": "no", "internet_access": "wlan", "name": "McDonald's", "name:ca": "McDonald's", "opening_hours": "Fr-We 08:00-02:00; Th 08:00-01:00", "outdoor_seating": "yes", "payment:mastercard": "yes", "payment:visa": "yes", "smoking": "no", "takeaway": "yes", "toilets": "yes", "wheelchair": "yes"}}, {"type": "node", "id": 4540694691, "lat": 41.3896941, "lon": 2.1810119, "tags": {"addr:housenumber": "62", "addr:street": "Carrer del Portal Nou", "amenity": "fast_food", "name": "Taco Alto", "name:en": "Taco Alto"}}, {"type": "node", "id": 4546921993, "lat": 41.3824924, "lon": 2.1471677, "tags": {"amenity": "fast_food", "cuisine": "pizza", "name": "La Pizzela"}}, {"type": "node", "id": 4623187388, "lat": 41.3886294, "lon": 2.1714279, "tags": {"addr:housenumber": "11", "addr:street": "Ronda de Sant Pere", "amenity": "fast_food", "brand": "Viena", "brand:wikidata": "Q11954717", "contact:phone": "+34 933486111", "cuisine": "regional", "diet:gluten_free": "yes", "internet_access": "wlan", "internet_access:fee": "no", "name": "Viena", "name:ca": "Viena", "opening_hours": "Mo-Fr 08:00-24:00; Sa,Su 00:00-01:00,08:00-24:00", "takeaway": "yes", "website": "https://www.viena.es", "wheelchair": "yes"}}, {"type": "node", "id": 4634551023, "lat": 41.4018245, "lon": 2.1377899, "tags": {"addr:housenumber": "7", "addr:street": "Carrer del Camp", "amenity": "fast_food", "cuisine": "catalan", "name": "Can Becari", "name:ca": "Can Becari"}}, {"type": "node", "id": 4659702094, "lat": 41.3747762, "lon": 2.1679121, "tags": {"amenity": "fast_food", "name": "Pizzeria AlCapone", "name:-2022": "Pizzeria Torras"}}, {"type": "node", "id": 4659702095, "lat": 41.3775001, "lon": 2.1642309, "tags": {"amenity": "fast_food", "check_date": "2022-07-06", "cuisine": "italian_pizza", "name": "pummarola - pizzaria napoletana", "name:ca": "Mercat", "toilets:wheelchair": "no", "wheelchair": "limited"}}, {"type": "node", "id": 4659779290, "lat": 41.3751717, "lon": 2.1683692, "tags": {"amenity": "fast_food", "name": "A la Turca", "name:es": "A la Turca"}}, {"type": "node", "id": 4659791489, "lat": 41.374761, "lon": 2.1685317, "tags": {"amenity": "fast_food", "branch": "Paral\u2022lel", "brand": "McDonald's", "brand:wikidata": "Q38076", "brand:wikipedia": "es:McDonald's", "cuisine": "burger", "diet:gluten_free": "yes", "drive_through": "no", "internet_access": "wlan", "internet_access:fee": "no", "name": "McDonald's", "name:ca": "McDonald's", "outdoor_seating": "yes", "takeaway": "yes", "toilets": "yes"}}, {"type": "node", "id": 4673701083, "lat": 41.380802, "lon": 2.1412595, "tags": {"addr:postcode": "08014", "amenity": "fast_food", "brand": "Pans & Company", "brand:wikidata": "Q11697586", "brand:wikipedia": "es:Pans & Company", "cuisine": "sandwich", "diet:gluten_free": "yes", "name": "Pans & Company", "name:ca": "Pans & Company", "opening_hours": "Mo-Fr 08:00-23:00; Sa-Su 09:00-23:00", "takeaway": "yes"}}, {"type": "node", "id": 4683839323, "lat": 41.4010106, "lon": 2.1572197, "tags": {"addr:city": "Barcelona", "addr:street": "Travessera de Gr\u00e0cia", "amenity": "fast_food", "check_date": "2024-11-13", "check_date:toilets:wheelchair": "2024-11-13", "cuisine": "kebab;turkish", "indoor_seating": "yes", "name": "Zurna", "outdoor_seating": "no", "smoking": "no", "takeaway": "yes", "toilets": "yes", "toilets:wheelchair": "yes", "wheelchair": "limited"}}, {"type": "node", "id": 4694865955, "lat": 41.380636, "lon": 2.1746909, "tags": {"addr:city": "Barcelona", "addr:housenumber": "10", "addr:postcode": "08002", "addr:street": "Carrer de Ferran", "amenity": "fast_food", "check_date": "2024-07-20", "cuisine": "burger", "name": "La Burguesa", "outdoor_seating": "no"}}, {"type": "node", "id": 4707382746, "lat": 41.4271241, "lon": 2.2298887, "tags": {"amenity": "fast_food", "brand": "Burger King", "brand:wikidata": "Q177054", "brand:wikipedia": "es:Burger King", "cuisine": "burger", "diet:gluten_free": "yes", "drive_through": "yes", "name": "Burger King", "operator": "Burger King", "outdoor_seating": "yes", "takeaway": "yes"}}, {"type": "node", "id": 4709933967, "lat": 41.358048, "lon": 2.1296228, "tags": {"addr:city": "l'Hospitalet de Llobregat", "addr:floor": "1", "addr:housenumber": "75", "addr:postcode": "08908", "addr:street": "Avinguda de la Granvia de l'Hospitalet", "addr:unit": "R19", "amenity": "fast_food", "brand": "Burger King", "brand:wikidata": "Q177054", "brand:wikipedia": "es:Burger King", "cuisine": "burger", "diet:gluten_free": "yes", "email": "granvia@burgerking.es", "level": "1", "name": "Burger King", "opening_hours": "Mo-Sa 09:30-22:00", "phone": "+34 93 259 13 69", "takeaway": "yes", "wheelchair": "no"}}, {"type": "node", "id": 4717176037, "lat": 41.3817907, "lon": 2.1710896, "tags": {"amenity": "fast_food", "diet:vegetarian": "only", "name": "Organic Barcelona"}}, {"type": "node", "id": 4719232492, "lat": 41.4159036, "lon": 2.1815009, "tags": {"amenity": "fast_food", "cuisine": "kebab", "name": "Tur\u00f3", "name:es": "Tur\u00f3"}}, {"type": "node", "id": 4719233592, "lat": 41.4012761, "lon": 2.1794877, "tags": {"amenity": "fast_food", "brand": "Telepizza", "brand:wikidata": "Q2699863", "brand:wikipedia": "es:Telepizza", "cuisine": "pizza", "name": "Telepizza", "name:es": "Telepizza", "phone": "+34932658555", "takeaway": "yes", "toilets:wheelchair": "yes", "website": "https://www.telepizza.es", "wheelchair": "limited"}}, {"type": "node", "id": 4721968090, "lat": 41.4205247, "lon": 2.1804187, "tags": {"amenity": "fast_food", "cuisine": "burger", "drive_through": "no", "name": "Hamburgueser\u00eda Maragall", "name:es": "Hamburgueser\u00eda Maragall", "outdoor_seating": "yes"}}, {"type": "node", "id": 4723284089, "lat": 41.3818471, "lon": 2.1759565, "tags": {"addr:housenumber": "41", "addr:postcode": "08002", "addr:street": "Carrer de Ferran", "amenity": "fast_food", "cuisine": "italian_pizza", "internet_access": "wlan", "name": "La Pizza del Born en Ferran", "name:en": "Focacceria Toscana Pizza", "name:ru": "\u041f\u0438\u0446\u0446\u0435\u0440\u0438\u044f Focacceria Toscana"}}, {"type": "node", "id": 4725658096, "lat": 41.374768, "lon": 2.1638738, "tags": {"amenity": "fast_food", "brand": "The Good Burger", "brand:wikidata": "Q20962086", "brand:wikipedia": "es:The Good Burger", "cuisine": "burger", "delivery": "yes", "diet:vegetarian": "yes", "drive_through": "no", "indoor_seating": "yes", "name": "The Good Burger", "outdoor_seating": "yes", "short_name": "TGB", "smoking": "no", "takeaway": "yes"}}, {"type": "node", "id": 4725692889, "lat": 41.3747809, "lon": 2.1634175, "tags": {"amenity": "fast_food", "cuisine": "mexican", "name": "Dos Asnos"}}, {"type": "node", "id": 4726136589, "lat": 41.4210902, "lon": 2.173936, "tags": {"amenity": "fast_food", "cuisine": "kebab;pizza", "name": "Kebab Pizzeria", "name:es": "Kebab Pizzeria"}}, {"type": "node", "id": 4727951592, "lat": 41.3999618, "lon": 2.1845666, "tags": {"amenity": "fast_food", "cuisine": "churro", "name": "Xurrer\u00eda J. Alpuente", "wheelchair": "yes"}}, {"type": "node", "id": 4738600853, "lat": 41.3845349, "lon": 2.1510568, "tags": {"amenity": "fast_food", "brand": "Telepizza", "brand:wikidata": "Q2699863", "brand:wikipedia": "es:Telepizza", "cuisine": "pizza", "delivery": "yes", "name": "Telepizza", "outdoor_seating": "no", "takeaway": "yes"}}, {"type": "node", "id": 4738600854, "lat": 41.3850173, "lon": 2.1528067, "tags": {"amenity": "fast_food", "brand": "Domino's", "brand:wikidata": "Q839466", "brand:wikipedia": "en:Domino's Pizza", "cuisine": "pizza", "delivery": "yes", "drive_through": "no", "name": "Domino's", "outdoor_seating": "no", "takeaway": "yes", "wheelchair": "yes"}}, {"type": "node", "id": 4743656121, "lat": 41.3843059, "lon": 2.1640449, "tags": {"amenity": "fast_food", "brand": "Pans & Company", "brand:wikidata": "Q11697586", "brand:wikipedia": "es:Pans & Company", "check_date": "2025-02-19", "cuisine": "sandwich", "diet:gluten_free": "yes", "name": "Pans & Company", "name:ca": "Pans & Company", "name:es": "Pans & Company", "takeaway": "yes", "toilets:wheelchair": "no", "wheelchair": "yes"}}, {"type": "node", "id": 4756963838, "lat": 41.3858988, "lon": 2.1540644, "tags": {"addr:city": "Barcelona", "addr:housenumber": "101", "addr:postcode": "08036", "addr:street": "Carrer de Val\u00e8ncia", "amenity": "fast_food", "cuisine": "burger", "name": "Hamburgueser\u00eda El Niu", "organic": "yes", "outdoor_seating": "yes", "phone": "+34 93 010 77 98", "takeaway": "yes"}}, {"type": "node", "id": 4759169729, "lat": 41.4049556, "lon": 2.1736202, "tags": {"addr:city": "Barcelona", "addr:housenumber": "269", "addr:postcode": "08025", "addr:street": "Carrer de la Marina", "amenity": "fast_food", "cuisine": "burger", "diet:vegan": "only", "name": "La Trocadero", "opening_hours": "Fr-Su 12:30-16:00,16:30-23:30; We,Th 12:30-16:00,19:30-23:00; Mo,Tu off", "phone": "+34 93 6339764", "takeaway": "yes", "website": "http://www.latrocadero.com/"}}, {"type": "node", "id": 4774308730, "lat": 41.3805826, "lon": 2.1882021, "tags": {"addr:housenumber": "10", "addr:postcode": "08003", "addr:street": "Carrer de La Maquinista", "amenity": "fast_food", "cuisine": "italian_pizza", "name": "Kitchen", "name:ca": "Kitchen", "name:en": "Kitchen", "name:es": "Kitchen", "name:fr": "Kitchen"}}, {"type": "node", "id": 4774745309, "lat": 41.4001265, "lon": 2.1581223, "tags": {"addr:city": "Barcelona", "addr:housenumber": "60", "addr:street": "Carrer de Francisco Giner", "amenity": "fast_food", "check_date": "2024-02-22", "contact:facebook": "https://www.facebook.com/La-Empanaderia-de-Gracia-BCN-692270294196256/", "diet:vegan": "yes", "diet:vegetarian": "yes", "name": "La Empanaderia", "opening_hours": "Mo-Su 13:00-22:00", "takeaway": "yes"}}, {"type": "node", "id": 4911503781, "lat": 41.4173587, "lon": 2.1959039, "tags": {"addr:city": "Barcelona", "addr:housenumber": "59", "addr:postcode": "08020", "addr:street": "Carrer de Huelva", "amenity": "fast_food", "cuisine": "chicken;l'ast", "drive_through": "no", "name": "Se\u00f1or Pollo", "phone": "+34 93 303 39 02", "takeaway": "only"}}, {"type": "node", "id": 4915704484, "lat": 41.3851919, "lon": 2.1647794, "tags": {"amenity": "fast_food", "cuisine": "empanada", "name": "Tio Bigotes", "outdoor_seating": "yes"}}, {"type": "node", "id": 4935518520, "lat": 41.3795067, "lon": 2.1378615, "tags": {"amenity": "fast_food", "cuisine": "kebab;pizza", "level": "0", "name": "Juan Kebab Pizzeria"}}, {"type": "node", "id": 4941889428, "lat": 41.3860934, "lon": 2.1808493, "tags": {"addr:housenumber": "19", "addr:street": "Carrer dels Assaonadors", "amenity": "fast_food", "cuisine": "arepa", "name": "Arepera del Born", "name:es": "Arepera del Born"}}, {"type": "node", "id": 5007002789, "lat": 41.3971186, "lon": 2.1509819, "tags": {"addr:housenumber": "79", "addr:postcode": "08006", "addr:street": "Travessera de Gr\u00e0cia", "amenity": "fast_food", "cuisine": "sushi;japanese", "diet:vegan": "yes", "diet:vegetarian": "yes", "name": "Sushi Time", "opening_hours": "Mo-Fr 12:15-16:00,18:30-23:30; Sa,Su 18:30-23:30", "phone": "+34931801576", "takeaway": "only", "wheelchair": "no"}}, {"type": "node", "id": 5010150624, "lat": 41.3784905, "lon": 2.1546107, "tags": {"addr:street": "Carrer de Rocafort", "amenity": "fast_food", "cuisine": "fish_and_chips", "name:en": "The Fish and Chips Shop"}}, {"type": "node", "id": 5028957223, "lat": 41.3815722, "lon": 2.1803057, "tags": {"addr:housenumber": "25", "addr:postcode": "08002", "addr:street": "Carrer d'en Gign\u00e0s", "amenity": "fast_food", "cuisine": "sandwich", "name": "SandwiChez"}}, {"type": "node", "id": 5048602533, "lat": 41.4080004, "lon": 2.1604993, "tags": {"addr:city": "Barcelona", "addr:housenumber": "47", "addr:postcode": "08024", "addr:street": "Carrer de l'Escorial", "amenity": "fast_food", "check_date": "2024-10-20", "contact:instagram": "https://www.instagram.com/compa_barcelona/", "cuisine": "sandwich;focaccia", "internet_access": "wlan", "internet_access:fee": "customers", "name": "Comp\u00e0", "name:ca": "Comp\u00e0", "payment:cash": "yes", "payment:credit_cards": "yes", "payment:debit_cards": "yes", "wheelchair": "no"}}, {"type": "node", "id": 5052929922, "lat": 41.4034848, "lon": 2.1571729, "tags": {"addr:housenumber": "17", "addr:street": "Carrer de Verdi", "amenity": "fast_food", "check_date": "2023-02-25", "cuisine": "waffle", "name": "Royal Gaufre", "wheelchair": "no"}}, {"type": "node", "id": 5053640222, "lat": 41.4038153, "lon": 2.1559258, "tags": {"amenity": "fast_food", "check_date": "2023-07-10", "cuisine": "hot_dog", "name": "The Dog is Hot", "name:ca": "The Dog is Hot"}}, {"type": "node", "id": 5053669725, "lat": 41.4042542, "lon": 2.1559884, "tags": {"addr:housenumber": "5", "addr:postcode": "08012", "addr:street": "Pla\u00e7a del Diamant", "amenity": "fast_food", "check_date": "2023-07-12", "cuisine": "asian;sushi", "name": "\u00c0sia amb Gr\u00e0cia", "name:ca": "\u00c0sia amb Gr\u00e0cia", "opening_hours": "Mo-Fr 12:15-16:30, 19:00-23:00; Sa-Su 12:15-23:00", "phone": "+34 932 38 92 45", "website": "https://www.asiaambgracia.com/", "wheelchair": "no"}}, {"type": "node", "id": 5065076822, "lat": 41.4017405, "lon": 2.1734768, "tags": {"addr:housenumber": "26", "addr:street": "Pla\u00e7a de la Sagrada Familia", "amenity": "fast_food", "name": "Xurreria de Sagrada Familia", "name:de": "Xurreria de Sagrada Familia", "name:es": "Xurreria de Sagrada Familia", "opening_hours": "Mo-Th, Sa, Su 08:00-21:00; Fr 08:00-19:00", "phone": "+34 934582560", "website": "https://laselectachurros.com/"}}, {"type": "node", "id": 5075066021, "lat": 41.4090375, "lon": 2.1542011, "tags": {"addr:housenumber": "42", "addr:street": "Travessera de Dalt", "amenity": "fast_food", "cuisine": "japanese", "name": "vullSUSHI", "name:ca": "vullSUSHI", "website": "http://www.vullsushi.com/mobile/"}}, {"type": "node", "id": 5077002328, "lat": 41.4031285, "lon": 2.1473567, "tags": {"amenity": "fast_food", "cuisine": "thai", "name": "Thai Noodles del Petit Bangkok", "name:ca": "Thai Noodles del Petit Bangkok", "takeaway": "yes"}}, {"type": "node", "id": 5082277822, "lat": 41.400388, "lon": 2.1578097, "tags": {"addr:housenumber": "7", "addr:street": "Pla\u00e7a de la Vila de Gr\u00e0cia", "amenity": "fast_food", "check_date": "2024-04-17", "cuisine": "japanese", "name": "Okiru", "takeaway": "only"}}, {"type": "node", "id": 5082277824, "lat": 41.400907, "lon": 2.1580899, "tags": {"addr:housenumber": "7", "addr:postcode": "08012", "addr:street": "Carrer del Pened\u00e8s", "amenity": "fast_food", "check_date": "2024-05-22", "check_date:opening_hours": "2023-01-12", "contact:facebook": "https://www.facebook.com/LaPizzaGracia", "contact:instagram": "https://www.instagram.com/LaPizzaGracia", "cuisine": "pizza;italian;italian_pizza", "diet:vegan": "yes", "diet:vegetarian": "yes", "drive_through": "no", "email": "lapizzagracia@gmail.com", "indoor_seating": "yes", "name": "La Pizza", "name:ca": "La Pizza", "opening_hours": "Mo-Th,Su 12:00-23:00; Fr-Sa 12:00-23:30", "outdoor_seating": "no", "payment:cash": "yes", "payment:credit_cards": "yes", "payment:debit_cards": "yes", "phone": "+34930027160; +34 620 66 98 93; +34 691 91 55 53", "piano": "yes", "smoking": "no", "takeaway": "only", "website": "https://www.lapizzagracia.com/", "wheelchair": "no"}}, {"type": "node", "id": 5082288923, "lat": 41.4038545, "lon": 2.1605533, "tags": {"amenity": "fast_food", "check_date": "2024-02-09", "cuisine": "japanese;dumpling", "name": "DIP Dumpling", "name:ca": "DIP Dumpling", "website": "https://www.dipdumpling.com"}}, {"type": "node", "id": 5089333722, "lat": 41.4045731, "lon": 2.1575966, "tags": {"addr:housenumber": "53", "addr:street": "Carrer de Torrijos", "amenity": "fast_food", "cuisine": "pizza", "name": "La Bottega di Lapio", "name:ca": "La Bottega di Lapio", "takeaway": "yes", "wheelchair": "limited"}}, {"type": "node", "id": 5089333724, "lat": 41.4051544, "lon": 2.1566734, "tags": {"addr:housenumber": "1", "addr:street": "Carrer de la Santa Creu", "amenity": "fast_food", "check_date": "2024-11-17", "contact:facebook": "https://www.facebook.com/lapiadina/", "contact:instagram": "https://www.instagram.com/lapiadinadelavirreina", "cuisine": "piadina;italian", "diet:vegan": "yes", "diet:vegetarian": "yes", "highchair": "no", "level": "0", "name": "La Piadina", "name:ca": "La Piadina", "opening_hours": "12:00-23:00", "outdoor_seating": "no", "payment:cash": "yes", "payment:credit_cards": "yes", "payment:debit_cards": "yes", "takeaway": "yes", "toilets": "no", "website": "https://search.google.com/local/writereview?placeid=ChIJEdJIjLyipBIRqHAR2ePnkQg&source=g.page.m.ia._&laa=nmx-review-solicitation-ia2", "wheelchair": "limited"}}, {"type": "node", "id": 5103702421, "lat": 41.4036236, "lon": 2.1571837, "tags": {"addr:housenumber": "20 Bis", "addr:postcode": "08012", "addr:street": "Carrer de Verdi", "amenity": "fast_food", "check_date": "2023-02-25", "cuisine": "chinese", "name": "Wok Verdi", "name:ca": "Wok Verdi", "opening_hours": "We-Mo 12:00-23:00", "phone": "+34 932 17 06 24", "takeaway": "yes", "wheelchair": "no"}}, {"type": "node", "id": 5105012821, "lat": 41.4037779, "lon": 2.1568552, "tags": {"addr:housenumber": "29", "addr:street": "Carrer de Verdi", "amenity": "fast_food", "check_date": "2023-11-16", "contact:website": "https://lasmuns.com/", "cuisine": "empanada", "diet:vegan": "yes", "name": "Las Muns", "name:ca": "Las Muns", "opening_hours": "Tu-Fr 12:30-23:30; Sa 12:30-00:00", "payment:mastercard": "yes", "payment:visa": "yes", "takeaway": "yes", "wheelchair": "yes"}}, {"type": "node", "id": 5106588431, "lat": 41.383525, "lon": 2.1811608, "tags": {"addr:street": "Carrer de l'Argenteria", "amenity": "fast_food", "name": "las fritas", "name:es": "las fritas"}}, {"type": "node", "id": 5109943321, "lat": 41.4063411, "lon": 2.1523784, "tags": {"amenity": "fast_food", "check_date": "2023-11-10", "contact:whatsapp": "+34636549850", "name": "Toma ya", "name:ca": "Toma ya", "opening_hours": "Mo-Fr 13:15-15:15,20:00-22:00", "phone": "+34 932 17 90 23", "reservation": "only", "wheelchair": "no"}}, {"type": "node", "id": 5109943921, "lat": 41.4018078, "lon": 2.1569455, "tags": {"addr:street": "Pla\u00e7a del Sol", "amenity": "fast_food", "name": "16 La Sedici", "name:ca": "16 La Sedici", "wheelchair": "yes"}}, {"type": "node", "id": 5110885923, "lat": 41.4040422, "lon": 2.151722, "tags": {"addr:street": "Carrer Gran de Gr\u00e0cia", "amenity": "fast_food", "name": "Nostrum", "name:ca": "Nostrum"}}, {"type": "node", "id": 5126098880, "lat": 41.3963655, "lon": 2.1730861, "tags": {"addr:postcode": "08009", "amenity": "fast_food", "branch": "Sant Joan", "cuisine": "burger", "indoor_seating": "yes", "internet_access": "no", "name": "Timesburg", "outdoor_seating": "yes", "phone": "+34936317814", "takeaway": "yes", "toilets": "yes", "website": "https://www.timesburg.com/"}}, {"type": "node", "id": 5135764422, "lat": 41.409538, "lon": 2.1855442, "tags": {"addr:street": "Carrer de Val\u00e8ncia", "amenity": "fast_food", "name": "D\u00f6ner kebap M\u00e0rmara", "name:ca": "D\u00f6ner kebap M\u00e0rmara"}}, {"type": "node", "id": 5139423521, "lat": 41.4183913, "lon": 2.201883, "tags": {"addr:housenumber": "197", "addr:street": "Carrer del Concili de Trento", "amenity": "fast_food", "cuisine": "spanish", "diet:halal": "no", "diet:vegetarian": "no", "name": "El rey de los pollos", "opening_hours": "Tu-Su 10:00-16:00", "phone": "+34 633330935"}}, {"type": "node", "id": 5152286579, "lat": 41.3849239, "lon": 2.1792847, "tags": {"addr:city": "Barcelona", "addr:housenumber": "19", "addr:postcode": "08003", "addr:street": "Pla\u00e7a de la Llana", "amenity": "fast_food", "cuisine": "bowls", "name": "A\u00e7ai & Me", "takeaway": "yes", "wheelchair": "no"}}, {"type": "node", "id": 5156690127, "lat": 41.3859222, "lon": 2.1799684, "tags": {"addr:housenumber": "6", "addr:postcode": "08003", "addr:street": "Carrer dels Carders", "amenity": "fast_food", "cuisine": "burger;chicken", "name": "Fast Eddie's", "name:en": "Fast Eddie's", "opening_hours": "Tu-Su 14:00-23:00"}}, {"type": "node", "id": 5156690128, "lat": 41.3851287, "lon": 2.1795024, "tags": {"amenity": "fast_food", "name": "Sunrise Doner Kebab", "name:ca": "Sunrise Doner Kebab"}}, {"type": "node", "id": 5156690129, "lat": 41.384999, "lon": 2.1793698, "tags": {"amenity": "fast_food", "name": "The pan's club", "name:ca": "The pan's club"}}, {"type": "node", "id": 5156690321, "lat": 41.3805033, "lon": 2.1627607, "tags": {"amenity": "fast_food", "cuisine": "burger;pizza", "name": "La Canoa", "name:ca": "La Canoa"}}, {"type": "node", "id": 5156690622, "lat": 41.38506, "lon": 2.1794274, "tags": {"amenity": "fast_food", "cuisine": "empanada", "name": "La F\u00e0brica", "name:ca": "La F\u00e0brica", "wheelchair": "yes"}}, {"type": "node", "id": 5156691121, "lat": 41.3857092, "lon": 2.1797099, "tags": {"addr:street": "Carrer dels Carders", "amenity": "fast_food", "cuisine": "kebab", "name": "El petit rac\u00f3", "name:ca": "El petit rac\u00f3", "opening_hours": "Mo-Su 12:00-02:00"}}, {"type": "node", "id": 5156691321, "lat": 41.3854925, "lon": 2.1796645, "tags": {"addr:housenumber": "10", "addr:street": "Carrer dels Carders", "amenity": "fast_food", "cuisine": "pizza", "internet_access": "wlan", "name": "Micaela", "name:ca": "Micaela", "opening_hours": "Mo-Su 08:00-00:00", "phone": "+34 931176767"}}, {"type": "node", "id": 5167311822, "lat": 41.3924529, "lon": 2.16276, "tags": {"addr:city": "Barcelona", "addr:housenumber": "245", "addr:street": "Carrer de Val\u00e8ncia", "amenity": "fast_food", "brand": "Viena", "brand:wikidata": "Q11954717", "diet:gluten_free": "yes", "indoor_seating": "yes", "name": "Viena", "name:ca": "Viena", "outdoor_seating": "yes", "smoking": "outside", "website": "https://www.viena.es"}}, {"type": "node", "id": 5168232624, "lat": 41.3829281, "lon": 2.1773087, "tags": {"addr:housenumber": "6", "addr:postcode": "08002", "addr:street": "Pla\u00e7a de Sant Jaume", "amenity": "fast_food", "brand": "Pans & Company", "brand:wikidata": "Q11697586", "brand:wikipedia": "es:Pans & Company", "check_date": "2023-10-29", "cuisine": "sandwich", "diet:gluten_free": "yes", "name": "Pans & Company", "name:ca": "Pans & Company", "outdoor_seating": "no", "takeaway": "yes", "toilets": "yes", "toilets:wheelchair": "no", "wheelchair": "limited"}}, {"type": "node", "id": 5169136323, "lat": 41.3814112, "lon": 2.1803117, "tags": {"addr:housenumber": "30", "addr:postcode": "08002", "addr:street": "Carrer d'en Gign\u00e0s", "amenity": "fast_food", "cuisine": "american", "name": "The box", "name:ko": "\ub354 \ubc15\uc2a4"}}, {"type": "node", "id": 5170973144, "lat": 41.3898214, "lon": 2.147349, "tags": {"amenity": "fast_food", "brand": "Burger King", "brand:wikidata": "Q177054", "brand:wikipedia": "es:Burger King", "cuisine": "burger", "diet:gluten_free": "yes", "name": "Burger King", "takeaway": "yes"}}, {"type": "node", "id": 5198201035, "lat": 41.3988701, "lon": 2.1609865, "tags": {"addr:housenumber": "16-18", "addr:postcode": "08012", "addr:street": "Carrer del Torrent de l'Olla", "amenity": "fast_food", "check_date": "2024-04-08", "entrance": "yes", "name:ca": "Doner Kebab", "wheelchair": "no"}}, {"type": "node", "id": 5198201037, "lat": 41.399372, "lon": 2.1602281, "tags": {"addr:postcode": "08012", "addr:street": "Carrer del Torrent de l'Olla", "amenity": "fast_food", "check_date": "2024-02-27", "cuisine": "sushi", "delivery": "yes", "drive_through": "no", "name": "Fast Kibuka", "name:ca": "Fast Kibuka", "opening_hours": "13:00-23:00", "payment:cash": "yes", "payment:credit_cards": "yes", "payment:debit_cards": "yes", "phone": "+34 933 68 30 47", "takeaway": "only", "website": "https://kibuka.com/fast", "wheelchair": "no"}}, {"type": "node", "id": 5198201121, "lat": 41.3965289, "lon": 2.1682381, "tags": {"addr:housenumber": "319", "addr:street": "Carrer de Val\u00e8ncia", "amenity": "fast_food", "name": "Poll-bo", "name:ca": "Poll-bo"}}, {"type": "node", "id": 5200142527, "lat": 41.4179657, "lon": 2.1881169, "tags": {"addr:street": "Carrer de Josep Estivill", "amenity": "fast_food", "name": "Navas D\u00f6ner Pizza", "name:ca": "Navas D\u00f6ner Pizza"}}, {"type": "node", "id": 5202965473, "lat": 41.4069142, "lon": 2.20517, "tags": {"amenity": "fast_food", "brand": "Domino's", "brand:wikidata": "Q839466", "cuisine": "pizza", "delivery": "yes", "name": "Domino's", "operator": "Dominos Pizza", "takeaway": "yes"}}, {"type": "node", "id": 5203956427, "lat": 41.3851407, "lon": 2.1643909, "tags": {"addr:street": "Carrer dels Tallers", "amenity": "fast_food", "cuisine": "japanese", "name": "Kyoza", "name:ca": "Kyoza", "opening_hours": "Mo-Su 11:30-23:30"}}, {"type": "node", "id": 5203956428, "lat": 41.3851528, "lon": 2.1643213, "tags": {"addr:street": "Carrer dels Tallers", "amenity": "fast_food", "name": "N\u00f2strum", "name:ca": "N\u00f2strum"}}, {"type": "node", "id": 5203976025, "lat": 41.3851842, "lon": 2.1650533, "tags": {"amenity": "fast_food", "cuisine": "sandwich", "name": "Savta Sandwich Shop"}}, {"type": "node", "id": 5204558729, "lat": 41.4029623, "lon": 2.1338771, "tags": {"amenity": "fast_food", "brand": "Sushi Shop", "brand:wikidata": "Q3505657", "cuisine": "sushi", "name": "Sushi Shop", "phone": "+34902599995", "takeaway": "yes", "website": "https://www.sushishop.eu/es/"}}, {"type": "node", "id": 5207463721, "lat": 41.4016596, "lon": 2.1531724, "tags": {"addr:street": "Carrer Gran de Gr\u00e0cia", "amenity": "fast_food", "cuisine": "pizza", "name": "Il Fuoco", "old_name": "Pizzeria Nico", "wheelchair": "no"}}, {"type": "node", "id": 5210862783, "lat": 41.3981929, "lon": 2.204828, "tags": {"addr:city": "Barcelona", "addr:country": "ES", "addr:postcode": "08005", "addr:street": "Rambla del Poblenou", "amenity": "fast_food", "branch": "Poblenou", "check_date": "2023-12-25", "contact:website": "https://dionisosrestaurants.com/", "cuisine": "greek", "drive_through": "no", "name": "Dionisos", "takeaway": "yes"}}, {"type": "node", "id": 5220601741, "lat": 41.3739113, "lon": 2.1637419, "tags": {"amenity": "fast_food", "name": "Zodiaco Barcelona"}}, {"type": "node", "id": 5235654923, "lat": 41.3872289, "lon": 2.1747514, "tags": {"addr:street": "Via Laietana", "amenity": "fast_food", "brand": "Rodilla", "brand:wikidata": "Q7356777", "brand:wikipedia": "es:Rodilla (franquicia)", "cuisine": "sandwich", "name": "Rodilla", "name:ca": "Rodilla", "takeaway": "yes"}}, {"type": "node", "id": 5236985225, "lat": 41.3881301, "lon": 2.1742413, "tags": {"amenity": "fast_food", "cuisine": "kebab", "diet:vegetarian": "yes", "indoor_seating": "yes", "name": "Istanbul Grill", "name:en": "Istanbul Grill", "opening_hours": "PH,Mo-Su 11:00-02:30; PH,Fr,Sa 11:00-03:00", "outdoor_seating": "no"}}, {"type": "node", "id": 5247181324, "lat": 41.4123373, "lon": 2.1633762, "tags": {"addr:street": "Ronda del Guinard\u00f3", "amenity": "fast_food", "name": "Kebab Inn.", "name:ca": "Kebab Inn."}}, {"type": "node", "id": 5312795733, "lat": 41.3879003, "lon": 2.1341313, "tags": {"addr:city": "Barcelona", "addr:housenumber": "147", "addr:postcode": "08029", "addr:street": "Carrer de Num\u00e0ncia", "amenity": "fast_food", "name": "SandwiChez", "operator": "SandwiChez"}}, {"type": "node", "id": 5318367314, "lat": 41.4106116, "lon": 2.1562905, "tags": {"amenity": "fast_food", "brand": "Subway", "brand:wikidata": "Q244457", "brand:wikipedia": "en:Subway (restaurant)", "cuisine": "sandwich", "name": "Subway", "takeaway": "yes", "toilets:wheelchair": "no", "wheelchair": "yes"}}, {"type": "node", "id": 5318367317, "lat": 41.41246, "lon": 2.153966, "tags": {"amenity": "fast_food", "cuisine": "pizza", "name": "Piranya", "toilets:wheelchair": "no", "wheelchair": "limited"}}, {"type": "node", "id": 5327559004, "lat": 41.3753153, "lon": 2.1459035, "tags": {"amenity": "fast_food", "cuisine": "german", "name": "Frankfurt", "name:ca": "Frankfurt", "opening_hours": "Mo-Sa 11:00-23:30; Su off; PH 12:00-23:30"}}, {"type": "node", "id": 5327559005, "lat": 41.3753233, "lon": 2.1454279, "tags": {"amenity": "fast_food", "cuisine": "kebab", "name": "Istanbul", "opening_hours": "Mo-Su 12:00-03:00"}}, {"type": "node", "id": 5327559009, "lat": 41.3750168, "lon": 2.1472163, "tags": {"addr:city": "Barcelona", "addr:postcode": "08014", "amenity": "fast_food", "check_date": "2025-02-19", "diet:vegetarian": "no", "name": "Frankfurt Station"}}, {"type": "node", "id": 5327559010, "lat": 41.3750256, "lon": 2.147695, "tags": {"addr:city": "Barcelona", "addr:postcode": "08014", "amenity": "fast_food", "diet:vegetarian": "no", "name": "La Piezetta"}}, {"type": "node", "id": 5335520121, "lat": 41.404881, "lon": 2.17801, "tags": {"addr:housenumber": "243", "addr:street": "Calle Padilla", "amenity": "fast_food", "cuisine": "noodle", "name:en": "Dal Moro\u2019s", "opening_hours": "Mo-Su 12:00-20:30"}}, {"type": "node", "id": 5372082832, "lat": 41.384603, "lon": 2.133849, "tags": {"amenity": "fast_food", "building": "kiosk", "cuisine": "churro", "name": "Churrer\u00eda Montse"}}, {"type": "node", "id": 5409711109, "lat": 41.4028258, "lon": 2.1564806, "tags": {"addr:city": "Barcelona", "addr:housenumber": "138", "addr:postcode": "08012", "addr:street": "Carrer del Torrent de l'Olla", "amenity": "fast_food", "check_date": "2023-11-05", "cuisine": "kebab", "diet:vegan": "yes", "name": "Good Shit, Vegan Kebabs", "website": "https://goodshitvegan.com/"}}, {"type": "node", "id": 5463379023, "lat": 41.372222, "lon": 2.155814, "tags": {"addr:housenumber": "52", "addr:postcode": "08004", "addr:street": "Carrer de la Fran\u00e7a Xica", "amenity": "fast_food", "cuisine": "mexican", "name": "Taqueria El Changarrito"}}, {"type": "node", "id": 5485537045, "lat": 41.3998466, "lon": 2.1527839, "tags": {"amenity": "fast_food", "cuisine": "pizza", "delivery": "no", "diet:vegetarian": "yes", "name": "Di Pupi", "takeaway": "yes"}}, {"type": "node", "id": 5509139427, "lat": 41.4014133, "lon": 2.2052029, "tags": {"addr:city": "Barcelona", "addr:housenumber": "31", "addr:postcode": "08005", "addr:street": "Carrer de Bilbao", "amenity": "fast_food", "cuisine": "burger;regional;italian", "indoor_seating": "yes", "name": "SOCO Poblenou", "outdoor_seating": "yes"}}, {"type": "node", "id": 5564015633, "lat": 41.386393, "lon": 2.1622001, "tags": {"amenity": "fast_food", "cuisine": "fish_and_chips", "delivery": "no", "level": "0", "name": "The Fish & Chips Shop", "opening_hours": "Tu-Su 13:00-01:00; PH closed", "smoking": "no", "takeaway": "yes", "toilets": "yes", "toilets:access": "permissive", "wheelchair": "yes"}}, {"type": "node", "id": 5567074072, "lat": 41.3795755, "lon": 2.154717, "tags": {"amenity": "fast_food", "cuisine": "indian;kebab;pizza", "delivery": "yes", "level": "0", "name": "Prime Kebabish", "opening_hours": "Mo-Th,Su 11:00-01:00; Fr-Sa 11:00-02:00; PH open", "payment:coins": "yes", "payment:debit_cards": "no", "payment:maestro": "yes", "payment:mastercard": "yes", "payment:notes": "yes", "payment:visa": "yes", "payment:visa_debit": "yes", "payment:visa_electron": "yes", "phone": "+34930161816", "takeaway": "yes", "toilets": "yes", "wheelchair": "yes"}}, {"type": "node", "id": 5766199053, "lat": 41.374422, "lon": 2.1424043, "tags": {"addr:city": "Barcelona", "addr:housenumber": "75", "addr:postcode": "08014", "addr:street": "Carrer del Moian\u00e8s", "amenity": "fast_food", "cuisine": "burger", "name": "Timesburg"}}, {"type": "node", "id": 5791910455, "lat": 41.4102855, "lon": 2.1804113, "tags": {"amenity": "fast_food", "name": "Timesburg", "wheelchair": "yes"}}, {"type": "node", "id": 5899813190, "lat": 41.4039283, "lon": 2.1400372, "tags": {"amenity": "fast_food", "brand": "Telepizza", "brand:wikidata": "Q2699863", "brand:wikipedia": "es:Telepizza", "cuisine": "pizza", "name": "Telepizza", "takeaway": "yes"}}, {"type": "node", "id": 5902468190, "lat": 41.3832646, "lon": 2.1651214, "tags": {"addr:street": "Carrer de Joaqu\u00edn Costa", "amenity": "fast_food", "name": "Bocatas de sult\u00e1n"}}, {"type": "node", "id": 5902468193, "lat": 41.382157, "lon": 2.166283, "tags": {"amenity": "fast_food", "cuisine": "pizza", "internet_access": "wlan", "name": "Made in Sicily"}}, {"type": "node", "id": 5902468194, "lat": 41.3820474, "lon": 2.1662367, "tags": {"amenity": "fast_food", "cuisine": "pizza", "name": "San Giorgio"}}, {"type": "node", "id": 5902468986, "lat": 41.3836907, "lon": 2.1644293, "tags": {"amenity": "fast_food", "name": "Bisma Kebabish"}}, {"type": "node", "id": 5902468988, "lat": 41.382236, "lon": 2.1660246, "tags": {"amenity": "fast_food", "cuisine": "italian", "name": "Spuntino", "takeaway": "only"}}, {"type": "node", "id": 5902488185, "lat": 41.3832341, "lon": 2.1651529, "tags": {"addr:street": "Carrer de Joaqu\u00edn Costa", "amenity": "fast_food", "name": "D\u00f6ner Kebab Amigo"}}, {"type": "node", "id": 5902488186, "lat": 41.3818081, "lon": 2.1666632, "tags": {"addr:street": "Carrer de Joaqu\u00edn Costa", "amenity": "fast_food", "cuisine": "pizza", "internet_access": "wlan", "name": "Peccato di Gola"}}, {"type": "node", "id": 5902488187, "lat": 41.381758, "lon": 2.1667144, "tags": {"addr:housenumber": "18", "addr:street": "Carrer de Joaqu\u00edn Costa", "amenity": "fast_food", "cuisine": "pizza", "diet:vegan": "yes", "diet:vegetarian": "yes", "drive_through": "no", "name": "Pizza Raval", "opening_hours": "Mo-Su 12:30-00:00", "phone": "+34611688588"}}, {"type": "node", "id": 5902488285, "lat": 41.3819856, "lon": 2.1664942, "tags": {"addr:housenumber": "22", "addr:postcode": "08001", "addr:street": "Carrer de Joaqu\u00edn Costa", "amenity": "fast_food", "name": "Bismillah-Kebabish", "opening_hours": "Mo-Su 12:00-01:00", "phone": "+34934430184", "website": "https://spottedbylocals.com"}}, {"type": "node", "id": 5914744891, "lat": 41.3920741, "lon": 2.1474848, "tags": {"amenity": "fast_food", "name": "Zen sushi take a way"}}, {"type": "node", "id": 5917832942, "lat": 41.3750959, "lon": 2.1649751, "tags": {"amenity": "fast_food", "name": "Xurreria"}}, {"type": "node", "id": 5918101594, "lat": 41.4248863, "lon": 2.229981, "tags": {"amenity": "fast_food", "cuisine": "pizza;kebab", "name": "Sabor Kebab", "name:es": "Sabor Kebab Pjzzerja"}}, {"type": "node", "id": 5918190285, "lat": 41.4264217, "lon": 2.2252153, "tags": {"amenity": "fast_food", "brand": "Domino's", "brand:wikidata": "Q839466", "brand:wikipedia": "en:Domino's Pizza", "cuisine": "pizza", "name": "Domino's", "takeaway": "yes"}}, {"type": "node", "id": 5918208585, "lat": 41.4278521, "lon": 2.2236522, "tags": {"amenity": "fast_food", "cuisine": "kebab", "name": "Usmania"}}, {"type": "node", "id": 5940979689, "lat": 41.4004235, "lon": 2.1208634, "tags": {"addr:housenumber": "113", "addr:street": "Carrer Major de Sarri\u00e0", "amenity": "fast_food", "brand": "Domino's", "brand:wikidata": "Q839466", "brand:wikipedia": "en:Domino's Pizza", "cuisine": "pizza", "name": "Domino's", "takeaway": "yes"}}, {"type": "node", "id": 5940979690, "lat": 41.3992748, "lon": 2.1212303, "tags": {"addr:housenumber": "2", "addr:street": "Carrer de Negrevernis", "amenity": "fast_food", "name": "las muns"}}, {"type": "node", "id": 5964629285, "lat": 41.3832705, "lon": 2.1651362, "tags": {"addr:housenumber": "56", "addr:street": "Carrer de Joaqu\u00edn Costa", "amenity": "fast_food", "cuisine": "friture;burger;fish_and_chips", "name": "Bocatas de sultan"}}, {"type": "node", "id": 5964629286, "lat": 41.3832391, "lon": 2.165168, "tags": {"addr:housenumber": "56", "addr:street": "Carrer de Joaqu\u00edn Costa", "amenity": "fast_food", "cuisine": "kebab", "name": "Doner Kebab Amigo"}}, {"type": "node", "id": 6003066831, "lat": 41.4004657, "lon": 2.1396922, "tags": {"addr:city": "Barcelona", "addr:housenumber": "153", "addr:postcode": "08021", "addr:street": "Carrer de Santal\u00f3", "amenity": "fast_food", "cuisine": "japanese", "delivery": "yes", "name": "dsushi", "note": "Pedido m\u00ednimo 15\u20ac, (Servicio a domicilio + 1\u20ac)", "opening_hours": "Mo-Su 13:00-16:00,20:00-23:30", "outdoor_seating": "yes", "phone": "+34 931 43 38 78; +34 936 81 45 17", "takeaway": "yes", "website": "https://www.dsushi.es"}}, {"type": "node", "id": 6027972085, "lat": 41.4073708, "lon": 2.1671835, "tags": {"addr:housenumber": "339", "addr:street": "Travessera de Gr\u00e0cia", "amenity": "fast_food", "diet:vegetarian": "yes", "name": "D\u00fcr\u00fcm kebab Gr\u00e0cia"}}, {"type": "node", "id": 6031663692, "lat": 41.4292131, "lon": 2.211208}, {"type": "node", "id": 6031663695, "lat": 41.4290894, "lon": 2.2114545}, {"type": "node", "id": 6031663699, "lat": 41.4293257, "lon": 2.2113084}, {"type": "node", "id": 6031663713, "lat": 41.4292019, "lon": 2.2115549}, {"type": "node", "id": 6031716983, "lat": 41.4268814, "lon": 2.210026}, {"type": "node", "id": 6031717593, "lat": 41.4267645, "lon": 2.2099932}, {"type": "node", "id": 6031717604, "lat": 41.4266945, "lon": 2.2101341}, {"type": "node", "id": 6031717605, "lat": 41.4268499, "lon": 2.2100894}, {"type": "node", "id": 6031717609, "lat": 41.4268909, "lon": 2.2100068}, {"type": "node", "id": 6036931539, "lat": 41.4050517, "lon": 2.1926832, "tags": {"amenity": "fast_food", "brand": "Viena", "brand:wikidata": "Q11954717", "diet:gluten_free": "yes", "name": "Viena", "name:ca": "Viena", "toilets:wheelchair": "yes", "website": "https://www.viena.es", "wheelchair": "yes"}}, {"type": "node", "id": 6051476087, "lat": 41.3832206, "lon": 2.1776918, "tags": {"addr:housenumber": "7", "addr:postcode": "08002", "addr:street": "Carrer de Jaume I", "amenity": "fast_food", "brand": "Wok to Walk", "brand:wikidata": "Q4020634", "cuisine": "asian", "name": "Wok to Walk", "takeaway": "yes"}}, {"type": "node", "id": 6052374050, "lat": 41.3822788, "lon": 2.1769435, "tags": {"addr:housenumber": "2", "addr:postcode": "08002", "addr:street": "Pla\u00e7a de Sant Jaume", "amenity": "fast_food", "check_date": "2023-04-28", "name": "Frankfurt Sant Jaume", "name:ca": "Frankfurt Sant Jaume"}}, {"type": "node", "id": 6052523991, "lat": 41.408776, "lon": 2.1862776, "tags": {"addr:housenumber": "8", "addr:street": "Carrer de Rogent", "amenity": "fast_food", "internet_access": "wlan", "name": "Colombia", "name:ca": "Colombia (forn colombi\u00e0)", "shop": "bakery", "toilets:wheelchair": "yes", "wheelchair": "yes"}}, {"type": "node", "id": 6052524193, "lat": 41.4100036, "lon": 2.1861079, "tags": {"addr:housenumber": "615", "addr:street": "Carrer de Val\u00e8ncia", "amenity": "fast_food", "internet_access": "wlan", "name": "vadepizza"}}, {"type": "node", "id": 6053041095, "lat": 41.3983632, "lon": 2.1615556, "tags": {"addr:city": "Barcelona", "addr:housenumber": "347", "addr:postcode": "08037", "addr:street": "Carrer de C\u00f2rsega", "amenity": "fast_food", "check_date": "2024-04-08", "cuisine": "sandwich", "entrance": "yes", "indoor_seating": "yes", "internet_access": "wlan", "name": "Antonio Rodilla", "wheelchair": "yes"}}, {"type": "node", "id": 6061422547, "lat": 41.3818247, "lon": 2.1759276, "tags": {"addr:housenumber": "39", "addr:postcode": "08002", "addr:street": "Carrer de Ferran", "amenity": "fast_food", "cuisine": "pizza", "name": "Bopiz"}}, {"type": "node", "id": 6088093394, "lat": 41.3770707, "lon": 2.1513294, "tags": {"addr:housenumber": "403", "addr:street": "Gran Via de les Corts Catalanes", "amenity": "fast_food", "name": "SandwiChez", "phone": "+34 936678813"}}, {"type": "node", "id": 6088127286, "lat": 41.4082436, "lon": 2.147322, "tags": {"addr:housenumber": "31", "addr:street": "Avinguda de la Rep\u00fablica Argentina", "amenity": "fast_food", "name": "SandwiChez", "opening_hours:covid19": "off"}}, {"type": "node", "id": 6089965885, "lat": 41.3798641, "lon": 2.1438451, "tags": {"addr:street": "Carrer de Tarragona", "amenity": "fast_food", "brand": "Burger King", "brand:wikidata": "Q177054", "brand:wikipedia": "es:Burger King", "cuisine": "burger", "diet:gluten_free": "yes", "internet_access": "wlan", "name": "Burger King", "opening_hours": "Mo-Su 11:30-01:00", "takeaway": "yes"}}, {"type": "node", "id": 6093886608, "lat": 41.3976319, "lon": 2.164883, "tags": {"addr:housenumber": "353", "addr:postcode": "08037", "addr:street": "Avinguda Diagonal", "amenity": "fast_food", "cuisine": "pizza", "delivery": "yes", "level": "0", "name": "Craft Pizza", "opening_hours": "Mo-Sa 13:00-16:00,19:30-23:00; Su 13:00-16:00,20:00-23:00", "operator": "Pumpages SL", "phone": "+34935415390", "takeaway": "yes", "website": "https://craftpizzadiagonal.cat/"}}, {"type": "node", "id": 6125429030, "lat": 41.4083793, "lon": 2.1863119, "tags": {"amenity": "fast_food", "cuisine": "arab;kebab", "name": "AL Maghribia"}}, {"type": "node", "id": 6125430215, "lat": 41.4082024, "lon": 2.1864656, "tags": {"amenity": "fast_food", "cuisine": "kebab", "name": "Best D\u00f6ner Kebab", "wheelchair": "limited"}}, {"type": "node", "id": 6133351380, "lat": 41.3850208, "lon": 2.1770686, "tags": {"addr:housenumber": "33", "addr:postcode": "08003", "addr:street": "Via Laietana", "amenity": "fast_food", "name": "Nostrum", "wheelchair": "limited"}}, {"type": "node", "id": 6151621294, "lat": 41.3868515, "lon": 2.1367352, "tags": {"addr:city": "Barcelona", "addr:country": "ES", "addr:housenumber": "137", "addr:postcode": "08029", "addr:street": "Carrer de Nicaragua", "amenity": "fast_food", "branch": "Les Corts", "contact:phone": "+34 937608003", "contact:website": "http://www.timesburg.com/", "cuisine": "burger", "name": "Timesburg", "opening_hours": "Mo-Th, Su 13:00-16:30, 20:30-23:00; Fr, Sa 13:00-16:30, 20:30-00:00"}}, {"type": "node", "id": 6157632343, "lat": 41.4091295, "lon": 2.1886748, "tags": {"amenity": "fast_food", "name": "Xurreria Artesana", "name:ca": "Xurreria Artesana"}}, {"type": "node", "id": 6164059331, "lat": 41.3796548, "lon": 2.1763278, "tags": {"addr:city": "Barcelona", "addr:housenumber": "27", "addr:postcode": "08002", "addr:street": "Carrer dels Escudellers", "amenity": "fast_food", "cuisine": "bakery;take_away_food", "name": "Nostrum Escudellers", "phone": "+34 902 15 09 50"}}, {"type": "node", "id": 6164234384, "lat": 41.398306, "lon": 2.2050982, "tags": {"addr:city": "Barcelona", "addr:country": "ES", "addr:housenumber": "16", "addr:postcode": "08005", "addr:street": "Rambla del Poblenou", "amenity": "fast_food", "contact:website": "http://www.zozanrestaurantgourmetbarcelona.com/", "cuisine": "middle_eastern;turkish", "delivery": "yes", "drive_through": "no", "name": "Zozan", "opening_hours": "Mo-Su 19:00-23:30"}}, {"type": "node", "id": 6174777285, "lat": 41.3848196, "lon": 2.174313, "tags": {"amenity": "fast_food", "brand": "Pans & Company", "brand:wikidata": "Q11697586", "brand:wikipedia": "es:Pans & Company", "cuisine": "sandwich", "diet:gluten_free": "yes", "name": "Pans & Company", "name:ca": "Pans & Company", "takeaway": "yes"}}, {"type": "node", "id": 6175104685, "lat": 41.4270368, "lon": 2.1857716, "tags": {"amenity": "fast_food", "brand": "KFC", "brand:wikidata": "Q524757", "brand:wikipedia": "en:KFC", "name": "KFC", "name:en": "KFC"}}, {"type": "node", "id": 6177292086, "lat": 41.3921326, "lon": 2.1676775, "tags": {"amenity": "fast_food", "description": "Bubble Tea and Brunch Shop", "name": "Buscat\u00e9"}}, {"type": "node", "id": 6181410363, "lat": 41.3882932, "lon": 2.1705399, "tags": {"addr:city": "Barcelona", "addr:country": "ES", "amenity": "fast_food", "brand": "Taco Bell", "brand:wikidata": "Q752941", "brand:wikipedia": "en:Taco Bell", "check_date": "2024-06-14", "cuisine": "tex-mex", "indoor_seating": "yes", "name": "Taco Bell", "name:ca": "Taco Bell", "outdoor_seating": "no", "takeaway": "yes", "wheelchair": "yes"}}, {"type": "node", "id": 6191761532, "lat": 41.3922057, "lon": 2.1450145, "tags": {"addr:city": "Barcelona", "addr:country": "ES", "addr:housenumber": "261-263", "addr:postcode": "08029", "addr:street": "Carrer del Comte d'Urgell", "amenity": "fast_food", "branch": "Urgell", "brand": "KFC", "brand:wikidata": "Q524757", "brand:wikipedia": "en:KFC", "contact:phone": "+34 934102070", "contact:website": "https://kfc.es/", "cuisine": "chicken", "delivery": "yes", "drive_through": "no", "internet_access": "wlan", "name": "KFC", "opening_hours": "Su-Th 12:00-23:00; Fr-Sa 12:00-00:00", "outdoor_seating": "no", "payment:mastercard": "yes", "payment:visa": "yes", "smoking": "no", "takeaway": "yes"}}, {"type": "node", "id": 6194573768, "lat": 41.3874828, "lon": 2.1444566, "tags": {"addr:city": "Barcelona", "addr:country": "ES", "amenity": "fast_food", "brand": "Domino's", "brand:wikidata": "Q839466", "brand:wikipedia": "es:Domino's Pizza", "cuisine": "pizza", "name": "Domino's", "opening_hours": "Mo-Th, Su 12:30-00:00; Fr, Sa 12:30-00:30", "takeaway": "yes"}}, {"type": "node", "id": 6197383683, "lat": 41.3925286, "lon": 2.1491222, "tags": {"amenity": "fast_food", "cuisine": "empanada", "name": "Las Muns", "opening_hours": "Mo-Su 12:00-23:00"}}, {"type": "node", "id": 6205360229, "lat": 41.3946185, "lon": 2.1343899, "tags": {"addr:housenumber": "23", "addr:street": "Carrer del Doctor Fleming", "amenity": "fast_food", "cuisine": "burger", "name": "La Burguesa Garden", "phone": "+34932006327", "toilets:wheelchair": "yes", "website": "http://laburguesa.es", "wheelchair": "yes"}}, {"type": "node", "id": 6208586239, "lat": 41.3858395, "lon": 2.1370334, "tags": {"addr:city": "Barcelona", "addr:country": "ES", "addr:housenumber": "94", "addr:postcode": "08029", "addr:street": "Carrer de Num\u00e0ncia", "amenity": "fast_food", "contact:phone": "+34 934193737", "cuisine": "pizza", "delivery": "yes", "drive_through": "no", "name": "Boston Pizza", "opening_hours": "Mo-Su,PH 13:00-16:00,19:00-24:00"}}, {"type": "node", "id": 6211321780, "lat": 41.391559, "lon": 2.1502746, "tags": {"addr:city": "Barcelona", "addr:country": "ES", "amenity": "fast_food", "cuisine": "pizza", "delivery": "yes", "drive_through": "no", "name": "Mama Lina", "takeaway": "yes"}}, {"type": "node", "id": 6216458598, "lat": 41.3920984, "lon": 2.1445773, "tags": {"addr:city": "Barcelona", "addr:housenumber": "140", "addr:postcode": "08029", "addr:street": "Avinguda de Josep Tarradellas", "amenity": "fast_food", "branch": "Francesc Maci\u00e0", "brand": "McDonald's", "brand:wikidata": "Q38076", "brand:wikipedia": "es:McDonald's", "cuisine": "burger", "delivery": "yes", "diet:gluten_free": "yes", "drive_through": "no", "name": "McDonald's", "name:ca": "McDonald's", "opening_hours": "Mo-Su 08:00-00:00", "outdoor_seating": "no", "payment:mastercard": "yes", "payment:visa": "yes", "smoking": "no", "takeaway": "yes"}}, {"type": "node", "id": 6221827496, "lat": 41.3926469, "lon": 2.15897, "tags": {"addr:city": "Barcelona", "addr:country": "ES", "addr:housenumber": "258", "addr:postcode": "08008", "addr:street": "Carrer de Proven\u00e7a", "amenity": "fast_food", "contact:phone": "+34 932153074", "contact:website": "https://www.sandwichez.com", "cuisine": "sandwich;cafe;juice;smoothie;salad", "drive_through": "no", "name": "SandwiChez", "opening_hours": "Mo-Su 08:00-23:00", "outdoor_seating": "yes", "takeaway": "yes"}}, {"type": "node", "id": 6237829619, "lat": 41.3962921, "lon": 2.1500989, "tags": {"addr:housenumber": "60", "addr:postcode": "08006", "addr:street": "Travessera de Gr\u00e0cia", "amenity": "fast_food", "check_date:opening_hours": "2020-12-27", "cuisine": "asian", "delivery": "yes", "diet:vegetarian": "yes", "internet_access": "wlan", "name": "Wok To Box", "opening_hours": "Mo-Fr 11:45-23:30; Sa-Su 12:00-17:00,19:00-23:30", "phone": "+34935124081", "takeaway": "yes"}}, {"type": "node", "id": 6249960804, "lat": 41.4193754, "lon": 2.2021731, "tags": {"amenity": "fast_food"}}, {"type": "node", "id": 6258404986, "lat": 41.3949256, "lon": 2.1474503, "tags": {"amenity": "fast_food", "name": "Orimaki", "website": "https://www.orimaki.com/"}}, {"type": "node", "id": 6258595429, "lat": 41.3581339, "lon": 2.1400428, "tags": {"addr:city": "Barcelona", "addr:housenumber": "137", "addr:postcode": "08038", "addr:street": "Passeig de la Zona Franca", "amenity": "fast_food", "brand": "Burger King", "brand:wikidata": "Q177054", "brand:wikipedia": "es:Burger King", "contact:phone": "+34 696210849", "cuisine": "burger", "diet:gluten_free": "yes", "drive_through": "no", "level": "0", "name": "Burger King", "opening_hours": "Mo-Th 11:30-00:30; Fr-Su 11:00-00:30", "opening_hours:covid19": "off", "takeaway": "yes", "website": "https://www.burgerking.es"}}, {"type": "node", "id": 6258715956, "lat": 41.3694443, "lon": 2.1379111, "tags": {"addr:city": "Barcelona", "addr:housenumber": "34", "addr:postcode": "08014", "addr:street": "Carrer de Moss\u00e8n Amadeu Oller", "amenity": "fast_food", "check_date": "2024-11-09", "contact:facebook": "piccolaitalia", "cuisine": "italian_pizza", "name": "Piccola Italia", "opening_hours": "Mo-Su 11:45-16:00, 19:15-00:00", "phone": "934214218;698451183", "website": "https://www.pizzeriapiccolaitalia.es/"}}, {"type": "node", "id": 6260784857, "lat": 41.3786638, "lon": 2.1337561, "tags": {"amenity": "fast_food", "contact:phone": "+34 931315959", "contact:website": "http://www.romanpizza.net", "cuisine": "pizza", "delivery": "yes", "name": "Roman Pizza", "opening_hours": "Mo-Su 20:00-23:00; We-Su 13:00-15:00", "payment:american_express": "yes", "payment:mastercard": "yes", "payment:meal_voucher": "yes", "payment:visa": "yes", "takeaway": "yes"}}, {"type": "node", "id": 6260784867, "lat": 41.3663574, "lon": 2.1348772, "tags": {"addr:city": "Barcelona", "addr:postcode": "08014", "amenity": "fast_food", "cuisine": "chicken;pizza;turkish", "name": "Yaya Maria", "outdoor_seating": "yes", "wheelchair": "limited"}}, {"type": "node", "id": 6260786085, "lat": 41.3844381, "lon": 2.1308776, "tags": {"amenity": "fast_food", "cuisine": "burger", "name": "Pepburg"}}, {"type": "node", "id": 6294092986, "lat": 41.3791772, "lon": 2.1722373, "tags": {"amenity": "fast_food", "cuisine": "asian", "name": "wok to walk"}}, {"type": "node", "id": 6321544167, "lat": 41.3756487, "lon": 2.1288471, "tags": {"addr:city": "Barcelona", "addr:housenumber": "238", "addr:postcode": "08028", "addr:street": "Carrer de Sants", "amenity": "fast_food", "name": "Hotdoks"}}, {"type": "node", "id": 6321544170, "lat": 41.3756474, "lon": 2.1289635, "tags": {"addr:city": "Barcelona", "addr:housenumber": "238", "addr:postcode": "08028", "addr:street": "Carrer de Sants", "amenity": "fast_food", "cuisine": "sandwich", "name": "Comp\u00e0"}}, {"type": "node", "id": 6326792287, "lat": 41.4042287, "lon": 2.1739462, "tags": {"amenity": "fast_food", "brand": "Taco Bell", "brand:wikidata": "Q752941", "brand:wikipedia": "en:Taco Bell", "cuisine": "tex-mex", "description:es": "Somos un fast food de comida con inspiraci\u00f3n mexicana con un toque diferente y un sabor \u00fanico, en un ambiente moderno y divertido.", "email": "tacobell@tacobell.es", "facebook": "https://www.facebook.com/TacoBellSpain/", "internet_access": "wlan", "name": "Taco Bell", "name:ca": "Taco Bell", "operator": "Taco Bell", "takeaway": "yes", "website": "https://tacobell.es/", "wheelchair": "limited"}}, {"type": "node", "id": 6327164187, "lat": 41.3765864, "lon": 2.1496696, "tags": {"amenity": "fast_food", "name:de": "Subway", "name:en": "Subway"}}, {"type": "node", "id": 6347690800, "lat": 41.3767176, "lon": 2.1901848, "tags": {"amenity": "fast_food", "check_date": "2024-06-26", "name": "Picarn"}}, {"type": "node", "id": 6355587426, "lat": 41.3754756, "lon": 2.1274223, "tags": {"amenity": "fast_food", "cuisine": "kebab", "name": "City Istambul"}}, {"type": "node", "id": 6368906058, "lat": 41.3603294, "lon": 2.1339844, "tags": {"addr:street": "Carrer de l'Arquitectura", "amenity": "fast_food", "cuisine": "kebab;pizza;burger;chicken", "name": "Pio Pio - Rostisseria Pizza Kebab", "opening_hours": "Mo-Su 12:00-00:00", "wheelchair": "limited"}}, {"type": "node", "id": 6402974588, "lat": 41.3911278, "lon": 2.1982454, "tags": {"addr:street": "Carrer de l'Arquitecte Sert", "amenity": "fast_food", "cuisine": "indian", "name": "Taj Mahal"}}, {"type": "node", "id": 6409913098, "lat": 41.3756077, "lon": 2.1336006, "tags": {"amenity": "fast_food", "name": "Llegums Cuits Vargas", "opening_hours": "Mo-Sa 08:30-15:00", "wheelchair": "yes"}}, {"type": "node", "id": 6431477577, "lat": 41.3796421, "lon": 2.1377685, "tags": {"amenity": "fast_food", "check_date": "2023-06-30", "cuisine": "kebab;pizza", "delivery": "yes", "name": "Juan", "takeaway": "yes"}}, {"type": "node", "id": 6431481999, "lat": 41.3786027, "lon": 2.1398942, "tags": {"addr:city": "Barcelona", "addr:place": "Pla\u00e7a dels Pa\u00efsos Catalans", "addr:postcode": "08014", "amenity": "fast_food", "brand": "McDonald's", "brand:wikidata": "Q38076", "brand:wikipedia": "es:McDonald's", "check_date": "2024-07-22", "cuisine": "burger", "diet:gluten_free": "yes", "level": "0", "name": "McDonald's", "name:ca": "McDonald's", "operator": "Restaurantes McDonald's S.A.U", "payment:cash": "yes", "payment:mastercard": "yes", "payment:visa": "yes", "takeaway": "yes"}}, {"type": "node", "id": 6431508291, "lat": 41.3766625, "lon": 2.1363478, "tags": {"amenity": "fast_food", "cuisine": "kebab;pizza;turkish", "name": "Kebab Inn"}}, {"type": "node", "id": 6450381087, "lat": 41.3998004, "lon": 2.1598255, "tags": {"addr:housenumber": "35", "addr:street": "Carrer del Torrent de l'Olla", "amenity": "fast_food", "check_date": "2023-04-19", "cuisine": "argentinian", "name": "Bona miga", "name:es": "Bona Miga", "wheelchair": "limited"}}, {"type": "node", "id": 6462991685, "lat": 41.3624788, "lon": 2.1370246, "tags": {"amenity": "fast_food", "brand": "Domino's", "brand:wikidata": "Q839466", "brand:wikipedia": "en:Domino's Pizza", "cuisine": "pizza", "name": "Domino's", "takeaway": "yes"}}, {"type": "node", "id": 6488828037, "lat": 41.3651315, "lon": 2.1380803, "tags": {"amenity": "fast_food", "cuisine": "kebab;pizza", "name": "Catalunya Pita House"}}, {"type": "node", "id": 6488829192, "lat": 41.3754554, "lon": 2.1389129, "tags": {"alt_name": "Kentucky Fried Chicken", "amenity": "fast_food", "brand": "KFC", "brand:wikidata": "Q524757", "brand:wikipedia": "en:KFC", "cuisine": "chicken", "indoor_seating": "yes", "name": "KFC", "outdoor_seating": "no", "smoking": "no", "takeaway": "yes"}}, {"type": "node", "id": 6520486199, "lat": 41.3966987, "lon": 2.1666793, "tags": {"addr:housenumber": "126", "addr:street": "Carrer del Bruc", "amenity": "fast_food", "check_date": "2024-04-27", "cuisine": "juice", "name": "Petit suc"}}, {"type": "node", "id": 6532297486, "lat": 41.4047113, "lon": 2.201252, "tags": {"addr:street": "Carrer de Bilbao", "amenity": "fast_food", "name": "Tuapetito"}}, {"type": "node", "id": 6532335586, "lat": 41.402179, "lon": 2.2039432, "tags": {"addr:street": "Carrer de Llull", "amenity": "fast_food", "name": "Hamburgueser\u00eda Jou's"}}, {"type": "node", "id": 6532342085, "lat": 41.4022005, "lon": 2.204014, "tags": {"amenity": "fast_food", "name": "Ali Baba d\u00f6ner Kebab"}}, {"type": "node", "id": 6538038332, "lat": 41.3925041, "lon": 2.1891399, "tags": {"amenity": "fast_food", "cuisine": "burger", "name": "babol burguer"}}, {"type": "node", "id": 6538040130, "lat": 41.3918983, "lon": 2.1879248, "tags": {"amenity": "fast_food", "cuisine": "pizza", "indoor_seating": "yes", "name": "Eatmosfera", "outdoor_seating": "yes"}}, {"type": "node", "id": 6538187909, "lat": 41.3747831, "lon": 2.156241, "tags": {"amenity": "fast_food", "name": "Pizzeria paral\u00b7lel"}}, {"type": "node", "id": 6538190669, "lat": 41.3752906, "lon": 2.1508703, "tags": {"alt_name": "Kentucky Fried Chicken", "amenity": "fast_food", "brand": "KFC", "brand:wikidata": "Q524757", "brand:wikipedia": "en:KFC", "check_date": "2025-02-19", "cuisine": "chicken", "name": "KFC", "takeaway": "yes"}}, {"type": "node", "id": 6563538385, "lat": 41.3860841, "lon": 2.1615281, "tags": {"addr:housenumber": "214", "addr:street": "Carrer de la Diputaci\u00f3", "amenity": "fast_food", "name": "Wild beef"}}, {"type": "node", "id": 6594528988, "lat": 41.4061595, "lon": 2.1502247, "tags": {"amenity": "fast_food", "brand": "Burger King", "brand:wikidata": "Q177054", "brand:wikipedia": "es:Burger King", "cuisine": "burger", "diet:gluten_free": "yes", "name": "Burger King", "takeaway": "yes"}}, {"type": "node", "id": 6597321586, "lat": 41.4066359, "lon": 2.1510846, "tags": {"addr:housenumber": "40", "addr:street": "Carrer P\u00e9rez Gald\u00f3s", "amenity": "fast_food", "name": "In\u00e8dit - menjar per emportar"}}, {"type": "node", "id": 6724669061, "lat": 41.3650228, "lon": 2.129442, "tags": {"addr:block_number": "1", "addr:city": "l'Hospitalet de Llobregat", "addr:neighbourhood": "Santa Eul\u00e0lia", "addr:postcode": "08902", "addr:street": "Pla\u00e7a de Milagros Consarnau i Sabat\u00e9", "amenity": "fast_food", "cuisine": "chicken", "name": "La Kuineta", "phone": "+34 93 296 88 03", "start_date": "2023-01-27", "website": "https://www.lakuineta.com"}}, {"type": "node", "id": 6724673991, "lat": 41.3660597, "lon": 2.1298292, "tags": {"addr:block_number": "28", "addr:city": "l'Hospitalet de Llobregat", "addr:neighbourhood": "Santa Eul\u00e0lia", "addr:postcode": "08902", "addr:street": "Pla\u00e7a de Milagros Consarnau i Sabat\u00e9", "amenity": "fast_food", "name": "Rostisseria El Caliu", "name:ca": "Rostisseria El Caliu", "phone": "+34 93 331 14 45"}}, {"type": "node", "id": 6744696586, "lat": 41.3859846, "lon": 2.169355, "tags": {"amenity": "fast_food", "brand": "Five Guys", "brand:wikidata": "Q1131810", "brand:wikipedia": "en:Five Guys", "cuisine": "burger", "diet:vegetarian": "yes", "indoor_seating": "yes", "name": "Five Guys", "official_name": "Five Guys Burgers and Fries", "outdoor_seating": "yes", "smoking": "outside", "takeaway": "yes", "toilets:wheelchair": "yes", "wheelchair": "yes", "wheelchair:description": "toilets in the basement, accessible by elevator, see picture, code for the door at the employees"}}, {"type": "node", "id": 6750690095, "lat": 41.4026721, "lon": 2.1763664, "tags": {"addr:housenumber": "441", "addr:street": "Carrer de Val\u00e8ncia", "amenity": "fast_food", "internet_access": "wlan", "name": "H\u016bla poke food"}}, {"type": "node", "id": 6757313690, "lat": 41.3985115, "lon": 2.1727895, "tags": {"addr:housenumber": "167", "addr:street": "Carrer de Roger de Flor", "amenity": "fast_food", "check_date": "2024-10-22", "cuisine": "pizza;empanada;argentinian", "name": "Kuk Comidas"}}, {"type": "node", "id": 6757314486, "lat": 41.403426, "lon": 2.1803842, "tags": {"addr:street": "Carrer de Padilla", "amenity": "fast_food", "cuisine": "fish;chicken;ice_cream", "name": "La Mare Cuina", "phone": "+34 932171967"}}, {"type": "node", "id": 6757314488, "lat": 41.3971962, "lon": 2.1719178, "tags": {"addr:housenumber": "370", "addr:street": "Carrer d'Arag\u00f3", "amenity": "fast_food", "name": "Xurreria Jessy", "opening_hours": "Mo-Su 08:30-20:30"}}, {"type": "node", "id": 6766272995, "lat": 41.3896233, "lon": 2.1619824, "tags": {"amenity": "fast_food", "cuisine": "ramen", "name": "Ramen Kitchen Takumi Barcelona"}}, {"type": "node", "id": 6766273109, "lat": 41.4065479, "lon": 2.1890035, "tags": {"addr:housenumber": "40", "addr:street": "Carrer dels Escultors Claper\u00f3s", "amenity": "fast_food", "cuisine": "chicken;kebab;pizza", "internet_access": "wlan", "name": "La Cuina de Clot"}}, {"type": "node", "id": 6772044385, "lat": 41.4073538, "lon": 2.1841387, "tags": {"addr:housenumber": "262", "addr:street": "Carrer de la Independ\u00e8ncia", "amenity": "fast_food", "name": "bao'''s"}}, {"type": "node", "id": 6772044585, "lat": 41.4068873, "lon": 2.1842149, "tags": {"addr:street": "Carrer d'Arag\u00f3", "amenity": "fast_food", "check_date": "2024-05-29", "cuisine": "lebanese", "internet_access": "wlan", "name": "Damasquina"}}, {"type": "node", "id": 6779106486, "lat": 41.4075958, "lon": 2.1879902, "tags": {"addr:housenumber": "45", "addr:street": "Carrer del Clot", "amenity": "fast_food", "cuisine": "burger", "name": "Flames del Drac", "name:ca": "Flames del Drac"}}, {"type": "node", "id": 6781352191, "lat": 41.380705, "lon": 2.1730509, "tags": {"amenity": "fast_food", "name": "Chicks B\u00fcrger Bar"}}, {"type": "node", "id": 6784441594, "lat": 41.4097912, "lon": 2.1862607, "tags": {"addr:housenumber": "614", "addr:street": "Carrer de Val\u00e8ncia", "amenity": "fast_food", "name": "New Grill Beef Halal"}}, {"type": "node", "id": 6786006586, "lat": 41.379094, "lon": 2.1643161, "tags": {"addr:housenumber": "36", "addr:street": "Carrer de Sant Antoni Abat", "amenity": "fast_food", "cuisine": "chicken;burger;kebab;pizza", "internet_access": "wlan", "name": "Pak Pita Kebab"}}, {"type": "node", "id": 6786006587, "lat": 41.3819909, "lon": 2.1696625, "tags": {"addr:housenumber": "40", "addr:street": "Carrer del Carme", "amenity": "fast_food", "cuisine": "pasta;pizza", "diet:vegan": "yes", "diet:vegetarian": "yes", "internet_access": "wlan", "name": "Pasta Madre", "opening_hours": "Su-Th 08:00-24:00; Fr 08:00-01:00", "wheelchair": "yes"}}, {"type": "node", "id": 6790645692, "lat": 41.4034474, "lon": 2.176057, "tags": {"addr:housenumber": "262", "addr:street": "Carrer de la Marina", "amenity": "fast_food", "check_date": "2023-10-16", "cuisine": "japanese;pasta", "internet_access": "wlan", "name": "Wok Show"}}, {"type": "node", "id": 6790645699, "lat": 41.4023408, "lon": 2.1741498, "tags": {"addr:housenumber": "18", "addr:street": "Pl. de la Sagrada Fam\u00edlia", "amenity": "fast_food", "check_date": "2024-02-11", "cuisine": "pasta", "name": "Wok Street"}}, {"type": "node", "id": 6790645700, "lat": 41.4020783, "lon": 2.1737965, "tags": {"addr:housenumber": "21", "addr:street": "Pl. de la Sagrada Fam\u00edlia", "amenity": "fast_food", "cuisine": "asian", "internet_access": "wlan", "name": "Vah\u00f6"}}, {"type": "node", "id": 6805602987, "lat": 41.4074904, "lon": 2.1772706, "tags": {"addr:housenumber": "280", "addr:street": "Carrer de los Castillejos", "amenity": "fast_food", "name": "A m\u00e0"}}, {"type": "node", "id": 6812099688, "lat": 41.4039506, "lon": 2.1735434, "tags": {"addr:housenumber": "425", "addr:street": "Carrer de Proven\u00e7a", "amenity": "fast_food", "cuisine": "burger;sandwich", "name": "Five Guys"}}, {"type": "node", "id": 6855395485, "lat": 41.4109902, "lon": 2.1647005, "tags": {"amenity": "fast_food", "cuisine": "chicken", "name": "Rostisseria Rafael", "name:ca": "Rostisseria Rafael"}}, {"type": "node", "id": 6871468753, "lat": 41.3889225, "lon": 2.1335767, "tags": {"amenity": "fast_food", "brand": "Pans & Company", "brand:wikidata": "Q11697586", "brand:wikipedia": "es:Pans & Company", "check_date": "2024-02-24", "cuisine": "sandwich", "diet:gluten_free": "yes", "name": "Pans & Company", "name:ca": "Pans & Company", "takeaway": "yes"}}, {"type": "node", "id": 6906379659, "lat": 41.4085013, "lon": 2.1873157, "tags": {"amenity": "fast_food", "cuisine": "churro", "name": "xurreria", "wheelchair": "yes"}}, {"type": "node", "id": 6943772598, "lat": 41.3823617, "lon": 2.1359928, "tags": {"amenity": "fast_food", "brand": "The Good Burger", "brand:wikidata": "Q20962086", "cuisine": "burger", "delivery": "yes", "name": "The Good Burger", "short_name": "TGB", "takeaway": "yes", "wheelchair": "yes"}}, {"type": "node", "id": 6952144209, "lat": 41.3834715, "lon": 2.1306963, "tags": {"amenity": "fast_food", "check_date": "2023-09-04", "cuisine": "kebab", "name": "Cintat Istanbul D\u00f6ner"}}, {"type": "node", "id": 7003296908, "lat": 41.3755254, "lon": 2.1706594, "tags": {"amenity": "fast_food", "cuisine": "kebab", "diet:vegan": "no", "diet:vegetarian": "yes", "name": "Luna de Istanbul", "opening_hours": "11:00-02:30", "wheelchair": "yes"}}, {"type": "node", "id": 7003296921, "lat": 41.3730985, "lon": 2.1666137, "tags": {"addr:city": "Barcelona", "addr:housenumber": "35", "addr:street": "Carrer del Roser", "amenity": "fast_food", "cuisine": "kebab", "name": "Village Spicy Restaurant", "opening_hours": "Mo-Sa 12:00-01:00; PH 12:00-24:00"}}, {"type": "node", "id": 7004587287, "lat": 41.3745883, "lon": 2.1678593, "tags": {"amenity": "fast_food", "name": "plaza"}}, {"type": "node", "id": 7040898587, "lat": 41.3897424, "lon": 2.1843573, "tags": {"amenity": "fast_food", "check_date": "2023-09-27", "name": "cafe-euro"}}, {"type": "node", "id": 7049651208, "lat": 41.3647279, "lon": 2.1255258, "tags": {"addr:city": "l'Hospitalet de Llobregat", "addr:neighbourhood": "Santa Eul\u00e0lia", "addr:postcode": "08902", "amenity": "fast_food", "cuisine": "burger", "name": "Frankfurt Braulio", "opening_hours": "Mo-Sa 12:00-23:00", "phone": "+34 93 298 94 36", "website": "http://www.frankfurtbraulio.com/"}}, {"type": "node", "id": 7077956896, "lat": 41.389972, "lon": 2.1622565, "tags": {"amenity": "fast_food", "cuisine": "japanese", "name": "Poke S\u00ed"}}, {"type": "node", "id": 7084941190, "lat": 41.3929, "lon": 2.14335, "tags": {"amenity": "fast_food", "brand": "Sushi Shop", "brand:wikidata": "Q3505657", "cuisine": "sushi", "name": "Sushi Shop", "takeaway": "yes"}}, {"type": "node", "id": 7125445372, "lat": 41.3758022, "lon": 2.1201449, "tags": {"addr:city": "L'Hospitalet de Llobregat", "addr:housenumber": "24", "addr:neighbourhood": "Collblanc", "addr:postcode": "08903", "addr:street": "Carretera de Collblanc", "air_conditioning": "yes", "alt_name": "Kentucky Fried Chicken", "amenity": "fast_food", "brand": "KFC", "brand:wikidata": "Q524757", "brand:wikipedia": "ca:Kentucky Fried Chicken", "check_date": "2024-04-09", "cuisine": "chicken", "delivery": "yes", "name": "KFC", "opening_hours": "Mo-Sa 10:00-21:00; Su 11:00-20:00", "outdoor_seating": "no", "phone": "+34 93 448 60 07", "takeaway": "yes", "website": "https://kfc.es"}}, {"type": "node", "id": 7177457285, "lat": 41.3963002, "lon": 2.18433, "tags": {"amenity": "fast_food", "check_date": "2024-03-02", "name:de": "D\u00f6ner Kebab", "name:en": "Doner Kebab"}}, {"type": "node", "id": 7207079339, "lat": 41.4213529, "lon": 2.2035086, "tags": {"amenity": "fast_food", "cuisine": "churro"}}, {"type": "node", "id": 7252947683, "lat": 41.4230714, "lon": 2.2114786, "tags": {"amenity": "fast_food", "cuisine": "churro"}}, {"type": "node", "id": 7281907685, "lat": 41.4091656, "lon": 2.1746108, "tags": {"amenity": "fast_food", "brand": "Pans & Company", "brand:wikidata": "Q11697586", "cuisine": "sandwich", "diet:gluten_free": "yes", "internet_access": "wlan", "name": "Pans & Company", "name:ca": "Pans & Company", "takeaway": "yes"}}, {"type": "node", "id": 7528231985, "lat": 41.3902517, "lon": 2.1721128, "tags": {"amenity": "fast_food", "fast_food": "cafeteria", "name": "Casp"}}, {"type": "node", "id": 7557038714, "lat": 41.4037917, "lon": 2.1974117, "tags": {"alt_name": "Empanadas Argentinas Malv\u00f3n", "amenity": "fast_food", "brand": "Malv\u00f3n", "brand:wikidata": "Q109877196", "cuisine": "empanada", "email": "poblenou@malvon.es", "name": "Malv\u00f3n", "opening_hours": "Mo-Su 11:00-23:00", "phone": "+34 936 25 96 85", "takeaway": "yes", "website": "https://www.malvon.es"}}, {"type": "node", "id": 7714319967, "lat": 41.3769439, "lon": 2.1251838, "tags": {"addr:city": "Barcelona", "addr:housenumber": "42", "addr:postcode": "08028", "addr:street": "Avinguda de Madrid", "amenity": "fast_food", "cuisine": "kebab", "name": "Estambul Kebab"}}, {"type": "node", "id": 7714331762, "lat": 41.3759093, "lon": 2.1265018, "tags": {"addr:city": "Barcelona", "addr:housenumber": "6", "addr:postcode": "08028", "addr:street": "Carrer de Jaume Roig", "amenity": "fast_food", "cuisine": "kebab", "name": "King Donner Kebab Pizzeria"}}, {"type": "node", "id": 7716896419, "lat": 41.375768, "lon": 2.123377, "tags": {"addr:city": "Barcelona", "addr:housenumber": "358", "addr:postcode": "08028", "addr:street": "Carrer de Sants", "amenity": "fast_food", "cuisine": "sandwich", "name": "SandwiChez"}}, {"type": "node", "id": 7760747525, "lat": 41.3753702, "lon": 2.1272383, "tags": {"addr:city": "Barcelona", "addr:housenumber": "2", "addr:postcode": "08028", "addr:street": "Carrer de Sugranyes", "amenity": "fast_food", "cuisine": "chicken", "name": "Riko's - Braseria i Restaurant", "phone": "+34934223782", "website": "https://www.pollosrikos.com/"}}, {"type": "node", "id": 7879673685, "lat": 41.4049693, "lon": 2.154313, "tags": {"addr:housenumber": "1", "addr:street": "Carrer de Biada", "amenity": "fast_food", "check_date": "2024-06-19", "cuisine": "sushi;onigiri", "name": "Omu", "outdoor_seating": "yes", "takeaway": "only"}}, {"type": "node", "id": 7926274932, "lat": 41.3661685, "lon": 2.1369072, "tags": {"addr:city": "Barcelona", "addr:housenumber": "149", "addr:postcode": "08014", "addr:street": "Gran Via de les Corts Catalanes", "addr:unit": "Bajo", "amenity": "fast_food", "branch": "Gran Via", "brand": "The Good Burger", "brand:wikidata": "Q20962086", "cuisine": "burger", "delivery": "yes", "name": "The Good Burger", "opening_hours": "Mo-Su 12:00-22:00", "phone": "+34 935392688", "short_name": "TGB", "takeaway": "yes", "website": "http://www.tgbgranvia.com", "wheelchair": "yes"}}, {"type": "node", "id": 7989010787, "lat": 41.4094043, "lon": 2.1761969, "tags": {"addr:street": "Carrer de C\u00f2rsega", "amenity": "fast_food", "internet_access": "wlan", "name": "Ali Doner Kebab"}}, {"type": "node", "id": 7989011187, "lat": 41.4107229, "lon": 2.1751841, "tags": {"addr:housenumber": "316", "addr:street": "Carrer de Cartagena", "amenity": "fast_food", "name": "Xurreria"}}, {"type": "node", "id": 7989011191, "lat": 41.4112466, "lon": 2.1740209, "tags": {"amenity": "fast_food", "brand": "Burger King", "brand:wikidata": "Q177054", "brand:wikipedia": "es:Burger King", "cuisine": "burger", "delivery": "yes", "diet:gluten_free": "yes", "internet_access": "wlan", "name": "Burger King", "takeaway": "yes", "toilets": "yes", "toilets:wheelchair": "yes", "wheelchair": "yes"}}, {"type": "node", "id": 8005860690, "lat": 41.407037, "lon": 2.1714094, "tags": {"addr:street": "Carrer de la Marina", "amenity": "fast_food", "brand": "Telepizza", "brand:wikidata": "Q2699863", "brand:wikipedia": "es:Telepizza", "cuisine": "pizza", "name": "Telepizza", "opening_hours": "PH,Mo-Su 13:00-24:00", "takeaway": "yes"}}, {"type": "node", "id": 8040411289, "lat": 41.4046579, "lon": 2.171876, "tags": {"addr:housenumber": "342", "addr:street": "Carrer de Sardenya", "amenity": "fast_food", "name": "Kamran Doner Bar"}}, {"type": "node", "id": 8049731594, "lat": 41.4013788, "lon": 2.203079, "tags": {"amenity": "fast_food", "indoor_seating": "no", "name": "La Bodega", "name:ca": "La Bodega", "outdoor_seating": "no", "takeaway": "only"}}, {"type": "node", "id": 8049731690, "lat": 41.4008761, "lon": 2.2038406, "tags": {"amenity": "fast_food", "cuisine": "kebab", "name": "Amigo D\u00f6ner Kebab"}}, {"type": "node", "id": 8049731790, "lat": 41.4002469, "lon": 2.204811, "tags": {"amenity": "fast_food", "name": "Cocino"}}, {"type": "node", "id": 8049732285, "lat": 41.4005075, "lon": 2.2044279, "tags": {"amenity": "fast_food", "name": "La caseta azul"}}, {"type": "node", "id": 8049732299, "lat": 41.4068195, "lon": 2.1951581, "tags": {"amenity": "fast_food", "name": "nora"}}, {"type": "node", "id": 8062015587, "lat": 41.4043876, "lon": 2.2040295, "tags": {"amenity": "fast_food", "name": "Xurreria Poblenou", "name:ca": "Xurreria Poblenou"}}, {"type": "node", "id": 8069284185, "lat": 41.3767827, "lon": 2.1664338, "tags": {"addr:housenumber": "16", "addr:street": "Carrer de la Lleialtat", "amenity": "fast_food", "name": "Gringa"}}, {"type": "node", "id": 8077127920, "lat": 41.4007782, "lon": 2.2038067, "tags": {"amenity": "fast_food", "cuisine": "pizza", "indoor_seating": "yes", "name": "La Escuineta", "opening_hours": "Tu-Su 12:00-23:00", "outdoor_seating": "no"}}, {"type": "node", "id": 8196671717, "lat": 41.404405, "lon": 2.1723522, "tags": {"amenity": "fast_food", "brand": "Oakberry A\u00e7a\u00ed bowls", "brand:wikidata": "Q104870840", "cuisine": "a\u00e7a\u00ed", "internet_access": "wlan", "name": "Oakberry A\u00e7a\u00ed bowls", "takeaway": "yes"}}, {"type": "node", "id": 8262032517, "lat": 41.3907684, "lon": 2.1723455, "tags": {"addr:housenumber": "31", "addr:street": "Carrer de Casp", "amenity": "fast_food", "check_date": "2024-06-13", "cuisine": "sandwich;spanish;mexican", "diet:vegan": "yes", "diet:vegetarian": "yes", "drive_through": "no", "email": "sandwichez@sandwichez.es", "internet_access": "wlan", "internet_access:fee": "customers", "level": "0", "name": "SandwiChez", "opening_hours": "07:15-21:00", "payment:cash": "yes", "payment:credit_cards": "yes", "payment:debit_cards": "yes", "phone": "+34 938 32 39 71", "website": "https://www.sandwichez.com/"}}, {"type": "node", "id": 8262032617, "lat": 41.3807677, "lon": 2.1885693, "tags": {"amenity": "fast_food", "cuisine": "burger", "name": "Frankfurt's de l'\u00d2stia"}}, {"type": "node", "id": 8265453817, "lat": 41.4049857, "lon": 2.171001, "tags": {"amenity": "fast_food", "name": "Empanaderia"}}, {"type": "node", "id": 8265807595, "lat": 41.3886257, "lon": 2.1324204, "tags": {"addr:city": "Barcelona", "addr:housenumber": "18", "addr:postcode": "08014", "addr:street": "Carrer de Can Segalar", "amenity": "fast_food", "brand": "The Good Burger", "brand:wikidata": "Q20962086", "cuisine": "burger", "delivery": "yes", "name": "The Good Burger", "short_name": "TGB", "takeaway": "yes"}}, {"type": "node", "id": 8265807596, "lat": 41.3885981, "lon": 2.1323621, "tags": {"addr:city": "Barcelona", "addr:housenumber": "18", "addr:postcode": "08014", "addr:street": "Carrer de Can Segalar", "amenity": "fast_food", "name": "Goiko Grill"}}, {"type": "node", "id": 8287470217, "lat": 41.3983672, "lon": 2.1528847, "tags": {"amenity": "fast_food", "name": "Arepa Ol\u00e9 Street"}}, {"type": "node", "id": 8363548520, "lat": 41.4042263, "lon": 2.1701671, "tags": {"addr:housenumber": "358", "addr:street": "Carrer de Sic\u00edlia", "amenity": "fast_food", "brand": "Papa John's", "brand:wikidata": "Q2759586", "cuisine": "pizza", "name": "Papa John's", "takeaway": "yes"}}, {"type": "node", "id": 8363548521, "lat": 41.4022078, "lon": 2.172431, "tags": {"amenity": "fast_food", "cuisine": "chicken", "name": "Gall Fer", "name:ca": "Gall Fer"}}, {"type": "node", "id": 8363548522, "lat": 41.4019714, "lon": 2.1727472, "tags": {"amenity": "fast_food", "cuisine": "sushi", "name": "Hachiko Sushi"}}, {"type": "node", "id": 8439017220, "lat": 41.4116896, "lon": 2.1752305, "tags": {"addr:housenumber": "238", "addr:street": "Carrer de Sant Antoni Maria Claret", "amenity": "fast_food", "cuisine": "pizza", "name": "Pitstop - pizza portafoglio"}}, {"type": "node", "id": 8545107717, "lat": 41.4018064, "lon": 2.1565713, "tags": {"addr:housenumber": "15", "addr:street": "Pla\u00e7a del Sol", "amenity": "fast_food", "brand": "Oakberry A\u00e7a\u00ed bowls", "brand:wikidata": "Q104870840", "check_date": "2023-11-19", "contact:instagram": "https://www.instagram.com/oakberryes", "cuisine": "a\u00e7a\u00ed", "name": "Oakberry A\u00e7a\u00ed bowls", "strapline": "#respecttheoak", "takeaway": "yes", "wheelchair": "no"}}, {"type": "node", "id": 8573208318, "lat": 41.35783, "lon": 2.1290718, "tags": {"addr:city": "l'Hospitalet de Llobregat", "alt_name": "Kentucky Fried Chicken", "amenity": "fast_food", "brand": "KFC", "brand:wikidata": "Q524757", "brand:wikipedia": "en:KFC", "cuisine": "chicken", "drive_through": "no", "internet_access": "wlan", "internet_access:fee": "no", "name": "KFC", "opening_hours": "Mo-Su 12:00-23:00", "payment:cash": "yes", "payment:credit_cards": "yes", "phone": "+34 93 259 09 79", "takeaway": "yes", "wheelchair": "yes"}}, {"type": "node", "id": 8616068718, "lat": 41.3795697, "lon": 2.1764264, "tags": {"amenity": "fast_food", "name": "t", "name:es": "Teddy\u2019s Barcelona"}}, {"type": "node", "id": 8617201717, "lat": 41.3922453, "lon": 2.1748605, "tags": {"amenity": "fast_food", "name": "the Hip fish poke sushiburrito"}}, {"type": "node", "id": 8694254711, "lat": 41.3948699, "lon": 2.1268216, "tags": {"addr:housenumber": "51", "addr:postcode": "08017", "addr:street": "Passeig de Sant Joan Bosco", "amenity": "fast_food", "cuisine": "pizza", "drive_through": "yes", "name": "Basilico Pizza", "opening_hours": "Tu-Su 19:00-23:00, Sa-Su 12:00-15:30", "phone": "+34 931 280 847", "website": "http://www.basilicopizza.es/"}}, {"type": "node", "id": 8694782596, "lat": 41.3946083, "lon": 2.1257658, "tags": {"addr:city": "Barcelona", "addr:housenumber": "57", "addr:postcode": "08034", "addr:street": "Carrer de Benet Mateu", "amenity": "fast_food", "cuisine": "pizza", "drive_through": "yes", "name": "El Escondite", "opening_hours": "Mo-Su 12:30-16:30,20:00-24:00", "phone": "+34 935 318 962", "website": "http://www.elesconditebarcelona.com/"}}, {"type": "node", "id": 8706851059, "lat": 41.4254817, "lon": 2.1554779, "tags": {"amenity": "fast_food", "cuisine": "kebab"}}, {"type": "node", "id": 8709742444, "lat": 41.4249915, "lon": 2.1558854, "tags": {"amenity": "fast_food", "cuisine": "kebab"}}, {"type": "node", "id": 8722531317, "lat": 41.3997454, "lon": 2.1633582, "tags": {"addr:city": "Barcelona", "addr:housenumber": "391", "addr:street": "Carrer de C\u00f2rsega", "air_conditioning": "yes", "amenity": "fast_food", "check_date": "2024-04-11", "cuisine": "tex-mex", "delivery": "yes", "drive_through": "no", "internet_access": "wlan", "name": "Gonz\u00e1lez & Co", "outdoor_seating": "no", "smoking": "no", "takeaway": "yes", "wheelchair": "yes"}}, {"type": "node", "id": 8726228818, "lat": 41.3738084, "lon": 2.1689979, "tags": {"addr:housenumber": "121", "addr:street": "Carrer Nou de la Rambla", "amenity": "fast_food", "name": "the quick greek"}}, {"type": "node", "id": 8727974200, "lat": 41.3960864, "lon": 2.1526993, "tags": {"addr:housenumber": "Local 6-7", "addr:street": "Passatge Arc\u00e0dia", "amenity": "fast_food", "contact:phone": "+34 93 5183 789", "contact:website": "https://saladmarket.es/", "name": "Salad Market", "opening_hours": "Mo-Fr 08:30-16:00"}}, {"type": "node", "id": 8733141754, "lat": 41.4244817, "lon": 2.1570379, "tags": {"amenity": "fast_food", "cuisine": "kebab"}}, {"type": "node", "id": 8890000637, "lat": 41.3895713, "lon": 2.1835338, "tags": {"addr:housenumber": "2", "addr:street": "Passeig de Llu\u00eds Companys", "amenity": "fast_food", "check_date": "2023-10-28", "cuisine": "kebab;pizza", "diet:halal": "yes", "name": "T\u00fcrk Kebab", "opening_hours": "10:00-01:00", "outdoor_seating": "yes", "phone": "+34 632 16 19 12", "smoking": "outside", "source": "survey", "takeaway": "yes", "wheelchair": "limited"}}, {"type": "node", "id": 9019920988, "lat": 41.4090951, "lon": 2.2164705, "tags": {"amenity": "fast_food", "brand": "Five Guys", "brand:wikidata": "Q1131810", "brand:wikipedia": "en:Five Guys", "cuisine": "burger", "name": "Five Guys", "official_name": "Five Guys Burgers and Fries", "phone": "+34 93 522 21 72", "takeaway": "yes", "website": "https://www.fiveguys.com/"}}, {"type": "node", "id": 9023362418, "lat": 41.3955052, "lon": 2.1923565, "tags": {"amenity": "fast_food", "cuisine": "kebab", "name": "J\u00e9rusalem", "name:ca": "Jerusalem", "name:en": "Jerusalem"}}, {"type": "node", "id": 9023385355, "lat": 41.3918997, "lon": 2.1665775, "tags": {"addr:housenumber": "355", "addr:street": "Carrer de Consell de Cent", "amenity": "fast_food", "brand": "Subway", "brand:wikidata": "Q244457", "cuisine": "sandwich", "name": "Subway", "takeaway": "yes"}}, {"type": "node", "id": 9032868817, "lat": 41.3745499, "lon": 2.1624014, "tags": {"addr:street": "Carrer de Blai", "amenity": "fast_food", "cuisine": "kebab;mediterranean", "diet:vegan": "yes", "diet:vegetarian": "yes", "name": "Perejil bar", "name:es": "Perejil bar - great vegan vegetarian"}}, {"type": "node", "id": 9089519334, "lat": 41.384394, "lon": 2.1827569, "tags": {"amenity": "fast_food", "cuisine": "italian", "name": "Gusto del Born"}}, {"type": "node", "id": 9175029676, "lat": 41.4186895, "lon": 2.139576, "tags": {"amenity": "fast_food", "cuisine": "pizza", "email": "intrigobcn@gmail.com", "name": "InTrigo", "website": "https://www.intrigopizzeria.com/"}}, {"type": "node", "id": 9219409317, "lat": 41.3843336, "lon": 2.1701523, "tags": {"addr:housenumber": "6", "addr:street": "Carrer del Bonsucc\u00e9s", "amenity": "fast_food", "name": "Lady Dumpling"}}, {"type": "node", "id": 9232814496, "lat": 41.3754086, "lon": 2.1898201, "tags": {"amenity": "fast_food", "cuisine": "crepe", "name": "Oh Sea"}}, {"type": "node", "id": 9238234601, "lat": 41.3910173, "lon": 2.1517809, "tags": {"amenity": "fast_food", "cuisine": "empanada", "name": "mimmar"}}, {"type": "node", "id": 9240224985, "lat": 41.3903934, "lon": 2.1772583, "tags": {"amenity": "fast_food", "name": "Mostaza Miel", "takeaway": "yes"}}, {"type": "node", "id": 9241570024, "lat": 41.3854186, "lon": 2.1830762, "tags": {"addr:city": "Barcelona", "addr:housenumber": "27", "addr:postcode": "08003", "addr:street": "Passeig del Born", "amenity": "fast_food", "name": "Dinkel\u2018s Bagels", "old_name": "La Central"}}, {"type": "node", "id": 9263051998, "lat": 41.3978937, "lon": 2.1501066, "tags": {"amenity": "fast_food", "contact:website": "https://www.bostonpizza.es/?l=es", "cuisine": "pizza", "delivery": "yes", "name": "Boston Pizza", "opening_hours": "Mo-Su 13:00-16:00,19:00-24:00", "takeaway": "yes"}}, {"type": "node", "id": 9308126620, "lat": 41.3953941, "lon": 2.1559894, "tags": {"addr:housenumber": "405", "addr:street": "Avinguda Diagonal", "amenity": "fast_food", "brand": "Viena", "brand:wikidata": "Q11954717", "contact:phone": "+34 93 7637 667", "cuisine": "international", "diet:gluten_free": "yes", "name": "Viena", "name:ca": "Viena", "opening_hours": "Mo-Su 08:00-23:00", "website": "https://www.viena.es", "wheelchair": "yes"}}, {"type": "node", "id": 9356061951, "lat": 41.4290732, "lon": 2.2218412, "tags": {"amenity": "fast_food", "name": "Xurreria Zarza"}}, {"type": "node", "id": 9416518811, "lat": 41.4247127, "lon": 2.1418265, "tags": {"amenity": "fast_food", "name": "Xurreria"}}, {"type": "node", "id": 9429021621, "lat": 41.3756415, "lon": 2.1830006, "tags": {"amenity": "fast_food", "brand": "Dunkin' Donuts", "brand:wikidata": "Q847743", "brand:wikipedia": "en:Dunkin' Donuts", "check_date": "2023-04-26", "cuisine": "donut;coffee_shop", "level": "1", "name": "Dunkin' Donuts", "survey:date": "2022-01-18", "takeaway": "yes"}}, {"type": "node", "id": 9431243821, "lat": 41.4050963, "lon": 2.190739, "tags": {"amenity": "fast_food", "cuisine": "coffee_shop", "level": "-1", "name": "Giovanni", "survey:date": "2022-01-19"}}, {"type": "node", "id": 9431244017, "lat": 41.4053897, "lon": 2.1913509, "tags": {"amenity": "fast_food", "cuisine": "coffee_shop", "name": "Secrets", "survey:date": "2022-01-19"}}, {"type": "node", "id": 9438132417, "lat": 41.37904, "lon": 2.1721112, "tags": {"amenity": "fast_food", "name": "Punjab", "survey:date": "2022-11-12"}}, {"type": "node", "id": 9510086053, "lat": 41.3950128, "lon": 2.1525379, "tags": {"amenity": "fast_food", "contact:email": "info@alohapoke.es", "contact:website": "https://www.alohapoke.es/", "cuisine": "international", "name": "Aloha Pok\u00e9", "takeaway": "yes"}}, {"type": "node", "id": 9587334430, "lat": 41.3877299, "lon": 2.1979557, "tags": {"amenity": "fast_food", "brand": "Burger King", "brand:wikidata": "Q177054", "cuisine": "burger", "diet:gluten_free": "yes", "level": "0", "name": "Burger King", "takeaway": "yes"}}, {"type": "node", "id": 9695576853, "lat": 41.3718612, "lon": 2.1267139, "tags": {"addr:city": "Barcelona", "addr:country": "ES", "addr:housenumber": "106", "addr:postcode": "08903", "addr:street": "Carrer Riera Blanca", "amenity": "fast_food", "cuisine": "kebab", "delivery": "yes", "description": "Pizza, kebab", "name": "Pitta hot d\u00f6ner", "phone": "+34 934326836", "takeaway": "yes"}}, {"type": "node", "id": 9695608433, "lat": 41.3714576, "lon": 2.1273451, "tags": {"addr:city": "HOSPITALET DE LLOBREGAT", "addr:country": "ES", "addr:housenumber": "112", "addr:postcode": "08903", "addr:street": "Carrer Riera Blanca", "amenity": "fast_food", "brand": "Telepizza", "brand:wikidata": "Q2699863", "cuisine": "pizza", "delivery": "yes", "name": "Telepizza", "opening_hours": "Mo-Th 13:00-16:00,19:00-23:30;Fr-Su 13:00-23:59", "phone": "+34 934324409", "takeaway": "yes", "website": "https://www.telepizza.es/pizzeria/barcelona/hospitalet-de-llobregat/hospitalet-i-00070"}}, {"type": "node", "id": 9726765338, "lat": 41.3869017, "lon": 2.1599613, "tags": {"addr:housenumber": "257", "addr:street": "Carrer del Consell de Cent", "amenity": "fast_food", "cuisine": "burger", "name": "Burger World", "opening_hours": "Mo-Su 12:00-01:00"}}, {"type": "node", "id": 9741158517, "lat": 41.386737, "lon": 2.1567554, "tags": {"addr:housenumber": "91", "addr:street": "Carrer de Casanova", "amenity": "fast_food", "cuisine": "fish_and_chips", "diet:gluten_free": "only", "email": "info@thefishandchipsshop.es", "name": "The Fish & Chips Shop", "name:ca": "The Fish & Chips Shop Gluten Free", "name:en": "The Fish & Chips Shop Gluten Free", "name:es": "The Fish & Chips Shop Gluten Free", "website": "https://thefishandchipsshop.es/"}}, {"type": "node", "id": 9769042717, "lat": 41.4198213, "lon": 2.1969148, "tags": {"amenity": "fast_food", "cuisine": "churro", "takeaway": "yes"}}, {"type": "node", "id": 9799248117, "lat": 41.3900011, "lon": 2.1439157, "tags": {"amenity": "fast_food", "name": "SandwiChez", "opening_hours": "Mo-Su 07:15-21:00", "shop": "bakery"}}, {"type": "node", "id": 9801996317, "lat": 41.389317, "lon": 2.1495068, "tags": {"amenity": "fast_food", "cuisine": "german", "name": "El sot frankfurt", "name:ca": "El sot frankfurt", "name:es": "El sot frankfurt"}}, {"type": "node", "id": 9806849918, "lat": 41.3659682, "lon": 2.136604, "tags": {"addr:city": "Barcelona", "addr:postcode": "08014", "amenity": "fast_food", "brand": "Papa John's", "brand:wikidata": "Q2759586", "cuisine": "pizza", "name": "Papa John's", "phone": "+34 936845441", "takeaway": "yes"}}, {"type": "node", "id": 9807040018, "lat": 41.376501, "lon": 2.1461272, "tags": {"amenity": "fast_food", "name:en": "Ali kebabish pizzeria"}}, {"type": "node", "id": 9820181518, "lat": 41.3947598, "lon": 2.1504339, "tags": {"amenity": "fast_food", "name:en": "Poke House"}}, {"type": "node", "id": 9825318918, "lat": 41.3887479, "lon": 2.1309127, "tags": {"amenity": "fast_food", "brand": "McDonald's", "brand:wikidata": "Q38076", "cuisine": "burger", "name": "McDonald's", "name:en": "McDonald's", "takeaway": "yes"}}, {"type": "node", "id": 9825334117, "lat": 41.3886385, "lon": 2.1304596, "tags": {"amenity": "fast_food", "name": "Five Guys", "name:en": "Five Guys"}}, {"type": "node", "id": 9825433419, "lat": 41.3940103, "lon": 2.1464873, "tags": {"amenity": "fast_food", "name:en": "Sandwichez"}}, {"type": "node", "id": 9851030018, "lat": 41.3827499, "lon": 2.1428006, "tags": {"amenity": "fast_food", "cuisine": "burger;hot_dog", "name:en": "Gaby's hot dogs"}}, {"type": "node", "id": 9851052117, "lat": 41.3839267, "lon": 2.1407561, "tags": {"addr:housenumber": "58", "addr:street": "Carrer de Berl\u00edn", "amenity": "fast_food", "name": "Al Paso"}}, {"type": "node", "id": 9855324417, "lat": 41.3896183, "lon": 2.1602031, "tags": {"amenity": "fast_food", "cuisine": "ramen", "name:en": "Kame house"}}, {"type": "node", "id": 9862174219, "lat": 41.378551, "lon": 2.1909562, "tags": {"amenity": "fast_food", "cuisine": "empanada", "name": "La Fabrica - empanadas argentinas"}}, {"type": "node", "id": 9866224405, "lat": 41.3761745, "lon": 2.1556178, "tags": {"addr:city": "Barcelona", "addr:postcode": "08015", "addr:street": "Carrer de Floridablanca", "amenity": "fast_food", "drive_through": "no", "name": "Ja.2 C."}}, {"type": "node", "id": 9875919117, "lat": 41.3812913, "lon": 2.1346413, "tags": {"amenity": "fast_food", "name": "Xurreria Malu", "takeaway": "yes"}}, {"type": "node", "id": 9876449240, "lat": 41.3865483, "lon": 2.161596, "tags": {"addr:city": "barcelona", "addr:country": "ES", "addr:housenumber": "207", "addr:postcode": "08011", "addr:street": "Carrer de la Diputaci\u00f3", "amenity": "fast_food", "cuisine": "empanada;argentinian", "name": "La F\u00e1brica"}}, {"type": "node", "id": 9878887095, "lat": 41.3807483, "lon": 2.1712262, "tags": {"addr:housenumber": "46", "addr:street": "Carrer de L'Hopital", "amenity": "fast_food", "cuisine": "italian", "name": "Bojo"}}, {"type": "node", "id": 9879536277, "lat": 41.382146, "lon": 2.1726322, "tags": {"addr:housenumber": "96", "addr:street": "La Rambla", "amenity": "fast_food", "brand": "Taco Bell", "brand:website": "www.tacobell.es", "brand:wikidata": "Q752941", "cuisine": "tex-mex", "internet_access": "wlan", "name": "Taco Bell", "name:ca": "Taco Bell", "opening_hours": "Mo-Th 11:00-00:00; Fr, Sa 11:00-01:00; Su 11:00-00:00", "phone": "+34661553312", "takeaway": "yes", "wheelchair": "yes"}}, {"type": "node", "id": 9880336355, "lat": 41.3770917, "lon": 2.1568472, "tags": {"addr:city": "Barcelona", "addr:postcode": "08015", "addr:street": "Carrer de Floridablanca", "amenity": "fast_food", "drive_through": "no"}}, {"type": "node", "id": 9957805317, "lat": 41.3750255, "lon": 2.1477276, "tags": {"addr:city": "Barcelona", "addr:postcode": "08014", "amenity": "fast_food", "name:en": "Mustafa's Gem\u00fcse Kebap"}}, {"type": "node", "id": 9977397108, "lat": 41.3812154, "lon": 2.1751888, "tags": {"amenity": "fast_food", "brand": "Taco Bell", "brand:wikidata": "Q752941", "cuisine": "tex-mex", "name": "Taco Bell", "name:ca": "Taco Bell", "takeaway": "yes"}}, {"type": "node", "id": 10003698936, "lat": 41.3765611, "lon": 2.1844098, "tags": {"access": "customers", "amenity": "fast_food", "internet_access": "wlan", "internet_access:fee": "no", "level": "1", "operator": "Leisure Land, S.L."}}, {"type": "node", "id": 10078387484, "lat": 41.4300028, "lon": 2.1611846, "tags": {"amenity": "fast_food", "cuisine": "pizza", "name": "A tavola!", "opening_hours": "Mo-Fr 13:00-16:00, 20:00-23:00; Sa 13:30-16:00, 20:00-00:00; Su off"}}, {"type": "node", "id": 10169723805, "lat": 41.3892588, "lon": 2.1797139, "tags": {"addr:housenumber": "4", "addr:postcode": "08003", "addr:street": "Carrer del Rec Comtal", "amenity": "fast_food", "contact:instagram": "lesduesiciliesbcn", "cuisine": "pizza", "name": "Dues Sicilies", "opening_hours": "Mo-Th 09:00-23:00, Fr 09:00-24:00, Sa 09:30-24:00, Su 09:30-23:00", "payment:credit_cards": "yes", "payment:debit_cards": "yes", "phone": "+34930165258", "website:menu": "https://delivery.lesduesiciliesbcn.com/reccomtal"}}, {"type": "node", "id": 10171220427, "lat": 41.3782938, "lon": 2.1902743, "tags": {"amenity": "fast_food", "cuisine": "empanada;pizza", "name": "KUK"}}, {"type": "node", "id": 10171304747, "lat": 41.3789009, "lon": 2.1915976, "tags": {"amenity": "fast_food", "cuisine": "fish_and_chips", "name": "Fish And Chips"}}, {"type": "node", "id": 10171968489, "lat": 41.3888661, "lon": 2.1792287, "tags": {"addr:city": "Barcelona", "addr:housenumber": "73", "addr:postcode": "08003", "addr:street": "Carrer de Sant Pere M\u00e9s Baix", "amenity": "fast_food", "cuisine": "empanada", "name": "Empanada Club", "website": "https://empanadaclub.es/"}}, {"type": "node", "id": 10171968491, "lat": 41.3888258, "lon": 2.1793496, "tags": {"amenity": "fast_food", "cuisine": "pizza;ice_cream", "name": "Violeta\u2018s", "old_name": "La Gula Argentina"}}, {"type": "node", "id": 10174499741, "lat": 41.386269, "lon": 2.1817253, "tags": {"amenity": "fast_food", "check_date": "2023-10-29", "name": "Pizza Pazza"}}, {"type": "node", "id": 10175608488, "lat": 41.4041501, "lon": 2.1566312, "tags": {"amenity": "fast_food", "check_date": "2023-10-14", "cuisine": "empanada", "name": "Tio Bigotes", "wheelchair": "yes"}}, {"type": "node", "id": 10175645447, "lat": 41.4025247, "lon": 2.1580697, "tags": {"addr:postcode": "08012", "amenity": "fast_food", "check_date": "2023-11-05", "cuisine": "local;spanish", "diet:vegan": "yes", "diet:vegetarian": "yes", "name": "Descuina\u2018t", "name:ca": "Descuina\u2018t", "name:en": "Descuina\u2018t", "name:es": "Descuina\u2018t", "name:fr": "Descuina\u2018t", "wheelchair": "no"}}, {"type": "node", "id": 10176529193, "lat": 41.3886892, "lon": 2.1791207, "tags": {"amenity": "fast_food", "cuisine": "pizza", "name": "Fella", "opening_hours": "We-Sa 12:00-21:00"}}, {"type": "node", "id": 10202586417, "lat": 41.3889023, "lon": 2.1719704, "tags": {"amenity": "fast_food", "branch": "Luisana kitchen", "brand": "Popeyes", "brand:wikidata": "Q1330910", "cuisine": "chicken", "indoor_seating": "yes", "name": "Popeyes", "official_name": "Popeyes Louisiana Kitchen", "outdoor_seating": "no", "takeaway": "yes"}}, {"type": "node", "id": 10243344509, "lat": 41.3809866, "lon": 2.1751068, "tags": {"amenity": "fast_food", "cuisine": "kebab", "name": "Mustafa's"}}, {"type": "node", "id": 10243372510, "lat": 41.379321, "lon": 2.1732584, "tags": {"amenity": "fast_food", "name": "Frenchy Tacos", "survey:date": "2022-12-06"}}, {"type": "node", "id": 10245543710, "lat": 41.3780774, "lon": 2.170575, "tags": {"amenity": "fast_food", "cuisine": "kebab", "name": "Snack Nador", "survey:date": "2022-12-07"}}, {"type": "node", "id": 10245543711, "lat": 41.3782337, "lon": 2.1703768, "tags": {"amenity": "fast_food", "cuisine": "chicken", "name": "Crispy Chicken", "survey:date": "2022-12-07"}}, {"type": "node", "id": 10245543811, "lat": 41.3778236, "lon": 2.1698667, "tags": {"amenity": "fast_food", "cuisine": "kebab", "name": "Bobo", "survey:date": "2022-12-07"}}, {"type": "node", "id": 10245561609, "lat": 41.377995, "lon": 2.1696522, "tags": {"amenity": "fast_food", "cuisine": "kebab", "name": "Istanbul Andana Kebab"}}, {"type": "node", "id": 10245561610, "lat": 41.3776196, "lon": 2.1701174, "tags": {"amenity": "fast_food", "cuisine": "kebab", "name": "Al Andalus", "survey:date": "2022-12-07"}}, {"type": "node", "id": 10245561709, "lat": 41.3779188, "lon": 2.1697313, "tags": {"amenity": "fast_food", "name": "Kashmir Pa"}}, {"type": "node", "id": 10245562809, "lat": 41.3780986, "lon": 2.1695415, "tags": {"amenity": "fast_food", "cuisine": "kebab", "name": "Istambul Kebab", "survey:date": "2022-12-07"}}, {"type": "node", "id": 10245562909, "lat": 41.3781212, "lon": 2.1695121, "tags": {"amenity": "fast_food", "cuisine": "kebab", "name": "Bocateria", "survey:date": "2022-12-07"}}, {"type": "node", "id": 10245562910, "lat": 41.377741, "lon": 2.1699576, "tags": {"amenity": "fast_food", "cuisine": "kebab", "name": "El Atlas", "survey:date": "2022-12-07"}}, {"type": "node", "id": 10250744588, "lat": 41.3870601, "lon": 2.1682085, "tags": {"addr:housenumber": "24", "addr:street": "Ronda de la Universitat", "alt_name": "Kentucky Fried Chicken", "amenity": "fast_food", "brand": "KFC", "brand:wikidata": "Q524757", "check_date": "2023-04-25", "cuisine": "chicken", "name": "KFC", "survey:date": "2022-12-10", "takeaway": "yes"}}, {"type": "node", "id": 10261182660, "lat": 41.4112838, "lon": 2.2175389, "tags": {"amenity": "fast_food"}}, {"type": "node", "id": 10572779410, "lat": 41.3832518, "lon": 2.1823366, "tags": {"addr:housenumber": "10", "addr:postcode": "08003", "addr:street": "Carrer d'Espaseria", "amenity": "fast_food", "cuisine": "american;burger", "name": "Acero", "opening_hours": "Tu-Su 13:00-16:00, 19:30-23:00", "phone": "+34931061225"}}, {"type": "node", "id": 10572779414, "lat": 41.3907652, "lon": 2.1403095, "tags": {"addr:postcode": "08029", "amenity": "fast_food", "cuisine": "american;burger", "name:en": "Folks Burgers"}}, {"type": "node", "id": 10586977217, "lat": 41.3542943, "lon": 2.1180523, "tags": {"amenity": "fast_food", "cuisine": "hot_dog", "name": "Cerveseria Frankfurt"}}, {"type": "node", "id": 10652472457, "lat": 41.3846315, "lon": 2.1624217, "tags": {"amenity": "fast_food", "cuisine": "empanada", "name": "Empanada Club", "opening_hours": "Mo-We 12:00-22:00; Th 12:00-22:30; Fr, Sa 12:00-00:00; Su 12:00-23:00"}}, {"type": "node", "id": 10657385302, "lat": 41.4074036, "lon": 2.1742194, "tags": {"amenity": "fast_food", "cuisine": "crepe", "level": "0", "name": "Creps Barcelona"}}, {"type": "node", "id": 10706707135, "lat": 41.3854897, "lon": 2.1138243, "tags": {"amenity": "fast_food", "fast_food": "cafeteria", "name": "Cafeteria Facultat d'Economia 690", "opening_hours": "Mo-Su 07:45-20:30", "website": "http://restaurantesuniversitas.com/horarios-verano-nuestras-cafeterias-barcelona/"}}, {"type": "node", "id": 10728023605, "lat": 41.3890169, "lon": 2.1951631, "tags": {"addr:housenumber": "24", "addr:postcode": "08005", "addr:street": "Carrer de la Marina", "amenity": "fast_food", "check_date": "2024-03-23", "cuisine": "churro", "name": "Xurreria Les Palmeres", "name:ca": "Xurreria Les Palmeres", "name:es": "Churrer\u00eda Las Palmeras", "opening_hours": "Tu-Fr 08:00-13:45, 16:00-20:00; Sa 08:00-15:00, 17:00-21:00; Su 08:00-15:00, 17:00-20:30", "phone": "+34 932211651", "website": "https://churrerialaspalmeras.com"}}, {"type": "node", "id": 10739213410, "lat": 41.4011995, "lon": 2.1610254, "tags": {"addr:housenumber": "30", "addr:street": "Carrer de Tordera", "amenity": "fast_food", "check_date": "2023-11-15", "contact:instagram": "milanesabarcelona", "contact:mobile": "+34633755599", "contact:whatsapp": "+34633755599", "cuisine": "regional;hot_dog;sandwich", "delivery": "yes", "drive_through": "no", "email": "milanesabercelona@gmail.com", "internet_access": "no", "name": "Milanesa Barcelona", "opening_hours": "12:30-16:30,19:00-24:00", "outdoor_seating": "no", "takeaway": "only", "website": "https://www.milanesabarcelona.com", "wheelchair": "yes"}}, {"type": "node", "id": 10753245605, "lat": 41.3934495, "lon": 2.1453455, "tags": {"addr:housenumber": "1", "addr:postcode": "08021", "addr:street": "Travessera de Gr\u00e0cia", "amenity": "fast_food", "level": "0", "name": "Tasty Poke"}}, {"type": "node", "id": 10763427299, "lat": 41.4046171, "lon": 2.1734308, "tags": {"amenity": "fast_food", "cuisine": "pizza", "name": "Can Pizza"}}, {"type": "node", "id": 10763981524, "lat": 41.3826, "lon": 2.1853399, "tags": {"addr:city": "Barcelona", "addr:housenumber": "13", "addr:postcode": "08003", "addr:street": "Pla\u00e7a de Pau Vila", "amenity": "fast_food", "brand": "McDonald's", "brand:wikidata": "Q38076", "check_date": "2023-03-26", "cuisine": "burger", "drive_through": "no", "name": "McDonald's", "operator": "Viloneta S.L.U.", "phone": "+34932684041", "takeaway": "yes"}}, {"type": "node", "id": 10771424155, "lat": 41.3856874, "lon": 2.1660628, "tags": {"amenity": "fast_food", "brand": "Viena", "brand:wikidata": "Q11954717", "diet:gluten_free": "yes", "indoor_seating": "yes", "name": "Viena", "name:ca": "Viena", "opening_hours": "Mo-Su 08:00-23:00; PH 08:00-23:00", "outdoor_seating": "no", "website": "https://www.viena.es", "wheelchair": "limited"}}, {"type": "node", "id": 10780364141, "lat": 41.3736682, "lon": 2.1688262, "tags": {"amenity": "fast_food", "name": "A la turca"}}, {"type": "node", "id": 10780375108, "lat": 41.3751538, "lon": 2.168968, "tags": {"amenity": "fast_food", "name": "El Capricho Bcn"}}, {"type": "node", "id": 10780388730, "lat": 41.374747, "lon": 2.1664399, "tags": {"alt_name": "Kentucky Fried Chicken", "amenity": "fast_food", "brand": "KFC", "brand:wikidata": "Q524757", "cuisine": "chicken", "name": "KFC", "takeaway": "yes"}}, {"type": "node", "id": 10780391335, "lat": 41.3747712, "lon": 2.1645903, "tags": {"amenity": "fast_food", "cuisine": "kebab", "name": "Efsene Istambul"}}, {"type": "node", "id": 10782564425, "lat": 41.3779559, "lon": 2.1637779, "tags": {"amenity": "fast_food", "name": "Casa Elena"}}, {"type": "node", "id": 10784135590, "lat": 41.39621, "lon": 2.1803338, "tags": {"amenity": "fast_food", "brand": "Domino's", "brand:wikidata": "Q839466", "cuisine": "pizza", "name": "Domino's", "takeaway": "yes", "website": "https://www.dominospizza.es"}}, {"type": "node", "id": 10853242778, "lat": 41.3892222, "lon": 2.1512327, "tags": {"amenity": "fast_food", "brand": "McDonald's", "brand:wikidata": "Q38076", "cuisine": "burger", "name": "McDonald's", "takeaway": "yes"}}, {"type": "node", "id": 10857736708, "lat": 41.3830992, "lon": 2.1796352, "tags": {"amenity": "fast_food", "check_date": "2023-04-30", "cuisine": "burger", "name": "Goiko"}}, {"type": "node", "id": 10870244217, "lat": 41.4267731, "lon": 2.2099027}, {"type": "node", "id": 10870244218, "lat": 41.4267392, "lon": 2.2099708}, {"type": "node", "id": 10891838355, "lat": 41.3947465, "lon": 2.1552437, "tags": {"addr:housenumber": "165", "addr:street": "Carrer de Balmes", "amenity": "fast_food", "check_date": "2023-05-12", "cuisine": "burger", "drive_through": "no", "internet_access": "wlan", "internet_access:fee": "no", "name": "Machaka", "payment:mastercard": "yes", "payment:visa": "yes", "wheelchair": "yes"}}, {"type": "node", "id": 10928029557, "lat": 41.4001987, "lon": 2.1511786, "tags": {"amenity": "fast_food", "mobile": "+34 657 35 58 75", "name": "La Gallina Presumida", "opening_hours": "Mo-Fr 10:00-20:00; Sa,Su,PH 10:00-15:00", "phone": "+34 930 16 63 31", "website": "https://lagallinapresumida.com/"}}, {"type": "node", "id": 10979353516, "lat": 41.3833312, "lon": 2.1461881, "tags": {"amenity": "fast_food", "cuisine": "burger", "name": "El Barrio"}}, {"type": "node", "id": 11004081215, "lat": 41.3906756, "lon": 2.1982904, "tags": {"amenity": "fast_food", "check_date": "2023-05-27", "cuisine": "kebab", "name": "Kebab House"}}, {"type": "node", "id": 11042882947, "lat": 41.3981732, "lon": 2.168721, "tags": {"amenity": "fast_food", "fast_food": "cafeteria", "name": "Cafeteria los 4 vientos"}}, {"type": "node", "id": 11047920876, "lat": 41.3907135, "lon": 2.1581589, "tags": {"amenity": "fast_food", "check_date": "2024-12-13", "name": "La gula argentina"}}, {"type": "node", "id": 11103287405, "lat": 41.3753278, "lon": 2.145158, "tags": {"amenity": "fast_food", "cuisine": "pizza", "indoor_seating": "yes", "name": "La Pizza Loca", "outdoor_seating": "yes", "wheelchair": "yes"}}, {"type": "node", "id": 11103300703, "lat": 41.3753119, "lon": 2.1461051, "tags": {"amenity": "fast_food", "cuisine": "kebab", "diet:halal": "yes", "name": "Marhaba D\u00f6ner Kebab"}}, {"type": "node", "id": 11134653457, "lat": 41.3998896, "lon": 2.1575413, "tags": {"amenity": "fast_food", "check_date": "2024-10-27", "cuisine": "regional;empanada;pizza;sandwich", "diet:vegan": "yes", "diet:vegetarian": "yes", "indoor_seating": "no", "name": "La Gula Argentina", "outdoor_seating": "no", "payment:contactless": "yes", "payment:credit_cards": "no", "payment:mastercard": "yes", "payment:visa": "yes", "takeaway": "only"}}, {"type": "node", "id": 11150230219, "lat": 41.3995979, "lon": 2.1555917, "tags": {"amenity": "fast_food", "cuisine": "empanada", "name": "Empanada Club"}}, {"type": "node", "id": 11150234665, "lat": 41.3988829, "lon": 2.1564656, "tags": {"amenity": "fast_food", "brand": "Telepizza", "brand:wikidata": "Q2699863", "cuisine": "pizza", "name": "Telepizza", "takeaway": "yes"}}, {"type": "node", "id": 11161663612, "lat": 41.4009771, "lon": 2.157159, "tags": {"addr:housenumber": "2", "addr:street": "Carrer dels Xiquets de Valls", "amenity": "fast_food", "check_date": "2024-02-22", "cuisine": "pizza", "diet:vegan": "yes", "diet:vegetarian": "yes", "name": "Alfredo"}}, {"type": "node", "id": 11171619860, "lat": 41.388035, "lon": 2.1725531, "tags": {"alt_name": "Kentucky Fried Chicken", "amenity": "fast_food", "brand": "KFC", "brand:wikidata": "Q524757", "cuisine": "chicken", "indoor_seating": "yes", "name": "KFC", "outdoor_seating": "no", "takeaway": "yes"}}, {"type": "node", "id": 11174575152, "lat": 41.4019445, "lon": 2.1886075, "tags": {"addr:city": "Barcelona", "addr:housenumber": "14", "addr:street": "Carrer d'Irena Sendler", "air_conditioning": "yes", "amenity": "fast_food", "check_date": "2024-09-09", "cuisine": "burrito", "delivery": "yes", "drive_through": "no", "name": "Tierra Burrito Bar", "outdoor_seating": "yes", "payment:cash": "yes", "payment:credit_cards": "yes", "payment:debit_cards": "yes", "takeaway": "yes"}}, {"type": "node", "id": 11207649180, "lat": 41.381624, "lon": 2.1645494, "tags": {"amenity": "fast_food", "diet:kosher": "no", "internet_access": "wlan", "name": "The Bagel Hood", "outdoor_seating": "no", "takeaway": "yes", "toilets": "yes"}}, {"type": "node", "id": 11238211892, "lat": 41.3984307, "lon": 2.1616474, "tags": {"addr:housenumber": "351-355", "addr:street": "Carrer de C\u00f2rsega", "amenity": "fast_food", "check_date": "2024-11-13", "cuisine": "argentinian;pizza;sandwich;empanada", "drive_through": "no", "name": "La Gula Argentina", "takeaway": "only", "wheelchair": "no"}}, {"type": "node", "id": 11255866902, "lat": 41.3962146, "lon": 2.1572315, "tags": {"addr:housenumber": "460", "addr:postcode": "08001", "addr:street": "Avinguda Diagonal", "air_conditioning": "yes", "alt_name": "Kentucky Fried Chicken", "amenity": "fast_food", "brand": "KFC", "brand:wikidata": "Q524757", "check_date": "2023-10-11", "cuisine": "chicken", "diet:vegetarian": "yes", "indoor_seating": "yes", "internet_access": "wlan", "name": "KFC", "outdoor_seating": "yes", "takeaway": "yes", "wheelchair": "yes"}}, {"type": "node", "id": 11255942523, "lat": 41.3993102, "lon": 2.1568325, "tags": {"addr:housenumber": "6", "addr:street": "Carrer de Goya", "amenity": "fast_food", "check_date": "2023-10-11", "cuisine": "pizza", "name": "Pizza Circus", "payment:cash": "yes", "payment:mastercard": "yes", "payment:visa": "yes", "wheelchair": "yes"}}, {"type": "node", "id": 11266526896, "lat": 41.4100678, "lon": 2.2152306, "tags": {"amenity": "fast_food", "cuisine": "kebab", "level": "1", "level:ref": "3", "name": "Natural Kebab"}}, {"type": "node", "id": 11266526899, "lat": 41.4098577, "lon": 2.2152662, "tags": {"alt_name": "Kentucky Fried Chicken", "amenity": "fast_food", "brand": "KFC", "brand:wikidata": "Q524757", "cuisine": "chicken", "level": "1", "level:ref": "3", "name": "KFC", "phone": "+3493 356 33 58", "takeaway": "yes", "website": "https://www.kfc.es/"}}, {"type": "node", "id": 11266526902, "lat": 41.4094623, "lon": 2.2156905, "tags": {"amenity": "fast_food", "cuisine": "burger", "level": "1", "level:ref": "3", "name": "Goiko", "phone": "+3493 737 82 65", "website": "https://www.goiko.com"}}, {"type": "node", "id": 11266526931, "lat": 41.4099269, "lon": 2.2159339, "tags": {"amenity": "fast_food", "brand": "Pollo Campero", "brand:wikidata": "Q942741", "cuisine": "chicken", "level": "1", "level:ref": "3", "name": "Pollo Campero", "phone": "+3493 356 35 45", "takeaway": "yes", "website": "https://campero.es/"}}, {"type": "node", "id": 11266526932, "lat": 41.4098923, "lon": 2.2157326, "tags": {"amenity": "fast_food", "brand": "Dunkin' Coffee", "brand:wikidata": "Q847743", "cuisine": "donut;coffee_shop", "level": "1", "level:ref": "3", "name": "Dunkin' Coffee", "phone": "+3493 356 04 29", "takeaway": "yes", "website": "https://www.dunkin.es/"}}, {"type": "node", "id": 11266526933, "lat": 41.4098613, "lon": 2.215663, "tags": {"amenity": "fast_food", "cuisine": "juice", "level": "1", "level:ref": "3", "name": "Smudy Juice Bar", "phone": "+3493 356 31 91", "website": "https://www.smudyjuicebar.com/"}}, {"type": "node", "id": 11266526935, "lat": 41.409989, "lon": 2.2155539, "tags": {"amenity": "fast_food", "cuisine": "hot_dog", "level": "1", "level:ref": "3", "name": "Frankfurt\u2019s Original", "phone": "+3493 157 73 41", "website": "https://www.frankfurtsoriginal.es/"}}, {"type": "node", "id": 11266526936, "lat": 41.4101124, "lon": 2.2154448, "tags": {"amenity": "fast_food", "brand": "Taco Bell", "brand:wikidata": "Q752941", "cuisine": "tex-mex", "level": "1", "level:ref": "3", "name": "Taco Bell", "phone": "+3466 141 61 99", "takeaway": "yes", "website": "https://tacobell.es/"}}, {"type": "node", "id": 11291166631, "lat": 41.4012099, "lon": 2.1221571, "tags": {"amenity": "fast_food", "contact:instagram": "@xurreriasarria", "cuisine": "churro", "drive_through": "no", "name": "Xurreria Sarri\u00e0", "phone": "+34691541303"}}, {"type": "node", "id": 11296083225, "lat": 41.3984332, "lon": 2.1598151, "tags": {"addr:housenumber": "21", "addr:street": "Carrer de Bonavista", "amenity": "fast_food", "check_date": "2023-10-28", "cuisine": "burger;american", "drive_through": "no", "name": "Rock & Boom", "outdoor_seating": "no", "payment:cash": "yes", "payment:mastercard": "yes", "payment:visa": "yes", "takeaway": "yes", "wheelchair": "no"}}, {"type": "node", "id": 11296106616, "lat": 41.3988547, "lon": 2.1600938, "tags": {"addr:housenumber": "3", "addr:postcode": "08012", "addr:street": "Carrer de Mart\u00ednez de la Rosa", "amenity": "fast_food", "check_date": "2023-10-28", "cuisine": "burger", "delivery": "yes", "drive_through": "no", "name": "Taima", "opening_hours": "We-Mo 13:30-16:00, 19:30-23:00", "outdoor_seating": "no", "phone": "+34 936 04 79 03", "source": "survey", "takeaway": "only"}}, {"type": "node", "id": 11298123916, "lat": 41.3867702, "lon": 2.1812754, "tags": {"amenity": "fast_food", "check_date": "2023-10-29", "cuisine": "pizza", "diet:vegan": "only", "diet:vegetarian": "only", "name": "El Vato Loco"}}, {"type": "node", "id": 11298123917, "lat": 41.3867217, "lon": 2.181327, "tags": {"amenity": "fast_food", "check_date": "2023-10-29", "cuisine": "sushi;japanese", "drive_through": "no", "internet_access": "wlan", "internet_access:fee": "no", "name": "Sushi Wai Mai", "takeaway": "only"}}, {"type": "node", "id": 11299458975, "lat": 41.390619, "lon": 2.1340528, "tags": {"amenity": "fast_food", "name": "Mosbo"}}, {"type": "node", "id": 11299458976, "lat": 41.3899245, "lon": 2.1357448, "tags": {"amenity": "fast_food", "name": "Las Muns"}}, {"type": "node", "id": 11308435592, "lat": 41.4003218, "lon": 2.1645827, "tags": {"amenity": "fast_food", "check_date": "2023-11-02", "cuisine": "empanada;argentinian", "name": "criollo"}}, {"type": "node", "id": 11309736892, "lat": 41.3962588, "lon": 2.1723022, "tags": {"addr:housenumber": "421", "addr:street": "Carrer del Consell de Cent", "amenity": "fast_food", "check_date": "2023-11-15", "description": "hamburguesa", "name": "Machaka Burger", "opening_hours": "Mo-Th 13:00-17:00, 19:30-22:30; Fr 13:00-16:00, 19:30-23:30; Sa 13:00-17:00, 19:30-23:30", "phone": "+34 937155599", "website": "machakaburger.es"}}, {"type": "node", "id": 11323368062, "lat": 41.4032849, "lon": 2.1557543, "tags": {"addr:housenumber": "131", "addr:street": "Carrer del Torrent de l'Olla", "amenity": "fast_food", "check_date": "2023-11-05", "cuisine": "sushi", "delivery": "yes", "drive_through": "no", "highchair": "yes", "name": "La Uramaker\u00eda", "outdoor_seating": "no", "takeaway": "yes"}}, {"type": "node", "id": 11328012310, "lat": 41.4024823, "lon": 2.1581022, "tags": {"amenity": "fast_food", "check_date": "2023-11-05", "cuisine": "pizza", "name": "Fet a M\u00e0", "takeaway": "only", "wheelchair": "yes"}}, {"type": "node", "id": 11328030181, "lat": 41.4045185, "lon": 2.1575667, "tags": {"addr:housenumber": "53", "addr:postcode": "08012", "addr:street": "Carrer de Torrijos", "amenity": "fast_food", "check_date": "2023-11-05", "contact:instagram": "pappaepizza.bcn", "cuisine": "pizza", "name": "Pappa Pizza", "takeaway": "only", "wheelchair": "yes"}}, {"type": "node", "id": 11343870481, "lat": 41.4038731, "lon": 2.1584159, "tags": {"addr:housenumber": "50", "addr:street": "Carrer de Torrijos", "amenity": "fast_food", "check_date": "2023-11-12", "cuisine": "mexican", "drive_through": "no", "name": "La Antigua de M\u00e9xico", "opening_hours": "Mo-Fr 11:00-22:00; Sa-Su 13:00-22:00", "outdoor_seating": "no", "self_service": "only", "wheelchair": "no"}}, {"type": "node", "id": 11343871961, "lat": 41.4032727, "lon": 2.1586244, "tags": {"addr:housenumber": "30", "addr:street": "Carrer de Terol", "amenity": "fast_food", "check_date": "2024-10-20", "cuisine": "pizza;cuban", "internet_access": "wlan", "internet_access:fee": "customers", "name": "La Cukita", "payment:cash": "yes", "payment:mastercard": "yes", "payment:visa": "yes", "phone": "+34 602 52 78 46", "wheelchair": "yes"}}, {"type": "node", "id": 11346156657, "lat": 41.3738898, "lon": 2.1362535, "tags": {"addr:city": "Barcelona", "addr:country": "ES", "addr:housenumber": "16", "addr:postcode": "08014", "addr:street": "Carrer d'Olzinelles", "amenity": "fast_food", "cuisine": "kebab", "delivery": "yes", "mobile": "+34 612 54 99 40", "name": "BCN doner kebab y pizzeria", "takeaway": "yes"}}, {"type": "node", "id": 11352239188, "lat": 41.388332, "lon": 2.176626, "tags": {"amenity": "fast_food", "cuisine": "empanada", "name": "Tio Bigotes"}}, {"type": "node", "id": 11355546917, "lat": 41.4041782, "lon": 2.1555336, "tags": {"amenity": "fast_food", "cuisine": "greek", "name": "The Quick Greek"}}, {"type": "node", "id": 11355825313, "lat": 41.3964697, "lon": 2.164008, "tags": {"amenity": "fast_food", "cuisine": "sandwich", "name": "Sandwicherie"}}, {"type": "node", "id": 11355856797, "lat": 41.3934619, "lon": 2.1682278, "tags": {"amenity": "fast_food", "cuisine": "empanada", "name": "To Bigotes"}}, {"type": "node", "id": 11359142729, "lat": 41.3797103, "lon": 2.1877661, "tags": {"amenity": "fast_food", "brand": "Taco Bell", "brand:wikidata": "Q752941", "cuisine": "tex-mex", "name": "Taco Bell", "takeaway": "yes"}}, {"type": "node", "id": 11360067478, "lat": 41.4012877, "lon": 2.1860013, "tags": {"amenity": "fast_food", "check_date": "2023-11-18", "fast_food": "cafeteria", "level": "0", "name": "El Mirall dels Encants", "outdoor_seating": "yes", "wheelchair": "yes"}}, {"type": "node", "id": 11414570262, "lat": 41.3938014, "lon": 2.1461695, "tags": {"alt_name": "Empanadas Argentinas Malv\u00f3n", "amenity": "fast_food", "brand": "Malv\u00f3n", "brand:wikidata": "Q109877196", "email": "travesseradegracia@malvon.es", "instagram": "https://www.instagram.com/empanadasmalvon", "name": "Malv\u00f3n", "opening_hours": "Mo-Su 11:00-23:00", "phone": "+34 933 12 69 06", "website": "https://www.malvon.es"}}, {"type": "node", "id": 11414601309, "lat": 41.394896, "lon": 2.1637595, "tags": {"amenity": "fast_food", "contact:email": "eixample@malvon.es", "contact:phone": "+34 934 00 84 20", "contact:website": "https://www.malvon.es", "name": "Malv\u00f3n", "opening_hours": "Mo-Su 11:00-23:00"}}, {"type": "node", "id": 11414601310, "lat": 41.3877043, "lon": 2.1283006, "tags": {"amenity": "fast_food", "contact:email": "diagonal@malvon.es", "contact:phone": "+34 936 67 62 64", "contact:website": "https://www.malvon.es", "name": "Malv\u00f3n", "opening_hours": "Mo-Sa 09:00-21:00"}}, {"type": "node", "id": 11414601317, "lat": 41.387658, "lon": 2.17109, "tags": {"amenity": "fast_food", "brand": "Malv\u00f3n", "brand:wikidata": "Q109877196", "email": "plazacataluna@malvon.es", "name": "Malv\u00f3n", "opening_hours": "Mo-Sa 09:00-21:30; Su 12:00-20:00", "phone": "+34 938 01 52 52", "website": "https://www.malvon.es"}}, {"type": "node", "id": 11445375780, "lat": 41.3765027, "lon": 2.1495726, "tags": {"amenity": "fast_food", "brand": "Subway", "brand:wikidata": "Q244457", "cuisine": "sandwich", "indoor": "yes", "level": "-1", "name": "Subway", "takeaway": "yes"}}, {"type": "node", "id": 11494803366, "lat": 41.3786979, "lon": 2.1896861, "tags": {"amenity": "fast_food", "check_date": "2024-01-06", "cuisine": "pizza", "name": "Pappa Pizza", "takeaway": "only"}}, {"type": "node", "id": 11508665519, "lat": 41.4025051, "lon": 2.1566485, "tags": {"amenity": "fast_food", "check_date": "2024-01-11", "name": "Mr. Dawalter Obrador"}}, {"type": "node", "id": 11541919998, "lat": 41.3730695, "lon": 2.1165401, "tags": {"amenity": "fast_food", "cuisine": "international", "delivery": "yes", "internet_access": "no", "name": "Pizza Rico", "smoking": "no", "takeaway": "only", "wheelchair": "no"}}, {"type": "node", "id": 11595551338, "lat": 41.3994145, "lon": 2.1616352, "tags": {"access": "customers", "addr:housenumber": "16-22", "addr:street": "Carrer del Perill", "amenity": "fast_food", "check_date": "2024-02-07", "fast_food": "cafeteria", "name": "Bar El Rac\u00f3 del Perill", "note": "Bar dentro del gimnasio", "opening_hours": "Mo-Fr 07:00-18:30", "payment:cash": "yes", "payment:mastercard": "yes", "payment:visa": "yes", "survey:date": "2024-02-07", "wheelchair": "yes"}}, {"type": "node", "id": 11603199306, "lat": 41.4041127, "lon": 2.1612081, "tags": {"addr:housenumber": "108", "addr:street": "Carrer de Ram\u00f3n y Cajal", "amenity": "fast_food", "check_date": "2024-05-04", "cuisine": "pizza", "drive_through": "no", "name": "Kirpa", "outdoor_seating": "no", "payment:cash": "yes", "payment:credit_cards": "yes", "payment:debit_cards": "yes", "smoking": "no", "source": "survey", "takeaway": "only", "wheelchair": "no"}}, {"type": "node", "id": 11691773644, "lat": 41.4283617, "lon": 2.1937388, "tags": {"amenity": "fast_food", "cuisine": "pizza", "name": "D\u00f6ner Pizza"}}, {"type": "node", "id": 11697322068, "lat": 41.3967953, "lon": 2.1666969, "tags": {"amenity": "fast_food", "fast_food": "cafeteria", "name": "Itaca"}}, {"type": "node", "id": 11697337850, "lat": 41.3963712, "lon": 2.1670062, "tags": {"amenity": "fast_food", "cuisine": "burger", "name": "La Informal"}}, {"type": "node", "id": 11726713869, "lat": 41.4092577, "lon": 2.1715132, "tags": {"addr:housenumber": "125", "addr:postcode": "08025", "addr:street": "Carrer de Sant Antoni Maria Claret", "amenity": "fast_food", "cuisine": "burger;international", "name": "Los Panas", "website": "https://lospanases.com"}}, {"type": "node", "id": 11736470671, "lat": 41.3608073, "lon": 2.134121, "tags": {"amenity": "fast_food", "name": "Xurreria"}}, {"type": "node", "id": 11736561317, "lat": 41.4021317, "lon": 2.1752128, "tags": {"addr:housenumber": "298", "addr:street": "Carrer de Sardenya", "amenity": "fast_food", "check_date": "2024-03-16", "cuisine": "argentinian", "name": "T\u00edo Bigotes"}}, {"type": "node", "id": 11755847798, "lat": 41.3888637, "lon": 2.195349, "tags": {"amenity": "fast_food", "check_date": "2024-03-23", "cuisine": "kebab", "name": "Istanbul"}}, {"type": "node", "id": 11802459634, "lat": 41.3979385, "lon": 2.1610068, "tags": {"addr:housenumber": "343", "addr:street": "Carrer de C\u00f2rsega", "air_conditioning": "yes", "amenity": "fast_food", "check_date": "2024-07-13", "cuisine": "kebab", "dog": "no", "internet_access": "wlan", "internet_access:fee": "customers", "name": "Taksim", "outdoor_seating": "yes", "payment:cash": "yes", "payment:credit_cards": "yes", "payment:debit_cards": "yes", "smoking": "outside", "wheelchair": "no"}}, {"type": "node", "id": 11817152012, "lat": 41.4025595, "lon": 2.15242, "tags": {"addr:housenumber": "153", "addr:street": "Carrer Gran de Gr\u00e0cia", "amenity": "fast_food", "brand": "Kibuka", "check_date": "2024-06-19", "cuisine": "sushi;japanese", "delivery": "yes", "name": "Fast Kibuka", "opening_hours": "13:00-22:00", "payment:cash": "yes", "payment:credit_cards": "yes", "payment:debit_cards": "yes", "phone": "+34 933 68 30 47", "source": "survey", "takeaway": "only", "website": "https://www.kibuka.com/fast", "wheelchair": "yes"}}, {"type": "node", "id": 11834628749, "lat": 41.4295053, "lon": 2.158878, "tags": {"amenity": "fast_food", "cuisine": "chicken", "name": "Polleria Lisboa", "opening_hours": "Tu-Fr 08:00-15:00; Sa,Su,PH 10:00-16:00"}}, {"type": "node", "id": 11834710442, "lat": 41.4297563, "lon": 2.1602722, "tags": {"amenity": "fast_food", "cuisine": "kebab", "name": "Trieste Horta"}}, {"type": "node", "id": 11876564974, "lat": 41.4009349, "lon": 2.2012472, "tags": {"amenity": "fast_food", "name": "K love empanada"}}, {"type": "node", "id": 11876569069, "lat": 41.4000408, "lon": 2.2024253, "tags": {"addr:housenumber": "47", "addr:street": "Rambla del Poblenou", "amenity": "fast_food", "check_date": "2025-03-01", "name": "Fast Bites", "opening_hours": "Mo-Su,PH 12:00-23:00", "outdoor_seating": "no", "payment:cash": "yes", "payment:credit_cards": "yes", "payment:debit_cards": "yes", "takeaway": "yes", "wheelchair": "yes"}}, {"type": "node", "id": 11930047775, "lat": 41.3817122, "lon": 2.1730562, "tags": {"amenity": "fast_food", "cuisine": "pizza", "name": "Roxy"}}, {"type": "node", "id": 11930141465, "lat": 41.388708, "lon": 2.1716292, "tags": {"amenity": "fast_food", "name": "Machi Machi"}}, {"type": "node", "id": 11933078869, "lat": 41.3956399, "lon": 2.1630193, "tags": {"addr:housenumber": "169", "addr:street": "Carrer de Pau Claris", "amenity": "fast_food", "cuisine": "spanish", "name": "las muns"}}, {"type": "node", "id": 11945506750, "lat": 41.3906124, "lon": 2.162481, "tags": {"addr:housenumber": "239-241", "addr:street": "Carrer d'Arag\u00f3", "amenity": "fast_food", "check_date": "2024-05-30", "name": "The Chicken Bar"}}, {"type": "node", "id": 11967431022, "lat": 41.4038909, "lon": 2.1550417, "tags": {"addr:housenumber": "53", "addr:street": "Carrer d'Ast\u00faries", "amenity": "fast_food", "check_date": "2024-06-09", "cuisine": "dumpling;chinese", "name": "Lady Dumpling", "outdoor_seating": "no", "takeaway": "yes"}}, {"type": "node", "id": 12012981758, "lat": 41.3762264, "lon": 2.1901831, "tags": {"alt_name": "Kentucky Fried Chicken", "amenity": "fast_food", "brand": "KFC", "brand:wikidata": "Q524757", "check_date": "2024-06-26", "cuisine": "chicken", "name": "KFC", "takeaway": "yes"}}, {"type": "node", "id": 12018493873, "lat": 41.376908, "lon": 2.1583773, "tags": {"addr:city": "Barcelona", "addr:housenumber": "39", "addr:postcode": "08015", "addr:street": "Carrer de Cal\u00e0bria", "amenity": "fast_food", "contact:instagram": "lafabricadeltacoes", "cuisine": "mexican", "diet:gluten_free": "yes", "name": "La F\u00e1brica del Taco", "opening_hours": "Mo-Th 13:00-23:00; Fr 13:00-23:30; Sa 12:00-23:30; Su 12:00-23:00"}}, {"type": "node", "id": 12023111227, "lat": 41.4027541, "lon": 2.1531439, "tags": {"addr:housenumber": "9", "addr:street": "Carrer d'Ast\u00faries", "amenity": "fast_food", "check_date": "2024-06-30", "cuisine": "kebab", "name": "Ciutat Istanbul"}}, {"type": "node", "id": 12023111228, "lat": 41.4027778, "lon": 2.1532021, "tags": {"addr:housenumber": "11", "addr:street": "Carrer d'Ast\u00faries", "amenity": "fast_food", "check_date": "2024-06-30", "cuisine": "burger", "name": "La Tropa", "outdoor_seating": "yes"}}, {"type": "node", "id": 12059088310, "lat": 41.3999367, "lon": 2.1795405, "tags": {"addr:housenumber": "445-447", "addr:street": "Carrer de la Diputaci\u00f3", "amenity": "fast_food", "check_date": "2024-07-17", "cuisine": "juice", "name": "Tizana"}}, {"type": "node", "id": 12093470401, "lat": 41.3799748, "lon": 2.1766783, "tags": {"addr:housenumber": "41", "addr:street": "Carrer dels Escudellers", "amenity": "fast_food", "cuisine": "pizza", "name": "Puglia in Tavola"}}, {"type": "node", "id": 12168048444, "lat": 41.396934, "lon": 2.1681355, "tags": {"addr:housenumber": "113", "addr:street": "Carrer de Girona", "amenity": "fast_food", "check_date": "2024-09-09", "cuisine": "empanada;argentinian", "name": "mimmar"}}, {"type": "node", "id": 12197363105, "lat": 41.3879862, "lon": 2.2021219, "tags": {"amenity": "fast_food", "check_date": "2024-09-24", "level": "0", "name": "Las Muns"}}, {"type": "node", "id": 12228248301, "lat": 41.4060948, "lon": 2.1597082, "tags": {"addr:housenumber": "38", "addr:street": "Carrer de l'Encarnaci\u00f3", "amenity": "fast_food", "check_date": "2024-10-05", "cuisine": "burger", "name": "Bemba"}}, {"type": "node", "id": 12278969001, "lat": 41.3754584, "lon": 2.1281067, "tags": {"amenity": "fast_food", "cuisine": "pizza", "name": "Little Caesars Pizza"}}, {"type": "node", "id": 12291891247, "lat": 41.3934776, "lon": 2.1532877, "tags": {"addr:housenumber": "182", "addr:street": "Carrer de Par\u00eds", "amenity": "fast_food", "check_date": "2024-10-27", "cuisine": "pizza;burger", "name": "Bar-Celona"}}, {"type": "node", "id": 12299516076, "lat": 41.399162, "lon": 2.1953158, "tags": {"addr:housenumber": "154", "addr:street": "Carrer de Pallars", "amenity": "fast_food", "name": "Enlagloria", "opening_hours": "Mo-Su 11:00-16:00"}}, {"type": "node", "id": 12326979637, "lat": 41.4056752, "lon": 2.1502996, "tags": {"amenity": "fast_food", "check_date": "2024-11-09", "cuisine": "burger", "level": "0", "name": "Vicio", "payment:cash": "yes", "payment:credit_cards": "yes", "payment:debit_cards": "yes"}}, {"type": "node", "id": 12400474117, "lat": 41.3884997, "lon": 2.1620857, "tags": {"amenity": "fast_food", "check_date": "2024-12-06", "cuisine": "juice", "name": "Moimo"}}, {"type": "node", "id": 12425525219, "lat": 41.3894774, "lon": 2.1616002, "tags": {"amenity": "fast_food", "check_date": "2024-12-16", "cuisine": "sandwich", "name": "Mama Chula"}}, {"type": "node", "id": 12493096602, "lat": 41.4094724, "lon": 2.1718046, "tags": {"amenity": "fast_food", "cuisine": "hotdog", "name": "Frankfurt"}}, {"type": "node", "id": 12529198799, "lat": 41.3893318, "lon": 2.1614206, "tags": {"amenity": "fast_food", "check_date": "2025-01-24", "cuisine": "kebab", "name": "Kay", "payment:cash": "yes", "payment:credit_cards": "yes", "payment:debit_cards": "yes"}}, {"type": "node", "id": 12546436872, "lat": 41.3992439, "lon": 2.1195973, "tags": {"addr:city": "Barcelona", "addr:housenumber": "16B", "addr:street": "Passeig de la Reina Elisenda de Montcada", "amenity": "fast_food", "cuisine": "sandwich", "drive_through": "no", "name": "SandwiChez", "opening_hours": "Mo-Su 07:15-20:00", "website": "https://www.sandwichez.com/locales"}}, {"type": "node", "id": 12648506663, "lat": 41.3845807, "lon": 2.1794178, "tags": {"amenity": "fast_food", "cuisine": "argentinian", "indoor_seating": "no", "name": "La F\u00e1brica Empanades Argentines", "outdoor_seating": "no", "takeaway": "yes"}}, {"type": "way", "id": 429043005, "nodes": [4281685057, 4281685059, 4281685064, 4281685060, 4281685057], "tags": {"amenity": "fast_food", "building": "yes", "cuisine": "burger;chicken;ice_cream;sandwich;spanish"}}, {"type": "way", "id": 446005092, "nodes": [4433375467, 4433375475, 4433375468, 4433375469, 4433375470, 4433375467], "tags": {"addr:street": "Carrer del Judici", "amenity": "fast_food", "branch": "Barceloneta", "building": "yes", "cuisine": "burger", "fast_food": "yes", "internet_access": "wlan", "internet_access:fee": "no", "name": "Bacoa Barceloneta", "opening_hours": "Su-Th 12:00-23:00; Fr,Sa 12:00-24:00", "outdoor_seating": "yes", "website": "https://www.bacoaburguer.com/"}}, {"type": "way", "id": 640251705, "nodes": [6031663692, 6031663699, 6031663713, 6031663695, 6031663692], "tags": {"amenity": "fast_food", "brand": "McDonald's", "brand:wikidata": "Q38076", "brand:wikipedia": "es:McDonald's", "building": "industrial", "building:levels": "2", "building:levels:underground": "1", "cuisine": "burger", "diet:gluten_free": "yes", "drive_through": "yes", "name": "McDonald's", "name:ca": "McDonald's", "takeaway": "yes"}}, {"type": "way", "id": 640255649, "nodes": [6031717604, 6031717593, 10870244218, 10870244217, 6031717609, 6031716983, 6031717605, 287007603, 6031717604], "tags": {"amenity": "fast_food", "brand": "Burger King", "brand:wikidata": "Q177054", "brand:wikipedia": "es:Burger King", "cuisine": "burger", "diet:gluten_free": "yes", "name": "Burger King", "takeaway": "yes"}}]}