{"version": 0.6, "generator": "Overpass API 0.7.62.5 1bd436f1", "osm3s": {"timestamp_osm_base": "2025-03-10T16:58:03Z", "copyright": "The data included in this document is from www.openstreetmap.org. The data is made available under ODbL."}, "elements": [{"type": "node", "id": 1845455479, "lat": 41.4062213, "lon": 2.1770468, "tags": {"amenity": "dentist", "healthcare": "dentist", "name": "uni dental"}}, {"type": "node", "id": 2627845577, "lat": 41.4185443, "lon": 2.1846242, "tags": {"amenity": "dentist", "healthcare": "dentist"}}, {"type": "node", "id": 2969276709, "lat": 41.4015487, "lon": 2.170792, "tags": {"amenity": "dentist", "name": "Cl\u00ednica Dental Adeslas"}}, {"type": "node", "id": 2970750103, "lat": 41.4020807, "lon": 2.1528457, "tags": {"amenity": "dentist", "brand": "Dentix", "brand:wikidata": "Q30505320", "brand:wikipedia": "es:Dentix", "healthcare": "dentist", "name": "Dentix", "wheelchair": "yes"}}, {"type": "node", "id": 4063808539, "lat": 41.3856777, "lon": 2.13681, "tags": {"addr:city": "Barcelona", "addr:housenumber": "96", "addr:postcode": "08029", "addr:street": "Carrer de Num\u00e0ncia", "amenity": "dentist", "name": "Grup Doctor Blad\u00e9", "website": "https://www.bladegrup.com/ortodoncia-barcelona/"}}, {"type": "node", "id": 4254701792, "lat": 41.3916987, "lon": 2.1792977, "tags": {"amenity": "dentist", "check_date": "2025-01-25", "healthcare": "dentist", "level": "0", "name": "Dens Dentis", "name:ca": "Dens Dentis", "phone": "+34 933 28 22 20"}}, {"type": "node", "id": 4362627390, "lat": 41.3752236, "lon": 2.1160684, "tags": {"amenity": "dentist", "healthcare": "dentist", "name": "Orthodent", "name:es": "Orthodent"}}, {"type": "node", "id": 4456766991, "lat": 41.4022623, "lon": 2.1643807, "tags": {"addr:housenumber": "7", "addr:street": "Carrer de la Ind\u00fastria", "amenity": "dentist", "email": "info@mirave.es", "name": "Centro Odontol\u00f3gico Drs. Mirave", "opening_hours": "Mo-Fr 09:30-13:30,15:30-20:00", "phone": "+34934584599", "website": "https://mirave.es/"}}, {"type": "node", "id": 4618619392, "lat": 41.3946585, "lon": 2.1666568, "tags": {"addr:city": "Barcelona", "addr:housenumber": "81", "addr:postcode": "08009", "addr:street": "Carrer de Roger de Ll\u00faria", "amenity": "dentist", "contact:email": "clinica@institutserra.com", "contact:facebook": "https://www.facebook.com/institutodontologicserra/", "contact:instagram": "https://www.instagram.com/institutserra/", "contact:phone": "+34 93 106 09 54", "contact:whatsapp": "+34 615 579 205", "healthcare": "dentist", "name": "Institut Odontol\u00f2gic Serra", "opening_hours": "Mo-Fr 09:00-14:00,15:00-20:00", "website": "https://institutserra.com"}}, {"type": "node", "id": 4621727348, "lat": 41.3887043, "lon": 2.1446817, "tags": {"addr:city": "Barcelona", "addr:housenumber": "22", "addr:postcode": "08029", "addr:street": "Carrer de Londres", "amenity": "dentist", "level": "2", "name": "Custom Dental", "phone": "+34 93 410 38 34", "website": "https://www.customdental.cat/"}}, {"type": "node", "id": 4725692892, "lat": 41.3751875, "lon": 2.1639785, "tags": {"amenity": "dentist", "healthcare": "dentist", "name": "Instituts Odontol\u00f2gics"}}, {"type": "node", "id": 4726583190, "lat": 41.3962425, "lon": 2.1690255, "tags": {"amenity": "dentist", "healthcare": "dentist", "name": "Cl\u00ednica Dental Carrasco", "name:es": "Cl\u00ednica Dental Carrasco"}}, {"type": "node", "id": 4727974992, "lat": 41.4073052, "lon": 2.1837664, "tags": {"amenity": "dentist", "healthcare": "dentist", "name": "Cl\u00edniques Propdental", "name:ca": "Cl\u00edniques Propdental"}}, {"type": "node", "id": 4727975091, "lat": 41.3871662, "lon": 2.1788028, "tags": {"amenity": "dentist", "healthcare": "dentist", "name": "mmm", "name:es": "mmm", "opening_hours": "Mo,Th 09:00-13:00,15:00-20:00; Tu,We,Fr 09:00-16:00", "phone": "+34933106050"}}, {"type": "node", "id": 4728093794, "lat": 41.4146638, "lon": 2.1805928, "tags": {"amenity": "dentist", "name": "Sant Jordi", "name:ca": "Sant Jordi"}}, {"type": "node", "id": 4776357935, "lat": 41.4109817, "lon": 2.1726912, "tags": {"amenity": "dentist", "name": "Cl\u00ednica dental"}}, {"type": "node", "id": 4776358122, "lat": 41.4033246, "lon": 2.1612032, "tags": {"addr:city": "Barcelona", "addr:housenumber": "208", "addr:postcode": "08012", "addr:street": "Travessera de Gr\u00e0cia", "amenity": "dentist", "check_date": "2024-10-30", "healthcare": "dentist", "name": "Vivanta", "opening_hours": "Mo-Sa 09:30-20:30", "wheelchair": "limited"}}, {"type": "node", "id": 4911503784, "lat": 41.4188265, "lon": 2.1984446, "tags": {"addr:city": "Barcelona", "addr:housenumber": "102", "addr:postcode": "08020", "addr:street": "Carrer de Huelva", "addr:unit": "2n 2a", "amenity": "dentist", "healthcare": "dentist", "name": "Ramon Marti Espinet", "phone": "+34 933135726"}}, {"type": "node", "id": 4942708122, "lat": 41.4063327, "lon": 2.1941115, "tags": {"addr:housenumber": "153", "addr:street": "Rambla del Poblenou", "amenity": "dentist", "name": "Sanitas. Centre Dental", "name:ca": "Sanitas. Centre Dental"}}, {"type": "node", "id": 5202989791, "lat": 41.4079926, "lon": 2.2037495, "tags": {"amenity": "dentist", "healthcare": "dentist"}}, {"type": "node", "id": 5257620888, "lat": 41.3988535, "lon": 2.182025, "tags": {"addr:city": "Barcelona", "addr:housenumber": "170", "addr:postcode": "08013", "addr:street": "Carrer de la Marina", "amenity": "dentist", "branch": "Sagrada Familia", "brand": "Vitaldent", "brand:wikidata": "Q5860599", "healthcare": "dentist", "healthcare:speciality": "clinic", "name": "Vitaldent", "operator": "Vitaldent", "wheelchair": "yes"}}, {"type": "node", "id": 5333595021, "lat": 41.3740462, "lon": 2.1633722, "tags": {"addr:housenumber": "45", "addr:postcode": "08004", "addr:street": "Carrer de Blai", "amenity": "dentist", "healthcare": "dentist", "internet_access": "wlan", "name": "Mi Dentista", "opening_hours": "Mo-Fr 09:30-14:00,16:00-20:30", "phone": "+34 934413664"}}, {"type": "node", "id": 5564524005, "lat": 41.3863493, "lon": 2.1591953, "tags": {"amenity": "dentist", "healthcare": "dentist", "level": "0", "name": "Deutsche ZK", "opening_hours": "Mo-Th 10:00-13:30,16:00-21:00;Fr 10:00-14:00;PH closed", "wheelchair": "no"}}, {"type": "node", "id": 5909309468, "lat": 41.4245025, "lon": 2.176797, "tags": {"addr:city": "Barcelona", "addr:housenumber": "207", "addr:postcode": "08041", "addr:street": "Passeig de Maragall", "amenity": "dentist", "healthcare": "dentist", "name": "Cl\u00ednica Dental Milenium Maragall", "opening_hours": "Mo-Fr 09:00-21:00", "website": "https://clinicadental-barcelona-horta.sanitas.es/"}}, {"type": "node", "id": 5981323517, "lat": 41.4054969, "lon": 2.1497899, "tags": {"addr:city": "Barcelona", "addr:housenumber": "63-65", "addr:postcode": "08012", "addr:street": "Avinguda de la Riera de Cassoles", "addr:street:old": "Avinguda del Pr\u00edncep d'Ast\u00faries", "amenity": "dentist", "check_date": "2024-11-09", "healthcare": "dentist", "healthcare:speciality": "orthodontics;stomatology;dental_oral_maxillo_facial_surgery;dentista", "name": "Cl\u00ednica Roig Espona", "phone": "+34 932182395", "wheelchair": "yes"}}, {"type": "node", "id": 6080710465, "lat": 41.3665683, "lon": 2.138804, "tags": {"amenity": "dentist", "name": "Novita Dental Studio Sants Montjuic", "opening_hours": "Mo-Fr 10:00-14:00,16:00-20:00", "wheelchair": "limited"}}, {"type": "node", "id": 6093886611, "lat": 41.4000083, "lon": 2.1723136, "tags": {"amenity": "dentist", "check_date": "2024-10-22", "contact:phone": "+34 934571730", "contact:website": "http://www.clinicadentalmayo.com", "name": "Mayo"}}, {"type": "node", "id": 6123244353, "lat": 41.3987905, "lon": 2.1948604, "tags": {"addr:housenumber": "150", "addr:postcode": "08005", "addr:street": "Carrer de Pallars", "amenity": "dentist", "healthcare": "dentist", "name": "Cl\u00ednica dental Be@"}}, {"type": "node", "id": 6181430032, "lat": 41.3820027, "lon": 2.1398135, "tags": {"addr:city": "Barcelona", "addr:country": "ES", "addr:street": "Carrer d'Enric Barg\u00e9s", "amenity": "dentist", "branch": "Sants", "contact:phone": "+34 934907747", "contact:website": "http://www.abcdentalsants.com", "name": "Cl\u00ednica Abcdental"}}, {"type": "node", "id": 6238196927, "lat": 41.3940418, "lon": 2.172423, "tags": {"addr:city": "Barcelona", "addr:housenumber": "56", "addr:street": "Carrer de Girona", "amenity": "dentist", "check_date": "2024-10-20", "healthcare": "dentist", "name": "Caidental", "opening_hours": "Mo-Fr 10:00-20:00; Sa 10:00-16:00"}}, {"type": "node", "id": 6258572378, "lat": 41.3815889, "lon": 2.1323657, "tags": {"addr:city": "Barcelona", "addr:country": "ES", "addr:street": "Carrer de Joan G\u00fcell", "amenity": "dentist", "name": "Cl\u00ednica Dental Oris"}}, {"type": "node", "id": 6258718440, "lat": 41.3598456, "lon": 2.14153, "tags": {"addr:city": "Barcelona", "addr:country": "ES", "addr:housenumber": "281", "addr:postcode": "08038", "addr:street": "Carrer Mare de D\u00e9u de Port", "addr:unit": "Escalera B, 2on 1er", "amenity": "dentist", "contact:phone": "+34 934321566", "healthcare": "dentist", "name": "Cl\u00ednica Dental Mare de D\u00e9u del Port"}}, {"type": "node", "id": 6260786190, "lat": 41.369306, "lon": 2.1340117, "tags": {"addr:city": "Barcelona", "addr:postcode": "08014", "amenity": "dentist", "healthcare": "dentist", "name": "Legrand", "opening_hours": "Mo-Th 10:00-14:00,15:00-20:00; Fr 10:00-14:00; PH,Sa,Su off", "wheelchair": "no"}}, {"type": "node", "id": 6434445927, "lat": 41.3643618, "lon": 2.137171, "tags": {"amenity": "dentist", "healthcare": "dentist", "name": "Cl\u00ednica Dental Marina Dent"}}, {"type": "node", "id": 6462989674, "lat": 41.3769568, "lon": 2.135688, "tags": {"amenity": "dentist", "healthcare": "dentist", "name": "DentalSky"}}, {"type": "node", "id": 6488828800, "lat": 41.3754316, "lon": 2.1405799, "tags": {"amenity": "dentist", "brand": "Dentix", "brand:wikidata": "Q30505320", "brand:wikipedia": "es:Dentix", "healthcare": "dentist", "name": "Dentix"}}, {"type": "node", "id": 6511799089, "lat": 41.3940719, "lon": 2.1353208, "tags": {"amenity": "dentist", "name": "Borr\u00e0s", "name:ca": "Borr\u00e0s"}}, {"type": "node", "id": 7017818399, "lat": 41.3832457, "lon": 2.1546321, "tags": {"amenity": "dentist", "healthcare": "dentist", "level": "0", "name": "Cl\u00ednica Ferr\u00fas", "opening_hours": "Mo-Fr 09:30-13:30,16:00-20:00; PH closed", "phone": "+34 932 80 70 45", "website": "https://www.clinicaferrus.com/", "wheelchair": "yes"}}, {"type": "node", "id": 7314201483, "lat": 41.3970386, "lon": 2.1508482, "tags": {"addr:city": "Barcelona", "addr:housenumber": "73-79", "addr:postcode": "08006", "addr:street": "Travessera de Gr\u00e0cia", "amenity": "dentist", "healthcare": "dentist", "name": "Cl\u00ednica Dental Adeslas", "opening_hours": "Mo-Fr 09:00-14:00,16:00-21:00", "operator": "Adeslas", "phone": "+34 902530954", "website": "https://www.adeslasdental.es/clinica/adeslas-dental-travessera-gracia/", "wheelchair": "yes"}}, {"type": "node", "id": 7395420914, "lat": 41.421616, "lon": 2.1798329, "tags": {"amenity": "dentist"}}, {"type": "node", "id": 7525220185, "lat": 41.4105989, "lon": 2.1889685, "tags": {"amenity": "dentist", "healthcare": "dentist", "name": "Sanitas"}}, {"type": "node", "id": 7525380587, "lat": 41.418776, "lon": 2.1848506, "tags": {"amenity": "dentist", "healthcare": "dentist", "name": "Bar Bodega"}}, {"type": "node", "id": 7525556686, "lat": 41.4154492, "lon": 2.1908307, "tags": {"amenity": "dentist", "name": "Dental Nu\u00f1ez"}}, {"type": "node", "id": 7550777387, "lat": 41.4056726, "lon": 2.1601023, "tags": {"addr:housenumber": "40", "addr:street": "Carrer de Joan Blanques", "amenity": "dentist", "check_date": "2023-10-16", "name": "Cl\u00ednica Dental", "phone": "+34 932 10 23 54; +34 670 23 52 35", "wheelchair": "yes"}}, {"type": "node", "id": 7563895345, "lat": 41.4026945, "lon": 2.1996571, "tags": {"amenity": "dentist", "name": "Vitaldent"}}, {"type": "node", "id": 7736420818, "lat": 41.3757836, "lon": 2.122381, "tags": {"addr:city": "Barcelona", "addr:housenumber": "382", "addr:postcode": "08028", "addr:street": "Carrer de Sants", "amenity": "dentist", "healthcare": "dentist", "healthcare:speciality": "orthodontics", "name": "Cl\u00edniques Vivanta", "operator": "Vivanta", "phone": "+34934407124", "website": "https://www.vivanta.es/clinicas/barcelona-sants"}}, {"type": "node", "id": 7840062571, "lat": 41.3603194, "lon": 2.139602, "tags": {"addr:city": "Barcelona", "addr:country": "ES", "addr:door": "4", "addr:floor": "1", "addr:housenumber": "34", "addr:postcode": "08038", "addr:street": "Carrer de la Foneria", "amenity": "dentist", "contact:email": "clidentalzonafranca@gmail.com", "contact:instagram": "clinicazonafranca", "contact:phone": "+34 932968245", "contact:website": "https://cdzf.es/", "contact:whatsapp": "+34 669881505", "healthcare": "dentist", "level": "1", "name": "Cl\u00ednica Dental Zona Franca", "opening_hours": "Mo-Fr 09:00-13:00, 16:00-20:00"}}, {"type": "node", "id": 7876367170, "lat": 41.3971586, "lon": 2.1517779, "tags": {"addr:housenumber": "199, 1\u00b0, B", "addr:street": "Carrer de Balmes", "amenity": "dentist", "healthcare": "dentist", "healthcare:speciality": "dental_oral_maxillo_facial_surgery", "name": "Clinica Garcia-Vaquero", "phone": "+34 933 221 692", "website": "https://clinicagarciavaquero.es/#"}}, {"type": "node", "id": 7889306385, "lat": 41.4287771, "lon": 2.1818036, "tags": {"amenity": "dentist", "check_date": "2025-02-23", "name": "Dentisalut"}}, {"type": "node", "id": 7895180014, "lat": 41.3968151, "lon": 2.1520991, "tags": {"addr:housenumber": "193, 6\u00b0 3a", "addr:street": "Carrer de Balmes", "amenity": "dentist", "healthcare": "dentist", "name": "Drs. Mallat"}}, {"type": "node", "id": 7895180016, "lat": 41.3968756, "lon": 2.1520299, "tags": {"addr:housenumber": "193, 2\u00b0 4a", "addr:street": "Carrer de Balmes", "amenity": "dentist", "healthcare": "dentist", "name": "CSM - Cl\u00ednica Sarret Mar\u00edn"}}, {"type": "node", "id": 8049731607, "lat": 41.4059242, "lon": 2.19634, "tags": {"addr:city": "Barcelona", "addr:housenumber": "162", "addr:postcode": "08018", "addr:street": "Avinguda Diagonal", "amenity": "dentist", "healthcare": "dentist", "name": "MyDentiss", "website": "https://mydentiss.es/"}}, {"type": "node", "id": 8062015291, "lat": 41.4027287, "lon": 2.2022863, "tags": {"amenity": "dentist", "healthcare": "dentist", "name": "Alejandra Higueras"}}, {"type": "node", "id": 8374493131, "lat": 41.3968379, "lon": 2.1505372, "tags": {"addr:city": "Barcelona", "addr:housenumber": "71", "addr:postcode": "08006", "addr:street": "Travessera de Gracia", "amenity": "dentist", "contact:email": "info@clinicamirave.es", "contact:fax": "+34 93 2379991", "contact:phone": "+34 93 2176889", "contact:website": "https://www.clinicamirave.es/es/localizacion/", "name": "Mirav\u00e9 Travessera", "name:ca": "Mirav\u00e9 Travessera", "opening_hours": "Mo-Fr 08:00-21:00", "wheelchair": "yes"}}, {"type": "node", "id": 8375493989, "lat": 41.3918664, "lon": 2.1265852, "tags": {"amenity": "dentist", "healthcare": "dentist", "name": "Sanitas dental"}}, {"type": "node", "id": 8397371410, "lat": 41.4228376, "lon": 2.1457353, "tags": {"amenity": "dentist", "healthcare": "dentist"}}, {"type": "node", "id": 8426322052, "lat": 41.4064802, "lon": 2.1630393, "tags": {"amenity": "dentist", "healthcare": "dentist", "level": "1"}}, {"type": "node", "id": 8437056480, "lat": 41.3986782, "lon": 2.1511326, "tags": {"addr:housenumber": "226", "addr:street": "Carrer de Balmes", "amenity": "dentist", "contact:email": "info@barcelonasmilecenter.com", "contact:phone": "+34 93 120 57 43", "contact:website": "https://barcelonasmilecenter.com/", "healthcare": "dentist", "name": "Barcelona Smile", "opening_hours": "Mo-Th 09:30-13:30, 15:30-20:30; Fr 10:00-15:00"}}, {"type": "node", "id": 8450205418, "lat": 41.406254, "lon": 2.1636655, "tags": {"amenity": "dentist", "healthcare": "dentist", "name": "Dr Espu\u00f1a"}}, {"type": "node", "id": 8452293643, "lat": 41.3967897, "lon": 2.1521552, "tags": {"addr:housenumber": "191, 4\u00ba 2\u00aa", "addr:street": "Carrer de Balmes", "amenity": "dentist", "contact:email": "info@doctoraleira.com", "contact:phone": "+34 93 2182 775", "contact:website": "http://www.doctoraleira.com/", "name": "Dra. N. Leira Juan\u00f3s", "opening_hours": "Mo-Fr 10:00-20:00"}}, {"type": "node", "id": 8454992588, "lat": 41.4244039, "lon": 2.1513832, "tags": {"amenity": "dentist", "healthcare": "dentist"}}, {"type": "node", "id": 8493529894, "lat": 41.4196301, "lon": 2.2011377, "tags": {"amenity": "dentist", "healthcare": "dentist"}}, {"type": "node", "id": 8496430206, "lat": 41.3784541, "lon": 2.1519823, "tags": {"amenity": "dentist", "name": "Clinica Corona Dental", "opening_hours": "Mo-Th 10:00-14:00; Mo-Fr 15:00-19:00; Fr 10:00-15:00"}}, {"type": "node", "id": 8605804296, "lat": 41.3970636, "lon": 2.1518788, "tags": {"amenity": "dentist", "contact:phone": "+34 93 2174304", "contact:website": "https://www.clinicadentaldentart.com/", "healthcare": "dentist", "name": "Dentart", "opening_hours": "Mo-Th 10:00-13:00,16:00-21:00; Fr 10:00-13:00"}}, {"type": "node", "id": 8628258896, "lat": 41.3970792, "lon": 2.1518616, "tags": {"addr:housenumber": "197, Entlo B", "addr:street": "Carrer de Balmes", "amenity": "dentist", "healthcare": "dentist", "name": "Dr. G. Kitaj"}}, {"type": "node", "id": 8639463347, "lat": 41.3958442, "lon": 2.1543171, "tags": {"addr:housenumber": "172, 3\u00ba 1\u00aa", "addr:street": "Carrer de Balmes", "amenity": "dentist", "contact:email": "clinica@clinicadentaldiagonal.com", "contact:phone": "+34 93 4151 539; +34 93 2186 530", "contact:website": "http://clinicadentaldiagonal.es/", "name": "Cl\u00ednica Diagonal", "opening_hours": "Mo,We 09:00-20:00; Tu,Th,Fr 09:00-17:00"}}, {"type": "node", "id": 8706851065, "lat": 41.4259775, "lon": 2.1548302, "tags": {"amenity": "dentist", "healthcare": "dentist", "name": "Dent i Dent", "website": "https://dentident.cat/"}}, {"type": "node", "id": 8709863509, "lat": 41.4273652, "lon": 2.1571321, "tags": {"amenity": "dentist", "healthcare": "dentist"}}, {"type": "node", "id": 8709863510, "lat": 41.4272809, "lon": 2.1563141, "tags": {"amenity": "dentist", "healthcare": "dentist"}}, {"type": "node", "id": 8731230696, "lat": 41.4212181, "lon": 2.1537066, "tags": {"amenity": "dentist", "healthcare": "dentist"}}, {"type": "node", "id": 8785356455, "lat": 41.3991825, "lon": 2.1498999, "tags": {"addr:housenumber": "15", "addr:street": "Carrer de Laforja", "amenity": "dentist", "contact:email": "dentalalmeidamiras@gmail.com", "contact:mobile": "+34 676437333", "contact:phone": "+34 93 4995122", "contact:website": "https://clinicadentalalmeidamiras.com/", "healthcare": "dentist", "name": "Cl\u00ednica Dental Almeida & Miras", "opening_hours": "Mo-Fr 10:00-14:00,15:00-19:00", "wheelchair": "yes"}}, {"type": "node", "id": 8791356559, "lat": 41.3997916, "lon": 2.1494431, "tags": {"addr:housenumber": "249", "addr:street": "Carrer de Balmes", "amenity": "dentist", "name": "Sanitas Dental", "phone": "+34 93 2920510", "website": "https://clinicadental-barcelona-balmes.sanitas.es/"}}, {"type": "node", "id": 9243691589, "lat": 41.3872076, "lon": 2.1425645, "tags": {"amenity": "dentist", "name": "Ismar Dental"}}, {"type": "node", "id": 9243738044, "lat": 41.3868582, "lon": 2.1424775, "tags": {"amenity": "dentist", "name": "Custom Dental", "phone": "+34 934104947"}}, {"type": "node", "id": 9295647814, "lat": 41.3975775, "lon": 2.154384, "tags": {"addr:housenumber": "28", "addr:street": "Via Augusta", "amenity": "dentist", "contact:email": "info@clinicasden.com", "contact:phone": "+34 93 2188080", "contact:website": "https://clinicasden.com/", "healthcare": "dentist", "name": "Den - Cl\u00ednica Dental", "opening_hours": "Mo-Fr 09:00-19:00"}}, {"type": "node", "id": 9351301921, "lat": 41.3867565, "lon": 2.1552279, "tags": {"amenity": "dentist", "name": "Mallart"}}, {"type": "node", "id": 9351301922, "lat": 41.3817789, "lon": 2.1485699, "tags": {"amenity": "dentist", "name": "Giro-Dent"}}, {"type": "node", "id": 9466874154, "lat": 41.3710365, "lon": 2.1433481, "tags": {"addr:city": "Barcelona", "addr:postcode": "08014", "amenity": "dentist", "healthcare": "dentist", "name": "Dra. Elisabet Navarro"}}, {"type": "node", "id": 9551579448, "lat": 41.3985468, "lon": 2.1521438, "tags": {"addr:housenumber": "7-9", "addr:street": "Carrer de Reg\u00e0s", "amenity": "dentist", "contact:email": "info@dentzia.com", "contact:website": "https://dentzia.com/", "name": "Dentzia"}}, {"type": "node", "id": 9799230918, "lat": 41.3909899, "lon": 2.1453125, "tags": {"amenity": "dentist", "name:en": "civit", "phone": "+34 934190620"}}, {"type": "node", "id": 9799248217, "lat": 41.38924, "lon": 2.1436753, "tags": {"amenity": "dentist", "check_date": "2024-11-01", "name": "Cl\u00ednica Dental Ortiz-Puigpelat"}}, {"type": "node", "id": 9801064618, "lat": 41.3849701, "lon": 2.1464876, "tags": {"addr:housenumber": "28-30", "addr:street": "Carrer del Rossell\u00f3", "amenity": "dentist", "name": "Drs. Gass\u00f3", "phone": "+34 934941864"}}, {"type": "node", "id": 9801064718, "lat": 41.3865502, "lon": 2.1486185, "tags": {"amenity": "dentist", "name:en": "Propdental", "website": "https://www.propdental.es/"}}, {"type": "node", "id": 9801833617, "lat": 41.3881042, "lon": 2.1440967, "tags": {"amenity": "dentist", "check_date": "2022-12-01", "name": "Minim"}}, {"type": "node", "id": 9806292718, "lat": 41.3928863, "lon": 2.1509918, "tags": {"amenity": "dentist", "name": "Estudi Dental Barcelona", "name:ca": "Estudi Dental Barcelona", "name:en": "Barcelona Dental Studio"}}, {"type": "node", "id": 9806872818, "lat": 41.3626434, "lon": 2.1334799, "tags": {"amenity": "dentist", "phone": "+34 932989360"}}, {"type": "node", "id": 9814892818, "lat": 41.3921702, "lon": 2.1450529, "tags": {"amenity": "dentist", "healthcare": "dentist", "name": "Cl\u00ednica Vallcorba"}}, {"type": "node", "id": 9820200120, "lat": 41.3935896, "lon": 2.1466523, "tags": {"amenity": "dentist", "name": "Cl\u00ednica Dental Dr. Vilar", "phone": "+34 932017152"}}, {"type": "node", "id": 9823242617, "lat": 41.384824, "lon": 2.1463969, "tags": {"amenity": "dentist", "name": "Porta Dentistes"}}, {"type": "node", "id": 9823273817, "lat": 41.3896363, "lon": 2.1549512, "tags": {"amenity": "dentist", "name": "Dentsalut"}}, {"type": "node", "id": 9823584817, "lat": 41.397163, "lon": 2.1630393, "tags": {"amenity": "dentist", "name:en": "Caser dental"}}, {"type": "node", "id": 9825404719, "lat": 41.3919086, "lon": 2.1429207, "tags": {"amenity": "dentist", "name:en": "Sanitas Dental"}}, {"type": "node", "id": 9848436518, "lat": 41.3677597, "lon": 2.1299212, "tags": {"amenity": "dentist", "healthcare": "dentist", "name": "Santa Eul\u00e0lia Especialistes Dentals", "website": "http://www.clinicadentalsantaeulalia.cat"}}, {"type": "node", "id": 9848436717, "lat": 41.3670346, "lon": 2.1282786, "tags": {"amenity": "dentist", "name:en": "Alpha Clinic", "website": "https://www.alphaclinic.es/"}}, {"type": "node", "id": 9851030117, "lat": 41.3828705, "lon": 2.1428111, "tags": {"amenity": "dentist", "name:en": "Bucco dental technology"}}, {"type": "node", "id": 10094855120, "lat": 41.3954579, "lon": 2.1522343, "tags": {"amenity": "dentist", "contact:email": "info@clinicadentaltuset.com", "contact:fax": "+34 93 209 58 39", "contact:phone": "+34 93 209 58 39", "contact:website": "https://tusetdental.com/home/", "name": "Tuset Cl\u00ednica Dental", "opening_hours": "Mo-Th 10:00-13:00,14:30-19:30; Fr 10:00-14:00"}}, {"type": "node", "id": 10159050997, "lat": 41.4072103, "lon": 2.1338352, "tags": {"addr:housenumber": "1", "addr:street": "Passeig de Sant Gervasi", "amenity": "dentist", "healthcare": "dentist"}}, {"type": "node", "id": 10579328042, "lat": 41.3732096, "lon": 2.1462379, "tags": {"addr:city": "Barcelona", "addr:housenumber": "333", "addr:postcode": "08014", "addr:street": "Gran Via de les Corts Catalanes", "amenity": "dentist", "healthcare": "dentist", "name:en": "Dr. Carles Arfelis i Zaragoza", "phone": "934250286;610571239"}}, {"type": "node", "id": 10591376864, "lat": 41.3528466, "lon": 2.1137985, "tags": {"amenity": "dentist", "healthcare": "dentist", "name": "Cl\u00ednica dental Luandent"}}, {"type": "node", "id": 10761659149, "lat": 41.4001563, "lon": 2.1597214, "tags": {"addr:postcode": "08012", "amenity": "dentist", "contact:instagram": "clinicadentalae", "healthcare": "dentist", "name": "AE Clinica Dental", "phone": "+34932074326", "website": "https://www.aeclinicadental.com/", "wheelchair": "no"}}, {"type": "node", "id": 10934163512, "lat": 41.3987702, "lon": 2.1595928, "tags": {"addr:housenumber": "12", "addr:street": "Carrer de Francisco Giner", "amenity": "dentist", "name": "Les 1001 dents", "opening_hours": "Mo-We 10:00-14:00, 15:00-19:00; Th 10:00-14:00, 15:00-20:00; Fr 09:00-14:00, 15:00-18:00", "phone": "+34 931775454", "website": "https://www.les1001dents.com/ca/"}}, {"type": "node", "id": 11103299086, "lat": 41.3753172, "lon": 2.1457923, "tags": {"amenity": "dentist", "healthcare": "dentist", "name": "Dentisalut", "opening_hours": "Mo-Fr 09:30-13:30,16:00-20:00; Sa 10:00-14:00", "phone": "+34 93 315 85 57", "website": "https://www.dentisalut.com/", "wheelchair": "yes"}}, {"type": "node", "id": 11241810776, "lat": 41.4023529, "lon": 2.1606189, "tags": {"addr:housenumber": "46", "addr:street": "Carrer de Puigmart\u00ed", "amenity": "dentist", "check_date": "2023-10-05", "healthcare": "dentist", "name": "Radent Cl\u00ednica Dental"}}, {"type": "node", "id": 11291344967, "lat": 41.3925499, "lon": 2.162914, "tags": {"addr:city": "Barcelona", "addr:housenumber": "247", "addr:street": "Carrer de Val\u00e8ncia", "amenity": "dentist", "healthcare": "dentist", "name": "Cl\u00ednica dental grup Bald\u00e9", "operator": "Grup Doctor Blad\u00e9"}}, {"type": "node", "id": 11339606880, "lat": 41.4053879, "lon": 2.1537206, "tags": {"amenity": "dentist", "check_date": "2023-11-10", "healthcare": "dentist", "name": "Cl\u00ednica Dental Sonriu amb Gr\u00e0cia"}}, {"type": "node", "id": 11443284869, "lat": 41.4208463, "lon": 2.2013837, "tags": {"addr:city": "Barcelona", "addr:housenumber": "138", "addr:postcode": "08020", "addr:street": "Carrer de Huelva", "amenity": "dentist", "healthcare": "dentist", "healthcare:speciality": "dentist", "name": "Odoimplant", "phone": "+34 93 498 78 90", "website": "https://odoimplant.com"}}, {"type": "node", "id": 11446257381, "lat": 41.3915865, "lon": 2.1416227, "tags": {"addr:city": "Barcelona", "addr:housenumber": "505", "addr:postcode": "08029", "addr:street": "Avinguda Diagonal", "addr:unit": "2-1", "amenity": "dentist", "healthcare": "dentist", "name": "Cl\u00ednica Prinon"}}, {"type": "node", "id": 11541920014, "lat": 41.3734205, "lon": 2.1168349, "tags": {"amenity": "dentist", "fixme": "Corregir nom", "name": "Cl\u00ednica Dental", "name:ca": "Cl\u00ednica Dental"}}, {"type": "node", "id": 11543669954, "lat": 41.4027393, "lon": 2.1610149, "tags": {"addr:city": "Barcelona", "addr:housenumber": "33", "addr:postcode": "08012", "addr:street": "Carrer de Puigmart\u00ed", "amenity": "dentist", "check_date": "2024-01-23", "healthcare": "dentist", "level": "0", "name": "Diego Caballero", "phone": "+34 932 37 02 87", "website": "https://www.caballerodentalclinic.com"}}, {"type": "node", "id": 11660285627, "lat": 41.4279648, "lon": 2.1658198, "tags": {"amenity": "dentist", "healthcare": "dentist", "name": "Cl\u00ednica Dental Dr. Carlos Saiz"}}, {"type": "node", "id": 11691713149, "lat": 41.4292921, "lon": 2.1938022, "tags": {"amenity": "dentist", "healthcare": "dentist", "name": "Cl\u00ednica Dental Buenas Nuevas"}}, {"type": "node", "id": 11694273048, "lat": 41.4002332, "lon": 2.1579773, "tags": {"amenity": "dentist", "healthcare": "dentist", "name": "Cl\u00ednica Dental Rius i Taulet"}}, {"type": "node", "id": 11834704494, "lat": 41.4297853, "lon": 2.1596498, "tags": {"amenity": "dentist", "healthcare": "dentist", "name": "Cl\u00ednica dental Abella Ribas"}}, {"type": "node", "id": 11876637062, "lat": 41.4068701, "lon": 2.1933706, "tags": {"amenity": "dentist"}}, {"type": "node", "id": 11896620728, "lat": 41.4272995, "lon": 2.1699214, "tags": {"amenity": "dentist", "healthcare": "dentist", "name": "Clinica odontol\u00f2gica raquel pe\u00f1a"}}, {"type": "node", "id": 11915745204, "lat": 41.3973315, "lon": 2.1637077, "tags": {"addr:housenumber": "361", "addr:street": "Avinguda Diagonal", "amenity": "dentist", "check_date": "2024-05-18", "healthcare": "dentist", "healthcare:speciality": "orthodontics", "name": "smile elims"}}, {"type": "node", "id": 12038127619, "lat": 41.3998598, "lon": 2.156456, "tags": {"amenity": "dentist", "healthcare": "dentist", "name": "ministral"}}, {"type": "node", "id": 12052843469, "lat": 41.3771987, "lon": 2.1195858, "tags": {"addr:housenumber": "37", "addr:street": "Travessera de les Corts", "amenity": "dentist", "name": "Alarc\u00f3n Clinic", "phone": "+34 619 45 80 69", "website": "https://alarconclinic.com/"}}, {"type": "node", "id": 12074781569, "lat": 41.3851606, "lon": 2.1331377, "tags": {"amenity": "dentist", "name": "Dra Barber\u00e1"}}, {"type": "node", "id": 12189779401, "lat": 41.4116296, "lon": 2.1696482, "tags": {"amenity": "dentist", "contact:instagram": "nartclinicadental", "name": "Nart Cl\u00ednica Dental", "website": "https://nartclinicadental.com/"}}, {"type": "node", "id": 12204891202, "lat": 41.414656, "lon": 2.1791587, "tags": {"amenity": "dentist"}}, {"type": "node", "id": 12209266501, "lat": 41.4081666, "lon": 2.1715162, "tags": {"addr:housenumber": "339", "addr:street": "Carrer de Lepant", "amenity": "dentist", "name": "CL\u00cdNICA DENTAL LEPANT", "phone": "934556356;611357477"}}, {"type": "node", "id": 12211863402, "lat": 41.409013, "lon": 2.1730547, "tags": {"amenity": "dentist", "name": "Sanitas"}}, {"type": "node", "id": 12271835525, "lat": 41.4020783, "lon": 2.1586317, "tags": {"addr:housenumber": "181", "addr:street": "Travessera de Gr\u00e0cia", "amenity": "dentist", "check_date": "2024-10-20", "healthcare": "dentist", "name": "Cl\u00ednica dental Travessera", "phone": "+34 932 10 08 15"}}, {"type": "node", "id": 12279035999, "lat": 41.399329, "lon": 2.1717276, "tags": {"addr:housenumber": "313-315", "addr:street": "Avinguda Diagonal", "amenity": "dentist", "check_date": "2024-10-22", "healthcare": "dentist", "name": "Cl\u00ednica Dental Sanitas", "opening_hours": "Mo-Fr 09:00-21:00", "operator": "Sanitas", "phone": "+34 936 34 40 60", "wheelchair": "yes"}}, {"type": "node", "id": 12396055301, "lat": 41.4038728, "lon": 2.17246, "tags": {"amenity": "dentist", "name": "Instituts Odontol\u00f2gics"}}, {"type": "node", "id": 12409413901, "lat": 41.4068653, "lon": 2.1715482, "tags": {"amenity": "dentist", "name": "Volardent"}}, {"type": "node", "id": 12460699935, "lat": 41.4139105, "lon": 2.1930571, "tags": {"addr:housenumber": "293-295", "addr:street": "Carrer d'Espronceda", "amenity": "dentist", "check_date": "2024-12-02", "healthcare": "dentist", "level": "0", "name": "Cl\u00ednica Dental Bacdental", "wheelchair": "no"}}, {"type": "node", "id": 12496218370, "lat": 41.3870933, "lon": 2.1539494, "tags": {"amenity": "dentist", "check_date": "2025-01-12", "healthcare": "dentist", "name": "Smartclinic"}}, {"type": "node", "id": 12593008577, "lat": 41.3952712, "lon": 2.1709443, "tags": {"amenity": "dentist", "check_date": "2025-02-16", "healthcare": "dentist", "name": "Clinica Dental Felipe"}}]}