{"version": 0.6, "generator": "Overpass API 0.7.62.5 1bd436f1", "osm3s": {"timestamp_osm_base": "2025-03-10T17:00:10Z", "copyright": "The data included in this document is from www.openstreetmap.org. The data is made available under ODbL."}, "elements": [{"type": "node", "id": 82781680, "lat": 41.4040146, "lon": 2.1568811, "tags": {"addr:housenumber": "32", "addr:postcode": "08012", "addr:street": "Carrer de Verdi", "amenity": "cinema", "check_date": "2023-05-01", "contact:instagram": "cinemesverdibarcelona", "name": "Cines Verdi Barcelona", "phone": "+34 932 38 79 90", "website": "https://www.cines-verdi.com/barcelona/", "wheelchair": "yes"}}, {"type": "node", "id": 82781682, "lat": 41.4043891, "lon": 2.1576461, "tags": {"addr:housenumber": "49", "addr:postcode": "08012", "addr:street": "Carrer de Torrijos", "amenity": "cinema", "check_date": "2023-11-05", "contact:instagram": "cinemesverdibarcelona", "name": "Verdi Park Barcelona", "opening_hours:signed": "no", "website": "https://www.cines-verdi.com/barcelona/"}}, {"type": "node", "id": 496060481, "lat": 41.393745, "lon": 2.1363579, "tags": {"addr:city": "Barcelona", "addr:full": "Carrer Santa Fe De Nou M\u00e8xic sn", "addr:postcode": "08017", "amenity": "cinema", "name": "Cinesa Diagonal", "wheelchair": "yes"}}, {"type": "node", "id": 673051320, "lat": 41.4053714, "lon": 2.1928801, "tags": {"addr:housenumber": "208", "addr:postcode": "08018", "addr:street": "Avinguda Diagonal", "amenity": "cinema", "contact:email": "info@grupbalana.com", "contact:phone": "+34 902424243", "contact:website": "http://www.grupbalana.com", "name": "Gl\u00f2ries Multicines", "name:ca": "Gl\u00f2ries Multicines", "toilets:wheelchair": "yes", "wheelchair": "yes"}}, {"type": "node", "id": 704066083, "lat": 41.3893894, "lon": 2.1675802, "tags": {"alt_name": "Cine Yelmo", "amenity": "cinema", "check_date": "2023-10-28", "name": "Comedia", "name:ca": "Com\u00e8dia", "name:es": "Comedia", "wikidata": "Q17597433", "wikimedia_commons": "Category:Cinema Com\u00e8dia", "wikipedia": "ca:Cinema Com\u00e8dia"}}, {"type": "node", "id": 775626754, "lat": 41.3787669, "lon": 2.1708257}, {"type": "node", "id": 1224403399, "lat": 41.3945822, "lon": 2.1340836, "tags": {"amenity": "cinema", "name": "Gran Sarria Multicines", "wheelchair": "yes"}}, {"type": "node", "id": 1602745842, "lat": 41.3786387, "lon": 2.170641}, {"type": "node", "id": 1951810406, "lat": 41.3996133, "lon": 2.1646019, "tags": {"addr:city": "Barcelona", "addr:country": "ES", "addr:housenumber": "175", "addr:postcode": "08009", "addr:street": "Carrer de Girona", "amenity": "cinema", "check_date": "2023-08-17", "name": "Cinemes Girona", "name:ca": "Cinemes Girona", "wheelchair": "yes", "wikidata": "Q108881020", "wikimedia_commons": "Category:Cinemes Girona", "wikipedia": "ca:Cinemes Girona"}}, {"type": "node", "id": 2395665922, "lat": 41.3952918, "lon": 2.1536309, "tags": {"addr:city": "Barcelona", "addr:housenumber": "508-510", "addr:postcode": "08006", "addr:street": "Avinguda Diagonal", "amenity": "cinema", "contact:email": "info@bolichecinemes.cat", "contact:phone": "+34 93 6243 127", "contact:website": "https://www.bolichecinemes.cat/", "name": "Cinemes Boliche", "wikidata": "Q11913820", "wikipedia": "ca:Boliche Cinemes"}}, {"type": "node", "id": 2560082111, "lat": 41.3815976, "lon": 2.1624664}, {"type": "node", "id": 2560082495, "lat": 41.3817547, "lon": 2.1626757}, {"type": "node", "id": 2560083054, "lat": 41.3819546, "lon": 2.1624133}, {"type": "node", "id": 2560083082, "lat": 41.3819633, "lon": 2.1619783}, {"type": "node", "id": 2560083339, "lat": 41.3820117, "lon": 2.1620433}, {"type": "node", "id": 2560083483, "lat": 41.3820737, "lon": 2.1621261}, {"type": "node", "id": 2560083623, "lat": 41.3821231, "lon": 2.1621921}, {"type": "node", "id": 2696299447, "lat": 41.4071913, "lon": 2.1386401, "tags": {"addr:city": "Barcelona", "addr:housenumber": "422 424", "addr:postcode": "08022", "addr:street": "Carrer de Balmes", "amenity": "cinema", "check_date": "2023-04-25", "name": "Balmes Multicines", "name:ca": "Balmes Multicines"}}, {"type": "node", "id": 3601249497, "lat": 41.4090866, "lon": 2.1718056, "tags": {"addr:city": "Barcelona", "addr:housenumber": "168", "addr:postcode": "08025", "addr:street": "Carrer de Sant Antoni Maria Claret", "air_conditioning": "yes", "amenity": "cinema", "cinema:3D": "no", "drive_in": "no", "email": "info@phenomena-experience.com", "name": "Phenomena", "payment:cash": "yes", "payment:coins": "yes", "payment:credit_cards": "no", "payment:debit_cards": "no", "payment:notes": "yes", "phone": "+34 932 52 77 43", "screen": "1", "toilets": "yes", "toilets:access": "customers", "website": "https://www.phenomena-experience.com/", "wikidata": "Q43019884", "wikipedia": "ca:Phenomena"}}, {"type": "node", "id": 3913663865, "lat": 41.4020472, "lon": 2.1636355, "tags": {"addr:city": "Barcelona", "addr:housenumber": "205", "addr:postcode": "08037", "addr:street": "Carrer de Bail\u00e8n", "alt_name": "Cinemes Texas", "amenity": "cinema", "bar": "yes", "contact:instagram": "https://www.instagram.com/espaitexasbcn/", "contact:twitter": "EspaiTexasBcn", "name": "Espai Texas", "name:ca": "Espai Texas", "old_name": "Cinemes Texas", "phone": "+34 933487748", "theatre": "yes", "website": "https://espaitexas.cat/", "wheelchair": "yes"}}, {"type": "node", "id": 3928572822, "lat": 41.3773203, "lon": 2.1450266, "tags": {"addr:city": "Barcelona", "addr:housenumber": "53", "addr:postcode": "08014", "addr:street": "Carrer de B\u00e9jar", "amenity": "cinema", "name": "Zumzeig", "opening_hours": "16:00-0:00"}}, {"type": "node", "id": 4326495653, "lat": 41.3832363, "lon": 2.1739003, "tags": {"addr:city": "Barcelona", "addr:housenumber": "5", "addr:place": "Galeries Mald\u00e0", "addr:postcode": "08002", "addr:street": "Carrer del Pi", "amenity": "cinema", "name": "Cinema Mald\u00e0", "opening_hours": "Mo-Su 14:00-23:30", "screen": "1", "website": "https://www.cinemamalda.com/", "wikidata": "Q11913829", "wikipedia": "ca:Cinema Mald\u00e0"}}, {"type": "node", "id": 4551543970, "lat": 41.3763433, "lon": 2.1490436, "tags": {"amenity": "cinema", "name": "Arenas de Barcelona", "wikidata": "Q11913814", "wikipedia": "ca:Cine Arenas (Barcelona)"}}, {"type": "node", "id": 4709933970, "lat": 41.3583166, "lon": 2.1283735, "tags": {"addr:city": "L'Hospitalet de Llobregat", "addr:country": "ES", "addr:housenumber": "75", "addr:postcode": "08908", "addr:street": "Avinguda de la Granvia de l'Hospitalet", "amenity": "cinema", "level": "1", "name": "Filmax Gran Via"}}, {"type": "node", "id": 4776903513, "lat": 41.3861016, "lon": 2.1625633, "tags": {"amenity": "cinema", "name": "Aribau Multicines", "name:ca": "Aribau Multicines", "wikidata": "Q30097460", "wikipedia": "ca:Cine Aribau"}}, {"type": "node", "id": 6163587877, "lat": 41.4017259, "lon": 2.1513906}, {"type": "node", "id": 6163587880, "lat": 41.4017049, "lon": 2.1513571}, {"type": "node", "id": 6163587881, "lat": 41.401758, "lon": 2.1516596}, {"type": "node", "id": 6163587883, "lat": 41.4012525, "lon": 2.1515433}, {"type": "node", "id": 6163589186, "lat": 41.4017908, "lon": 2.1517115}, {"type": "node", "id": 6163589190, "lat": 41.401742, "lon": 2.1517675}, {"type": "node", "id": 6163589191, "lat": 41.4016577, "lon": 2.151282}, {"type": "node", "id": 6163589193, "lat": 41.4014973, "lon": 2.1512687}, {"type": "node", "id": 6163589210, "lat": 41.4016105, "lon": 2.1512066}, {"type": "node", "id": 6163589223, "lat": 41.4013757, "lon": 2.1514051}, {"type": "node", "id": 6163589230, "lat": 41.4013932, "lon": 2.1517638}, {"type": "node", "id": 6163589246, "lat": 41.4016346, "lon": 2.15189}, {"type": "node", "id": 6163589271, "lat": 41.4018222, "lon": 2.1515443}, {"type": "node", "id": 6163589272, "lat": 41.4017659, "lon": 2.1517402}, {"type": "node", "id": 6163589316, "lat": 41.4015408, "lon": 2.151997}, {"type": "node", "id": 6163589348, "lat": 41.4017735, "lon": 2.1517315}, {"type": "node", "id": 6163589353, "lat": 41.4017795, "lon": 2.1517245}, {"type": "node", "id": 6163589367, "lat": 41.401679, "lon": 2.1518395}, {"type": "node", "id": 6163589492, "lat": 41.401289, "lon": 2.1515025}, {"type": "node", "id": 6163589530, "lat": 41.4012669, "lon": 2.1515272}, {"type": "node", "id": 6163589570, "lat": 41.401763, "lon": 2.1514498}, {"type": "node", "id": 6163589594, "lat": 41.4015629, "lon": 2.1519718}, {"type": "node", "id": 6163589597, "lat": 41.4013076, "lon": 2.1514814}, {"type": "node", "id": 6163589612, "lat": 41.4017687, "lon": 2.1516521}, {"type": "node", "id": 6163589616, "lat": 41.4015975, "lon": 2.1519324}, {"type": "node", "id": 6163589617, "lat": 41.401548, "lon": 2.1512441}, {"type": "node", "id": 6163589624, "lat": 41.4013527, "lon": 2.151431}, {"type": "node", "id": 6163589629, "lat": 41.4017407, "lon": 2.1514141}, {"type": "node", "id": 6163589678, "lat": 41.4017167, "lon": 2.1517963}, {"type": "node", "id": 7279913430, "lat": 41.3784918, "lon": 2.1711622}, {"type": "node", "id": 7279915693, "lat": 41.3785607, "lon": 2.1707364}, {"type": "node", "id": 7279915838, "lat": 41.3785726, "lon": 2.1710634, "tags": {"addr:housenumber": "1", "addr:postcode": "08001", "addr:street": "Pla\u00e7a de Salvador Segu\u00ed", "entrance": "yes"}}, {"type": "node", "id": 7279915860, "lat": 41.3786023, "lon": 2.1706856}, {"type": "node", "id": 7279915897, "lat": 41.3786872, "lon": 2.1709231}, {"type": "node", "id": 7279915929, "lat": 41.37873, "lon": 2.1708707}, {"type": "node", "id": 7279915962, "lat": 41.3784274, "lon": 2.1712395}, {"type": "node", "id": 7279916046, "lat": 41.3782992, "lon": 2.1710563}, {"type": "node", "id": 7279916049, "lat": 41.3785335, "lon": 2.1711112}, {"type": "node", "id": 9936987119, "lat": 41.4244728, "lon": 2.1194501, "tags": {"amenity": "cinema"}}, {"type": "node", "id": 11266526927, "lat": 41.4102196, "lon": 2.2165527, "tags": {"amenity": "cinema", "brand": "Cinesa", "brand:wikidata": "Q20732115", "level": "1", "level:ref": "3", "name": "Cinesa", "website": "https://www.cinesa.es/cines/diagonal-mar"}}, {"type": "way", "id": 132535607, "nodes": [6163587877, 6163589629, 6163589570, 6163589271, 6163589612, 6163587881, 6163589186, 6163589353, 6163589348, 6163589272, 6163589190, 6163589678, 6163589367, 6163589246, 6163589616, 6163589594, 6163589316, 6163589230, 6163587883, 6163589530, 6163589492, 6163589597, 6163589624, 6163589223, 6163589193, 6163589617, 6163589210, 6163589191, 6163587880, 6163587877], "tags": {"amenity": "cinema", "building": "public", "building:levels": "2", "building:levels:underground": "2", "name": "Cinema Bosque", "name:ca": "Cinema Bosque", "wheelchair": "no", "wikidata": "Q17588344", "wikimedia_commons": "Category:Cinemes Bosque", "wikipedia": "ca:Cinema Bosque"}}, {"type": "way", "id": 147085468, "nodes": [7279915929, 7279915897, 7279915838, 7279916049, 7279913430, 7279915962, 7279916046, 7279915693, 7279915860, 1602745842, 775626754, 7279915929], "tags": {"amenity": "cinema", "architect": "Mateo architects", "building": "public", "building:levels": "5", "building:levels:underground": "2", "contact:facebook": "https://es-es.facebook.com/filmotecadecatalunya/", "contact:instagram": "https://www.instagram.com/filmotecacat/", "contact:twitter": "https://twitter.com/filmotecacat", "contact:vimeo": "https://vimeo.com/filmotecacat", "contact:youtube": "https://www.youtube.com/user/filmotecacat", "name": "Filmoteca de Catalunya", "name:ca": "Filmoteca de Catalunya", "name:es": "Filmoteca de Catalu\u00f1a", "operator": "Generalitat de Catalunya", "website": "https://www.filmoteca.cat/", "wikidata": "Q4894418", "wikimedia_commons": "Category:Filmoteca de Catalunya", "wikipedia": "ca:Filmoteca de Catalunya"}}, {"type": "way", "id": 249402942, "nodes": [2560082495, 2560082111, 2560083082, 2560083339, 2560083483, 2560083623, 2560083054, 2560082495], "tags": {"addr:city": "Barcelona", "addr:housenumber": "135, 139", "addr:postcode": "08015", "addr:street": "Carrer de Floridablanca", "amenity": "cinema", "brand": "Renoir", "brand:wikidata": "Q21077391", "brand:wikipedia": "ca:Cines Renoir", "building": "retail", "height": "25", "name": "Renoir Floridablanca", "note": "One of the few cinemas that doesn't play dubbed films.", "phone": "+34 91 542 27 02", "source": "Ajuntament de Barcelona - CartoBCN (@2013-11-10);http://www.cinesrenoir.com/", "website": "https://www.cinesrenoir.com/", "wheelchair": "yes"}}]}