{"version": 0.6, "generator": "Overpass API 0.7.62.5 1bd436f1", "osm3s": {"timestamp_osm_base": "2025-03-10T17:03:07Z", "copyright": "The data included in this document is from www.openstreetmap.org. The data is made available under ODbL."}, "elements": [{"type": "node", "id": 966833834, "lat": 41.3636291, "lon": 2.1136714}, {"type": "node", "id": 1502974123, "lat": 41.4091036, "lon": 2.1610503, "tags": {"amenity": "nightclub", "name": "Canela Premium"}}, {"type": "node", "id": 1886635516, "lat": 41.393099, "lon": 2.1568896, "tags": {"addr:city": "Barcelona", "addr:country": "ES", "addr:housename": "Chica Club", "addr:housenumber": "217", "addr:postcode": "08008", "addr:street": "Carrer del Rossell\u00f3", "amenity": "nightclub", "contact:facebook": "https://www.facebook.com/chicaclubbcn", "email": "reservations@chicabcn.cat", "name": "Chica Club", "website": "https://www.chicabcn.cat"}}, {"type": "node", "id": 2056514582, "lat": 41.3755945, "lon": 2.1702374, "tags": {"amenity": "nightclub", "name": "Hell awaits"}}, {"type": "node", "id": 2056514584, "lat": 41.3738977, "lon": 2.1586905, "tags": {"amenity": "nightclub", "name": "Bonker"}}, {"type": "node", "id": 2056517880, "lat": 41.3805565, "lon": 2.1752496, "tags": {"amenity": "nightclub", "harassment_prevention": "No Callem", "name": "Sidecar", "sexual_antiharassment_policy": "yes", "sexual_antiharassment_policy:name": "NoCallem"}}, {"type": "node", "id": 2247748060, "lat": 41.3938378, "lon": 2.1532409, "tags": {"addr:housenumber": "193", "addr:street": "Carrer de Par\u00eds", "amenity": "nightclub", "name": "Club Astoria", "source": "+34619473901", "website": "https://www.clubastoriabcn.com/"}}, {"type": "node", "id": 2247754303, "lat": 41.3845653, "lon": 2.1545955, "tags": {"addr:housenumber": "141", "addr:street": "Carrer d'Arag\u00f3", "amenity": "nightclub", "name": "Antilla Latin Club", "opening_hours": "We 22:00-05:00; Th 23:00-05:00; Fr,Sa 23:00-06:00; Su 19:00-sunrise, PH-1day 23:00-05:00", "source": "+34 934 51 21 51", "website": "https://www.antillasalsa.com/", "wheelchair": "no"}}, {"type": "node", "id": 2247772387, "lat": 41.3786292, "lon": 2.1752978, "tags": {"addr:housenumber": "27", "addr:street": "la Rambla", "amenity": "nightclub", "name": "Boulevard Culture Club", "name:cs": "caramba", "source": "+34 662 30 43 01"}}, {"type": "node", "id": 2457866965, "lat": 41.3797128, "lon": 2.1751933, "tags": {"addr:housenumber": "18", "addr:street": "Pla\u00e7a Reial", "amenity": "nightclub", "check_date": "2024-07-20", "harassment_prevention": "No Callem", "name": "Jamboree", "sexual_antiharassment_policy": "yes", "sexual_antiharassment_policy:name": "NoCallem"}}, {"type": "node", "id": 2457874856, "lat": 41.3811234, "lon": 2.1784298, "tags": {"addr:city": "Barcelona", "addr:housenumber": "8", "addr:postcode": "08002", "addr:street": "Carrer de la Comtessa de Sobradiel", "amenity": "nightclub", "name": "Harlem Jazz Club", "phone": "+34 933 10 07 55", "smoking": "no", "website": "https://www.harlemjazzclub.es/"}}, {"type": "node", "id": 2498389547, "lat": 41.3808626, "lon": 2.1546055, "tags": {"alt_name": "Arena VIP;Club Dicks;Cuenca Club", "amenity": "nightclub", "harassment_prevention": "No Callem", "lgbtq": "primary", "name": "Sala Tango Noches", "opening_hours": "Fr-Sa 01:00-07:00", "operator": "Sala Tango", "sexual_antiharassment_policy": "yes", "sexual_antiharassment_policy:name": "NoCallem", "website": "https://www.salatango.com/"}}, {"type": "node", "id": 2498389550, "lat": 41.3884428, "lon": 2.1639901, "tags": {"amenity": "nightclub", "harassment_prevention": "No Callem", "name": "Ocean", "sexual_antiharassment_policy": "yes", "sexual_antiharassment_policy:name": "NoCallem"}}, {"type": "node", "id": 2498389551, "lat": 41.3884327, "lon": 2.1642261, "tags": {"amenity": "nightclub", "harassment_prevention": "No Callem", "lgbtq": "primary", "name": "Aire / Arena Cl\u00e0ssic", "sexual_antiharassment_policy": "yes", "sexual_antiharassment_policy:name": "NoCallem", "website": "https://grupoarena.com/sala-arena-classic/", "wheelchair": "no"}}, {"type": "node", "id": 2498389557, "lat": 41.3840336, "lon": 2.1634161, "tags": {"amenity": "nightclub", "lgbtq:men": "only", "name": "Metro"}}, {"type": "node", "id": 2522915521, "lat": 41.3808462, "lon": 2.1545811, "tags": {"addr:city": "Barcelona", "addr:housename": "Sala Tango", "addr:housenumber": "94", "addr:postcode": "08015", "addr:street": "Carrer de la Diputaci\u00f3", "amenity": "nightclub", "harassment_prevention": "No Callem", "name": "Sala de Fiestas Tango", "sexual_antiharassment_policy": "yes", "sexual_antiharassment_policy:name": "NoCallem", "website": "https://saladefiestastango.com/"}}, {"type": "node", "id": 2560091952, "lat": 41.3891821, "lon": 2.1368377}, {"type": "node", "id": 2560092172, "lat": 41.3894564, "lon": 2.1367109}, {"type": "node", "id": 2560092254, "lat": 41.3895725, "lon": 2.1375479}, {"type": "node", "id": 2560092256, "lat": 41.3895582, "lon": 2.1367067}, {"type": "node", "id": 2560092399, "lat": 41.3897331, "lon": 2.1373905}, {"type": "node", "id": 2560092409, "lat": 41.3895983, "lon": 2.1366503}, {"type": "node", "id": 2560092418, "lat": 41.3896092, "lon": 2.1366802}, {"type": "node", "id": 2879811887, "lat": 41.3794046, "lon": 2.1768641, "tags": {"addr:city": "Barcelona", "addr:housenumber": "5", "addr:postcode": "08002", "addr:street": "Carrer Nou de Sant Francesc", "amenity": "nightclub", "name": "Macarena Club", "website": "https://www.macarenaclub.com/"}}, {"type": "node", "id": 2910255021, "lat": 41.3959489, "lon": 2.1517438, "tags": {"addr:city": "Barcelona", "addr:housenumber": "13", "addr:street": "Carrer Tuset", "amenity": "nightclub", "contact:email": "info@suttonbarcelona.com", "contact:mobile": "+34 667 432 759", "contact:website": "https://www.suttonbarcelona.com/", "harassment_prevention": "No Callem", "name": "Sutton Club", "name:ca": "Sutton Club", "sexual_antiharassment_policy": "yes", "sexual_antiharassment_policy:name": "NoCallem"}}, {"type": "node", "id": 2923513235, "lat": 41.381261, "lon": 2.1143271, "tags": {"addr:city": "Barcelona", "addr:housenumber": "17", "addr:postcode": "08028", "addr:street": "Avinguda del Doctor Mara\u00f1\u00f3n", "amenity": "nightclub", "name": "Marhes The Club"}}, {"type": "node", "id": 3072968504, "lat": 41.3743908, "lon": 2.1695606, "tags": {"amenity": "nightclub", "harassment_prevention": "No Callem", "name": "Sala Apolo", "name:ca": "Sala Apolo", "sexual_antiharassment_policy": "yes", "sexual_antiharassment_policy:name": "NoCallem", "website": "https://www.sala-apolo.com", "wikidata": "Q20103353", "wikimedia_commons": "Category:Sala Apolo (Barcelona)", "wikipedia": "ca:Sala Apolo"}}, {"type": "node", "id": 3158729112, "lat": 41.4056064, "lon": 2.1621059, "tags": {"addr:city": "Barcelona", "addr:housenumber": "59,61", "addr:postcode": "08024", "addr:street": "Carrer de Bruniquer", "amenity": "nightclub", "check_date": "2024-05-05", "contact:facebook": "Almo2barBcn", "contact:instagram": "almo2bar_bcn", "contact:twitter": "Almo2bar", "email": "grupalmodobar@gmail.com", "harassment_prevention": "No Callem", "name": "Almo2bar", "opening_hours": "23:00-06:00", "phone": "+34 93 219 93 45", "sexual_antiharassment_policy": "yes", "sexual_antiharassment_policy:name": "NoCallem", "website": "https://grupalmodobar.com/almo2bar/", "wheelchair": "no"}}, {"type": "node", "id": 3481112677, "lat": 41.3858135, "lon": 2.1967637, "tags": {"addr:housenumber": "2-4", "addr:postcode": "08005", "addr:street": "Carrer de Ramon Trias Fargas", "amenity": "nightclub", "check_date": "2024-06-23", "name": "Latin Palace", "operator": "Otto's"}}, {"type": "node", "id": 3626838286, "lat": 41.3983986, "lon": 2.1807324, "tags": {"addr:city": "Barcelona", "addr:housenumber": "770", "addr:postcode": "08013", "addr:street": "Gran Via de les Corts Catalanes", "amenity": "nightclub", "name": "Nueva \u00c9poca", "phone": "+34 67 879 5040"}}, {"type": "node", "id": 3631295923, "lat": 41.4001094, "lon": 2.1503817, "tags": {"addr:city": "Barcelona", "addr:country": "ES", "addr:housenumber": "15", "addr:place": "Barcelona", "addr:postcode": "08006", "addr:street": "Carrer de Lincoln", "amenity": "nightclub", "harassment_prevention": "No Callem", "name": "Otto Zutz", "sexual_antiharassment_policy": "yes", "sexual_antiharassment_policy:name": "NoCallem"}}, {"type": "node", "id": 3815929018, "lat": 41.3892775, "lon": 2.1367948}, {"type": "node", "id": 3815929020, "lat": 41.3893715, "lon": 2.1372093}, {"type": "node", "id": 3815929024, "lat": 41.3894654, "lon": 2.137363}, {"type": "node", "id": 3815929028, "lat": 41.3895176, "lon": 2.1374487}, {"type": "node", "id": 3815929038, "lat": 41.3895896, "lon": 2.1368299, "tags": {"entrance": "main"}}, {"type": "node", "id": 3815929039, "lat": 41.3896037, "lon": 2.1366652, "tags": {"entrance": "yes"}}, {"type": "node", "id": 3815929047, "lat": 41.3896555, "lon": 2.1370888}, {"type": "node", "id": 3815929048, "lat": 41.3896593, "lon": 2.1371039}, {"type": "node", "id": 3815929050, "lat": 41.3897006, "lon": 2.1372666}, {"type": "node", "id": 3892711667, "lat": 41.3831657, "lon": 2.162742, "tags": {"addr:city": "Barcelona", "addr:housenumber": "178", "addr:postcode": "08011", "addr:street": "Carrer de Sep\u00falveda", "amenity": "nightclub", "check_date": "2025-02-19", "lgbtq": "primary", "name": "Museum", "opening_hours": "Fr-Sa 23:00-03:00", "wheelchair": "no"}}, {"type": "node", "id": 3961122030, "lat": 41.3783395, "lon": 2.1448682, "tags": {"addr:city": "Barcelona", "addr:housenumber": "141-157", "addr:postcode": "08014", "addr:street": "Carrer de Tarragona", "amenity": "nightclub", "contact:website": "http://www.safaridiscoclub.com", "harassment_prevention": "No Callem", "name": "Safari Disco Club", "sexual_antiharassment_policy": "yes", "sexual_antiharassment_policy:name": "NoCallem"}}, {"type": "node", "id": 4054769140, "lat": 41.3925144, "lon": 2.140693, "tags": {"addr:city": "Barcelona", "addr:housenumber": "5", "addr:postcode": "08021", "addr:street": "Pla\u00e7a de Joan Llongueras", "amenity": "nightclub", "name": "BeCool", "smoking": "no", "website": "http://www.salabecool.com/", "wheelchair": "no"}}, {"type": "node", "id": 4510939698, "lat": 41.3994275, "lon": 2.191124}, {"type": "node", "id": 4708595789, "lat": 41.3799209, "lon": 2.1862228, "tags": {"amenity": "nightclub", "name:en": "OneOcean Club"}}, {"type": "node", "id": 4712026039, "lat": 41.3798286, "lon": 2.1334164, "tags": {"amenity": "nightclub", "name": "Undeadarkclub"}}, {"type": "node", "id": 4773217122, "lat": 41.3852951, "lon": 2.172046, "tags": {"amenity": "nightclub", "name": "Rainbow Dragon", "name:es": "Rainbow Dragon"}}, {"type": "node", "id": 4958833022, "lat": 41.3849266, "lon": 2.1557, "tags": {"amenity": "nightclub", "name": "Open Mind", "name:en": "Open Mind", "name:es": "Open Mind", "opening_hours": "Mo-Th 23:00-04:00; Fr 23:00-07:00; Sa 23:00-08:00; Su 19:00-08:00", "phone": "+34934510479", "website": "https://www.openmindbcn.com/"}}, {"type": "node", "id": 4958833624, "lat": 41.3842982, "lon": 2.1587144, "tags": {"addr:housenumber": "161", "addr:postcode": "08011", "addr:street": "Carrer de la Diputaci\u00f3", "amenity": "nightclub", "email": "info@nightbarcelona.net", "name": "Nightbarcelona", "name:en": "Nightbarcelona", "name:es": "Nightbarcelona", "opening_hours": "Mo-Fr 18:00-02:30; Sa-Su 18:00-03:00", "phone": "+34935031701", "website": "https://www.nightbarcelona.net/", "wheelchair": "no"}}, {"type": "node", "id": 4958849921, "lat": 41.3743162, "lon": 2.1561764, "tags": {"addr:city": "Barcelona", "addr:housenumber": "18", "addr:postcode": "08004", "addr:street": "Passatge de Prunera", "amenity": "nightclub", "lgbtq": "primary", "lgbtq:men": "only", "name": "Berlin Dark", "name:en": "Berlin Dark", "name:es": "Berlin Dark", "opening_hours": "Mo-Th 22:30-02:30; Fr 22:30-03:00; Sa 22:30-03:00; Su 21:30-01:30", "phone": "+34635773955", "website": "http://www.berlindark.com"}}, {"type": "node", "id": 4958889874, "lat": 41.3877311, "lon": 2.1682772, "tags": {"addr:housenumber": "2-4", "addr:postcode": "08007", "addr:street": "Rambla de Catalunya", "amenity": "nightclub", "name": "The Black Room", "name:en": "The Black Room", "name:es": "The Black Room", "opening_hours": "Sa-Su 23:00-05:00"}}, {"type": "node", "id": 5052323721, "lat": 41.4062568, "lon": 2.1564886, "tags": {"addr:city": "Barcelona", "addr:housenumber": "30-32", "addr:street": "Carrer de la Provid\u00e8ncia", "amenity": "nightclub", "min_age": "18", "name": "Continental", "name:ca": "Continental"}}, {"type": "node", "id": 5206544217, "lat": 41.3744995, "lon": 2.1148664, "tags": {"amenity": "nightclub", "name": "Caribe Caliente", "name:es": "Caribe Caliente"}}, {"type": "node", "id": 5539845612, "lat": 41.383278, "lon": 2.1894771, "tags": {"amenity": "nightclub", "name": "Zahara Cocktail Club"}}, {"type": "node", "id": 5554720357, "lat": 41.3972784, "lon": 2.1910762, "tags": {"amenity": "nightclub", "harassment_prevention": "No Callem", "name": "Razzmatazz sales 2 & 3", "name:ca": "Razzmatazz sales 2 i 3", "opening_hours": "\"Depending on the concert\"", "sexual_antiharassment_policy": "yes", "sexual_antiharassment_policy:name": "NoCallem", "smoking": "outside"}}, {"type": "node", "id": 5663248080, "lat": 41.3788563, "lon": 2.1749439, "tags": {"addr:street": "La Rambla, el Raval", "amenity": "nightclub", "name": "R33"}}, {"type": "node", "id": 5663251369, "lat": 41.3689262, "lon": 2.149236, "tags": {"addr:street": "Pla\u00e7a de la Font", "amenity": "nightclub", "name": "La Terazza"}}, {"type": "node", "id": 6038913886, "lat": 41.4036783, "lon": 2.1675289, "tags": {"addr:housenumber": "36", "addr:street": "Carrer d'en Grassot", "amenity": "nightclub", "contact:facebook": "AlmodobarBCN", "contact:instagram": "almodobar_bcn", "contact:twitter": "Almodobarbcn", "email": "grupalmodobar@gmail.com", "harassment_prevention": "No Callem", "name": "Almodobar", "phone": "+34 932073855", "sexual_antiharassment_policy": "yes", "sexual_antiharassment_policy:name": "NoCallem", "website": "https://grupalmodobar.com/almodobar/"}}, {"type": "node", "id": 6119838168, "lat": 41.3984205, "lon": 2.2000611, "tags": {"addr:city": "Barcelona", "addr:housenumber": "33", "addr:postcode": "08005", "addr:street": "Carrer de Roc Boronat", "entrance": "yes"}}, {"type": "node", "id": 6119838177, "lat": 41.3982169, "lon": 2.1998935}, {"type": "node", "id": 6119842199, "lat": 41.3983803, "lon": 2.2001144}, {"type": "node", "id": 6119842203, "lat": 41.3984531, "lon": 2.2000179}, {"type": "node", "id": 6119842243, "lat": 41.3982877, "lon": 2.1997939}, {"type": "node", "id": 6125180391, "lat": 41.3895792, "lon": 2.1367892}, {"type": "node", "id": 6125180412, "lat": 41.3896244, "lon": 2.1369665}, {"type": "node", "id": 6125180461, "lat": 41.3897195, "lon": 2.1373402}, {"type": "node", "id": 6125180481, "lat": 41.3896424, "lon": 2.1370375}, {"type": "node", "id": 6139033077, "lat": 41.3970111, "lon": 2.1920045, "tags": {"amenity": "nightclub", "name": "Dixi 724", "name:ca": "Dixi 724", "smoking": "outside", "wheelchair": "yes"}}, {"type": "node", "id": 6139033189, "lat": 41.3977318, "lon": 2.1910699, "tags": {"addr:housenumber": "122-124", "addr:postcode": "08018", "addr:street": "Carrer dels Almog\u00e0vers", "entrance": "yes"}}, {"type": "node", "id": 6139033221, "lat": 41.3977582, "lon": 2.1912705}, {"type": "node", "id": 6139033227, "lat": 41.397742, "lon": 2.1912914}, {"type": "node", "id": 6139033238, "lat": 41.3977298, "lon": 2.191307}, {"type": "node", "id": 6139033251, "lat": 41.3973493, "lon": 2.1913141}, {"type": "node", "id": 6139033254, "lat": 41.397637, "lon": 2.1909421}, {"type": "node", "id": 6139033257, "lat": 41.3973627, "lon": 2.1913315}, {"type": "node", "id": 6139033281, "lat": 41.3975087, "lon": 2.1911081}, {"type": "node", "id": 6139033289, "lat": 41.397821, "lon": 2.1911901}, {"type": "node", "id": 6139033315, "lat": 41.3975356, "lon": 2.191556}, {"type": "node", "id": 6387346287, "lat": 41.3945996, "lon": 2.1490385, "tags": {"addr:city": "Barcelona", "addr:housenumber": "246", "addr:postcode": "08021", "addr:street": "Carrer de Muntaner", "amenity": "nightclub", "harassment_prevention": "No Callem", "name": "Luz de Gas", "sexual_antiharassment_policy": "yes", "sexual_antiharassment_policy:name": "NoCallem", "smoking": "no", "wikidata": "Q11934306", "wikimedia_commons": "Category:Luz de Gas", "wikipedia": "ca:Luz de Gas"}}, {"type": "node", "id": 6416001329, "lat": 41.3994529, "lon": 2.191158, "tags": {"addr:housenumber": "78", "addr:postcode": "08018", "addr:street": "Carrer de Sancho de \u00c0vila", "entrance": "yes"}}, {"type": "node", "id": 6416001349, "lat": 41.3993564, "lon": 2.1913838}, {"type": "node", "id": 6416001368, "lat": 41.3993626, "lon": 2.1913879}, {"type": "node", "id": 6416003590, "lat": 41.3994653, "lon": 2.1911745}, {"type": "node", "id": 6416003626, "lat": 41.3993238, "lon": 2.1913617}, {"type": "node", "id": 6543118810, "lat": 41.3728751, "lon": 2.1680013, "tags": {"addr:city": "Barcelona", "addr:housenumber": "145", "addr:street": "Carrer Nou de la Rambla", "amenity": "nightclub", "check_date": "2023-07-18", "harassment_prevention": "No Callem", "name": "Plataforma", "sexual_antiharassment_policy": "yes", "sexual_antiharassment_policy:name": "NoCallem", "smoking": "no"}}, {"type": "node", "id": 6854723168, "lat": 41.3972085, "lon": 2.1600197, "tags": {"addr:housenumber": "327", "addr:street": "Carrer de Corsega", "amenity": "nightclub", "name": "Imperator", "phone": "+34932 374322", "wheelchair": "no"}}, {"type": "node", "id": 7042784186, "lat": 41.3688468, "lon": 2.1468564, "tags": {"addr:housenumber": "13", "addr:postcode": "08038", "addr:street": "Av. Francesc Ferrer i Gu\u00e0rdia", "amenity": "nightclub", "name:en": "INPUT", "website": "https://www.inputbcn.com/"}}, {"type": "node", "id": 8658397927, "lat": 41.3957578, "lon": 2.1497718, "tags": {"addr:housenumber": "242", "addr:street": "Carrer d'Aribau", "amenity": "nightclub", "contact:website": "https://www.discotecabarrokos.com/", "name": "Barroko's"}}, {"type": "node", "id": 8685951182, "lat": 41.3952962, "lon": 2.1503847, "tags": {"addr:housenumber": "230", "addr:street": "Carrer d'Aribau", "amenity": "nightclub", "contact:email": "hola@grupocostabreve.com", "contact:phone": "+34 93 0241184", "contact:website": "https://grupocostabreve.com/", "name": "Costa Breve", "opening_hours": "Th 00:00-05:00; Fr,Sa 00:00-06:00"}}, {"type": "node", "id": 9800778917, "lat": 41.3842012, "lon": 2.1472514, "tags": {"amenity": "nightclub", "name": "Ilusion"}}, {"type": "node", "id": 9801832818, "lat": 41.3855135, "lon": 2.1430297, "tags": {"addr:housenumber": "214", "addr:street": "Carrer d'Enten\u00e7a", "amenity": "nightclub", "name:en": "Skylab"}}, {"type": "node", "id": 9807002422, "lat": 41.3726526, "lon": 2.1420577, "tags": {"addr:city": "Barcelona", "addr:postcode": "08014", "amenity": "nightclub", "name:en": "Genius"}}, {"type": "node", "id": 9823573921, "lat": 41.3936124, "lon": 2.1580101, "tags": {"amenity": "nightclub", "check_date": "2024-10-26", "name:en": "Twenties"}}, {"type": "node", "id": 9868296417, "lat": 41.3902777, "lon": 2.1462355, "tags": {"addr:housenumber": "8", "addr:street": "Avinguda de Sarri\u00e0", "amenity": "nightclub", "name:en": "Pink Lady"}}, {"type": "node", "id": 9947913817, "lat": 41.375239, "lon": 2.1885695, "tags": {"amenity": "nightclub", "contact:instagram": "clubsoda.bcn", "name": "Club Soda", "survey:date": "2022-08-11"}}, {"type": "node", "id": 9989243217, "lat": 41.3737857, "lon": 2.1697111, "tags": {"amenity": "nightclub", "name:en": "Laut"}}, {"type": "node", "id": 10091572577, "lat": 41.3954764, "lon": 2.1521881, "tags": {"addr:housenumber": "1", "addr:street": "Carrer de Moi\u00e0", "amenity": "nightclub", "name": "La Biblio"}}, {"type": "node", "id": 10649981205, "lat": 41.3895686, "lon": 2.1739427, "tags": {"addr:housenumber": "19-21", "addr:postcode": "08010", "addr:street": "Ronda de Sant Pere", "amenity": "nightclub", "name": "Arena", "name:en": "Arena Xperience", "name:es": "Arena Xperience", "name:fr": "Arena Xperience", "opening_hours": "Su-Th 23:59-05:00; Fr-Sa 23:59-06:00", "phone": "+34934875140", "website": "https://grupoarena.com/"}}, {"type": "node", "id": 11690535934, "lat": 41.3918937, "lon": 2.1500484, "tags": {"addr:city": "Barcelona", "addr:housenumber": "171", "addr:postcode": "08036", "addr:street": "Carrer de Casanova", "amenity": "nightclub", "name": "La Fira Casanova", "website": "https://lafiragroup.com"}}, {"type": "node", "id": 11754186627, "lat": 41.3637204, "lon": 2.1135392}, {"type": "node", "id": 11754186628, "lat": 41.3637425, "lon": 2.1135227}, {"type": "node", "id": 11754186629, "lat": 41.3637323, "lon": 2.1134658}, {"type": "node", "id": 11754186630, "lat": 41.363589, "lon": 2.1135729}, {"type": "node", "id": 11754186631, "lat": 41.3637425, "lon": 2.1135931}, {"type": "node", "id": 12060303191, "lat": 41.363713, "lon": 2.1136135}, {"type": "node", "id": 12077033449, "lat": 41.3743555, "lon": 2.1695179, "tags": {"amenity": "nightclub", "contact:instagram": "nitsa_club", "live_music": "yes", "name": "Nitsa Club"}}, {"type": "node", "id": 12244682322, "lat": 41.3958866, "lon": 2.1886684, "tags": {"addr:housenumber": "86", "addr:street": "Carrer dels Almog\u00e0vers", "amenity": "nightclub", "check_date": "2024-10-11", "name": "Wolf"}}, {"type": "node", "id": 12246183831, "lat": 41.382371, "lon": 2.1642234, "tags": {"addr:city": "Barcelona", "addr:housenumber": "27", "addr:postcode": "08001", "addr:street": "Carrer del Tigre", "amenity": "nightclub", "email": "info@lapaloma.com", "name": "La Paloma", "phone": "+34 933 016 897", "website": "https://lapaloma.com"}}, {"type": "way", "id": 249402011, "nodes": [2560091952, 3815929018, 2560092172, 2560092409, 3815929039, 2560092418, 2560092256, 6125180391, 3815929038, 6125180412, 6125180481, 3815929047, 3815929048, 3815929050, 6125180461, 2560092399, 2560092254, 3815929028, 3815929024, 3815929020, 2560091952], "tags": {"addr:city": "Barcelona", "addr:housenumber": "547", "addr:street": "Avinguda Diagonal", "amenity": "nightclub", "building": "retail", "harassment_prevention": "No Callem", "layer": "-1", "level": "-1", "location": "underground", "name": "Sala Bikini", "name:ca": "Sala Bikini", "sexual_antiharassment_policy": "yes", "sexual_antiharassment_policy:name": "NoCallem", "source": "Ajuntament de Barcelona - CartoBCN (@2013-11-10)", "wikidata": "Q11946658", "wikimedia_commons": "Category:Sala Bikini (Barcelona)", "wikipedia": "ca:Sala Bikini"}}, {"type": "way", "id": 426162558, "nodes": [6139033221, 6139033227, 6139033238, 6139033315, 6139033257, 6139033251, 6139033281, 6139033254, 6139033189, 6139033289, 6139033221], "tags": {"amenity": "nightclub", "building": "public", "building:levels": "3", "contact:instagram": "razzmatazzclubs", "email": "inforazz@salarazzmatazz.com", "harassment_prevention": "No Callem", "live_music": "yes", "name": "Razzmatazz", "name:ca": "Razzmatazz", "opening_hours": "\"Depending on the concert\"", "phone": "+3493 320 82 00", "roof:shape": "flat", "sexual_antiharassment_policy": "yes", "sexual_antiharassment_policy:name": "NoCallem", "smoking": "outside", "website": "https://www.salarazzmatazz.com/", "wikidata": "Q249462", "wikimedia_commons": "Category:Sala Razzmatazz", "wikipedia": "ca:Razzmatazz"}}, {"type": "way", "id": 652925610, "nodes": [6119842199, 6119838177, 6119842243, 6119842203, 6119838168, 6119842199], "tags": {"amenity": "nightclub", "building": "industrial", "building:levels": "2", "name": "Sala B\u00f3veda"}}, {"type": "way", "id": 684764234, "nodes": [6416003626, 4510939698, 6416001329, 6416003590, 6416001368, 6416001349, 6416003626], "tags": {"amenity": "nightclub", "building": "retail", "building:levels": "1", "name": "BeGood Club", "name:en": "BeGood Club", "name:es": "BeGood Club", "phone": "+34933007161", "website": "https://begoodclub.com/"}}, {"type": "way", "id": 1265334796, "nodes": [11754186631, 12060303191, 966833834, 11754186630, 11754186629, 11754186628, 11754186627, 11754186631], "tags": {"amenity": "nightclub", "building": "yes", "name": "Discoteca Juanchito"}}]}