{"version": 0.6, "generator": "Overpass API 0.7.62.5 1bd436f1", "osm3s": {"timestamp_osm_base": "2025-03-10T17:01:09Z", "copyright": "The data included in this document is from www.openstreetmap.org. The data is made available under ODbL."}, "elements": [{"type": "node", "id": 89156912, "lat": 41.3803836, "lon": 2.1734235}, {"type": "node", "id": 89156913, "lat": 41.3801129, "lon": 2.1739357}, {"type": "node", "id": 196391570, "lat": 41.3759466, "lon": 2.1673377, "tags": {"addr:housenumber": "22", "addr:street": "Carrer de les Flors", "amenity": "theatre", "contact:email": "teatre@tantarantana.com", "contact:phone": "+34 934417022", "contact:website": "http://www.tantarantana.com", "name": "Teatre Tantarantana", "name:ca": "Teatre Tantarantana", "wikidata": "Q11951029", "wikipedia": "ca:Teatre Tantarantana"}}, {"type": "node", "id": 441597033, "lat": 41.3805321, "lon": 2.1710813, "tags": {"amenity": "theatre", "contact:email": "info@teatreromea.com", "contact:website": "http://www.teatreromea.com/", "name": "Teatre Romea", "name:ca": "Teatre Romea", "wikidata": "Q4569267", "wikimedia_commons": "Category:Teatre Romea", "wikipedia": "ca:Teatre Romea (Barcelona)"}}, {"type": "node", "id": 559426315, "lat": 41.3688722, "lon": 2.1544073}, {"type": "node", "id": 559426316, "lat": 41.3688478, "lon": 2.1543425}, {"type": "node", "id": 595384323, "lat": 41.384087, "lon": 2.164267, "tags": {"amenity": "theatre", "name": "Teatre Goya", "name:ca": "Teatre Goya", "wikidata": "Q18008292", "wikimedia_commons": "Category:Teatre Goya", "wikipedia": "ca:Teatre Goya (Barcelona)"}}, {"type": "node", "id": 672398198, "lat": 41.3840778, "lon": 2.1707374, "tags": {"amenity": "theatre", "name": "Poliorama", "name:ca": "Poliorama", "old_name": "Teatre Catal\u00e0 de la Com\u00e8dia", "wikidata": "Q3982102", "wikipedia": "ca:Teatre Poliorama"}}, {"type": "node", "id": 691591941, "lat": 41.3849977, "lon": 2.1707085, "tags": {"amenity": "theatre", "name": "Club Capitol", "name:ca": "Club Capitol", "wikidata": "Q8347023", "wikipedia": "ca:Club Capitol"}}, {"type": "node", "id": 803442610, "lat": 41.3719575, "lon": 2.1553129}, {"type": "node", "id": 803442614, "lat": 41.3718385, "lon": 2.1554164}, {"type": "node", "id": 803442616, "lat": 41.3715049, "lon": 2.1556206}, {"type": "node", "id": 803442627, "lat": 41.3714809, "lon": 2.1555396}, {"type": "node", "id": 803442634, "lat": 41.3714027, "lon": 2.1555949}, {"type": "node", "id": 803442638, "lat": 41.3711794, "lon": 2.155012}, {"type": "node", "id": 803442643, "lat": 41.3711026, "lon": 2.1548256}, {"type": "node", "id": 803442648, "lat": 41.371715, "lon": 2.1544164}, {"type": "node", "id": 819660808, "lat": 41.3720068, "lon": 2.1551831}, {"type": "node", "id": 826460662, "lat": 41.4000876, "lon": 2.1848119}, {"type": "node", "id": 826460665, "lat": 41.4003061, "lon": 2.1845243}, {"type": "node", "id": 826460668, "lat": 41.400876, "lon": 2.1852856}, {"type": "node", "id": 826460671, "lat": 41.4006582, "lon": 2.1855722}, {"type": "node", "id": 826460705, "lat": 41.4001208, "lon": 2.1850178}, {"type": "node", "id": 826460711, "lat": 41.4004979, "lon": 2.1855178}, {"type": "node", "id": 826460713, "lat": 41.3997697, "lon": 2.1864715}, {"type": "node", "id": 826460716, "lat": 41.3994027, "lon": 2.1859829}, {"type": "node", "id": 961000741, "lat": 41.372552, "lon": 2.1177841, "tags": {"addr:city": "l'Hospitalet de Llobregat", "addr:housenumber": "10", "addr:postcode": "08904", "addr:street": "Carrer Joventut", "amenity": "theatre", "name": "Teatre Joventut", "name:ca": "Teatre Joventut", "website": "http://www.teatrejoventut.cat", "wikidata": "Q11951009", "wikimedia_commons": "Category:Teatre Joventut", "wikipedia": "ca:Teatre Joventut"}}, {"type": "node", "id": 1092685661, "lat": 41.3745513, "lon": 2.1672449, "tags": {"amenity": "theatre", "name": "El Molino", "name:ca": "El Molino", "wikidata": "Q3753567", "wikimedia_commons": "Category:El Molino", "wikipedia": "ca:El Molino"}}, {"type": "node", "id": 1092685763, "lat": 41.3748027, "lon": 2.1687428, "tags": {"amenity": "theatre", "name": "Teatre Vict\u00f2ria", "name:ca": "Teatre Vict\u00f2ria", "old_name": "Teatre Soriano", "wikidata": "Q9082199", "wikimedia_commons": "Category:Teatre Vict\u00f2ria", "wikipedia": "ca:Teatre Vict\u00f2ria (Barcelona)"}}, {"type": "node", "id": 1092685767, "lat": 41.3747462, "lon": 2.1703632, "tags": {"amenity": "theatre", "name": "Teatre Apolo", "name:ca": "Teatre Apolo", "wikidata": "Q1780066", "wikimedia_commons": "Category:Teatre Apolo (Barcelona)", "wikipedia": "ca:Teatre Apolo (Barcelona)"}}, {"type": "node", "id": 1377225923, "lat": 41.4025338, "lon": 2.1545216, "tags": {"addr:city": "Barcelona", "addr:housenumber": "6;8", "addr:postcode": "08012", "addr:street": "Travessia de Sant Antoni", "amenity": "theatre", "check_date": "2024-11-16", "name": "Centre Artesa Tradicionarius", "wheelchair": "yes"}}, {"type": "node", "id": 1495434412, "lat": 41.3693684, "lon": 2.1598658}, {"type": "node", "id": 1495434413, "lat": 41.3696836, "lon": 2.1598926}, {"type": "node", "id": 1495434415, "lat": 41.3696885, "lon": 2.159729}, {"type": "node", "id": 1495434417, "lat": 41.369348, "lon": 2.1597327}, {"type": "node", "id": 1502974121, "lat": 41.4047787, "lon": 2.1994806, "tags": {"addr:housenumber": "228-232", "addr:postcode": "08005", "addr:street": "Carrer de Pere IV", "entrance": "yes"}}, {"type": "node", "id": 1711343680, "lat": 41.3743883, "lon": 2.1349158, "tags": {"addr:city": "Barcelona", "addr:housenumber": "72,74,76", "addr:postcode": "08014", "addr:street": "Carrer d'Antoni de Capmany", "amenity": "theatre", "name": "Sants Teatre del Centre", "name:ca": "Sants Teatre del Centre"}}, {"type": "node", "id": 1711347295, "lat": 41.3718421, "lon": 2.1406718, "tags": {"addr:city": "Barcelona", "addr:postcode": "08014", "amenity": "theatre", "name": "Sala FlyHard", "wikidata": "Q104551147", "wikipedia": "ca:Sala Flyhard"}}, {"type": "node", "id": 1808937559, "lat": 41.3954683, "lon": 2.1263538}, {"type": "node", "id": 1808937575, "lat": 41.3955388, "lon": 2.1262622}, {"type": "node", "id": 1808937581, "lat": 41.3955609, "lon": 2.1262384}, {"type": "node", "id": 1808937592, "lat": 41.3956419, "lon": 2.126619}, {"type": "node", "id": 1808937599, "lat": 41.3956623, "lon": 2.1262829}, {"type": "node", "id": 1808937616, "lat": 41.3957067, "lon": 2.1266275}, {"type": "node", "id": 1808937617, "lat": 41.3957353, "lon": 2.1265156}, {"type": "node", "id": 1808937618, "lat": 41.3957615, "lon": 2.1263225}, {"type": "node", "id": 1808937622, "lat": 41.395789, "lon": 2.1263519}, {"type": "node", "id": 1999038874, "lat": 41.3704125, "lon": 2.1575201, "tags": {"addr:housenumber": "40-46", "addr:postcode": "08004", "addr:street": "Passeig de Santa Madrona", "entrance": "yes"}}, {"type": "node", "id": 2086220192, "lat": 41.3841161, "lon": 2.162911, "tags": {"addr:city": "Barcelona", "addr:housenumber": "4", "addr:street": "Carrer de Muntaner", "amenity": "theatre", "contact:website": "http://salamuntaner.com", "name": "Teatre Muntaner", "ref:vatin": "ESB60883964"}}, {"type": "node", "id": 2136122201, "lat": 41.3851859, "lon": 2.1823507, "tags": {"addr:city": "Barcelona", "addr:housenumber": "40", "addr:postcode": "08003", "addr:street": "Carrer dels Flassaders", "amenity": "theatre", "name": "La Seca Espai Brossa", "phone": "+34 933 15 15 96", "website": "http://www.laseca.cat/", "wheelchair": "yes", "wheelchair:description": "Teatro completamente accesible"}}, {"type": "node", "id": 2137848684, "lat": 41.3981282, "lon": 2.1863495}, {"type": "node", "id": 2137848685, "lat": 41.3992811, "lon": 2.1848781}, {"type": "node", "id": 2137848686, "lat": 41.3990489, "lon": 2.1843935}, {"type": "node", "id": 2137848687, "lat": 41.3989523, "lon": 2.1844371}, {"type": "node", "id": 2137848688, "lat": 41.3993219, "lon": 2.1847594}, {"type": "node", "id": 2137848689, "lat": 41.3992568, "lon": 2.1848457}, {"type": "node", "id": 2137848690, "lat": 41.3978218, "lon": 2.1859411}, {"type": "node", "id": 2137848691, "lat": 41.3977912, "lon": 2.1861594}, {"type": "node", "id": 2137848692, "lat": 41.3989839, "lon": 2.1844797}, {"type": "node", "id": 2137848693, "lat": 41.3983565, "lon": 2.1861067}, {"type": "node", "id": 2137848696, "lat": 41.3981743, "lon": 2.1863482}, {"type": "node", "id": 2175860846, "lat": 41.3711305, "lon": 2.1568367}, {"type": "node", "id": 2175860847, "lat": 41.371254, "lon": 2.1571611}, {"type": "node", "id": 2175860850, "lat": 41.3706555, "lon": 2.1571446}, {"type": "node", "id": 2175860854, "lat": 41.3713308, "lon": 2.1571576}, {"type": "node", "id": 2175908050, "lat": 41.3714239, "lon": 2.1567724}, {"type": "node", "id": 2181551034, "lat": 41.398859, "lon": 2.1854377}, {"type": "node", "id": 2181551035, "lat": 41.3988947, "lon": 2.1857084}, {"type": "node", "id": 2181551036, "lat": 41.3989783, "lon": 2.1855975}, {"type": "node", "id": 2181551037, "lat": 41.3987764, "lon": 2.1855499}, {"type": "node", "id": 2204579800, "lat": 41.4032396, "lon": 2.1585587, "tags": {"addr:city": "Barcelona", "addr:housenumber": "26", "addr:place": "Vila de Gr\u00e0cia", "addr:postcode": "08012", "addr:street": "Carrer de Terol", "amenity": "theatre", "check_date": "2023-11-11", "contact:email": "info@teatreneu.com", "contact:fax": "+34 932843087", "contact:phone": "+34 932853712", "name": "Teatreneu", "name:ca": "Teatreneu", "website": "http://www.teatreneu.com/", "wikidata": "Q18008300", "wikimedia_commons": "Category:Teatreneu", "wikipedia": "ca:Teatreneu"}}, {"type": "node", "id": 2239783080, "lat": 41.3675954, "lon": 2.1550041}, {"type": "node", "id": 2239783085, "lat": 41.3675961, "lon": 2.1549927}, {"type": "node", "id": 2239783092, "lat": 41.3675963, "lon": 2.1550154}, {"type": "node", "id": 2239783095, "lat": 41.3675982, "lon": 2.1549817}, {"type": "node", "id": 2239783097, "lat": 41.3675987, "lon": 2.1550263}, {"type": "node", "id": 2239783132, "lat": 41.3676018, "lon": 2.1549714}, {"type": "node", "id": 2239783135, "lat": 41.3676025, "lon": 2.1550365}, {"type": "node", "id": 2239783149, "lat": 41.3676067, "lon": 2.1549621}, {"type": "node", "id": 2239783151, "lat": 41.3676076, "lon": 2.1550456}, {"type": "node", "id": 2239783158, "lat": 41.3676128, "lon": 2.1549542}, {"type": "node", "id": 2239783161, "lat": 41.3676138, "lon": 2.1550533}, {"type": "node", "id": 2239783171, "lat": 41.367621, "lon": 2.1550595}, {"type": "node", "id": 2239783174, "lat": 41.3676199, "lon": 2.1549478}, {"type": "node", "id": 2239783182, "lat": 41.3676277, "lon": 2.1549432}, {"type": "node", "id": 2239783184, "lat": 41.3676289, "lon": 2.1550638}, {"type": "node", "id": 2239783189, "lat": 41.367636, "lon": 2.1549405}, {"type": "node", "id": 2239783190, "lat": 41.3676372, "lon": 2.1550662}, {"type": "node", "id": 2239783193, "lat": 41.3676458, "lon": 2.1550665}, {"type": "node", "id": 2239783195, "lat": 41.3676445, "lon": 2.1549398}, {"type": "node", "id": 2239783202, "lat": 41.367653, "lon": 2.1549412}, {"type": "node", "id": 2239783203, "lat": 41.3676542, "lon": 2.1550649}, {"type": "node", "id": 2239783209, "lat": 41.3676623, "lon": 2.1550612}, {"type": "node", "id": 2239783211, "lat": 41.3676611, "lon": 2.1549446}, {"type": "node", "id": 2239783214, "lat": 41.3676697, "lon": 2.1550557}, {"type": "node", "id": 2239783215, "lat": 41.3676687, "lon": 2.1549498}, {"type": "node", "id": 2239783219, "lat": 41.3676754, "lon": 2.1549568}, {"type": "node", "id": 2239783221, "lat": 41.3676763, "lon": 2.1550485}, {"type": "node", "id": 2239783226, "lat": 41.3676811, "lon": 2.1549653}, {"type": "node", "id": 2239783228, "lat": 41.3676819, "lon": 2.1550398}, {"type": "node", "id": 2239783231, "lat": 41.3676856, "lon": 2.154975}, {"type": "node", "id": 2239783232, "lat": 41.3676862, "lon": 2.15503}, {"type": "node", "id": 2239783235, "lat": 41.3676887, "lon": 2.1549855}, {"type": "node", "id": 2239783236, "lat": 41.367689, "lon": 2.1550193}, {"type": "node", "id": 2239783237, "lat": 41.3676903, "lon": 2.1549967}, {"type": "node", "id": 2239783239, "lat": 41.3676905, "lon": 2.1550081}, {"type": "node", "id": 2262724136, "lat": 41.3692759, "lon": 2.1597395}, {"type": "node", "id": 2262724138, "lat": 41.3692835, "lon": 2.1596533}, {"type": "node", "id": 2262724140, "lat": 41.3692922, "lon": 2.1596173}, {"type": "node", "id": 2262724141, "lat": 41.3692977, "lon": 2.1595971}, {"type": "node", "id": 2262724143, "lat": 41.369311, "lon": 2.1595608}, {"type": "node", "id": 2262724146, "lat": 41.3693244, "lon": 2.1595323}, {"type": "node", "id": 2262724148, "lat": 41.3693395, "lon": 2.1595094}, {"type": "node", "id": 2262724149, "lat": 41.3693679, "lon": 2.159475}, {"type": "node", "id": 2262724150, "lat": 41.3693768, "lon": 2.159464}, {"type": "node", "id": 2262724153, "lat": 41.3693982, "lon": 2.1594459}, {"type": "node", "id": 2262724158, "lat": 41.3694227, "lon": 2.1594282}, {"type": "node", "id": 2262724160, "lat": 41.3694657, "lon": 2.1594117}, {"type": "node", "id": 2262724162, "lat": 41.3694814, "lon": 2.1594063}, {"type": "node", "id": 2262724164, "lat": 41.369494, "lon": 2.1594046}, {"type": "node", "id": 2262724165, "lat": 41.3695556, "lon": 2.1594053}, {"type": "node", "id": 2262724169, "lat": 41.3696005, "lon": 2.1594199}, {"type": "node", "id": 2262724171, "lat": 41.3696281, "lon": 2.1594361}, {"type": "node", "id": 2262724173, "lat": 41.3696507, "lon": 2.1594548}, {"type": "node", "id": 2262724174, "lat": 41.3696816, "lon": 2.1594858}, {"type": "node", "id": 2262724175, "lat": 41.3697089, "lon": 2.159524}, {"type": "node", "id": 2262724177, "lat": 41.3697218, "lon": 2.1595499}, {"type": "node", "id": 2262724178, "lat": 41.369737, "lon": 2.1595856}, {"type": "node", "id": 2262724179, "lat": 41.3697532, "lon": 2.1596466}, {"type": "node", "id": 2262724180, "lat": 41.3697581, "lon": 2.1597266}, {"type": "node", "id": 2262848429, "lat": 41.3782536, "lon": 2.1748213}, {"type": "node", "id": 2262848435, "lat": 41.3782715, "lon": 2.1748375}, {"type": "node", "id": 2264166346, "lat": 41.3752079, "lon": 2.1701661}, {"type": "node", "id": 2264166351, "lat": 41.3752847, "lon": 2.1698867}, {"type": "node", "id": 2264166390, "lat": 41.3759285, "lon": 2.170908}, {"type": "node", "id": 2264166452, "lat": 41.3762058, "lon": 2.1711932}, {"type": "node", "id": 2264166481, "lat": 41.3764019, "lon": 2.1708938}, {"type": "node", "id": 2264440401, "lat": 41.3711691, "lon": 2.1569385}, {"type": "node", "id": 2264440403, "lat": 41.3712108, "lon": 2.1561962}, {"type": "node", "id": 2264602288, "lat": 41.3994828, "lon": 2.1860907}, {"type": "node", "id": 2264602310, "lat": 41.3996881, "lon": 2.1863628}, {"type": "node", "id": 2264602347, "lat": 41.4000838, "lon": 2.1850662}, {"type": "node", "id": 2264602354, "lat": 41.4003121, "lon": 2.1845318}, {"type": "node", "id": 2264602356, "lat": 41.4004461, "lon": 2.1855852}, {"type": "node", "id": 2266369575, "lat": 41.3682118, "lon": 2.1470445}, {"type": "node", "id": 2266369589, "lat": 41.3682447, "lon": 2.1470204}, {"type": "node", "id": 2266369607, "lat": 41.3682693, "lon": 2.1469382}, {"type": "node", "id": 2266369615, "lat": 41.3682811, "lon": 2.14693}, {"type": "node", "id": 2266369621, "lat": 41.3682896, "lon": 2.1469872}, {"type": "node", "id": 2266369626, "lat": 41.368293, "lon": 2.1472512}, {"type": "node", "id": 2266369629, "lat": 41.3682994, "lon": 2.1469812}, {"type": "node", "id": 2266369631, "lat": 41.3683094, "lon": 2.1469749}, {"type": "node", "id": 2266369637, "lat": 41.3683229, "lon": 2.1469816}, {"type": "node", "id": 2266369646, "lat": 41.3683321, "lon": 2.1469755}, {"type": "node", "id": 2266369649, "lat": 41.3683482, "lon": 2.1470188}, {"type": "node", "id": 2266369664, "lat": 41.3683828, "lon": 2.1471113}, {"type": "node", "id": 2266369678, "lat": 41.3684067, "lon": 2.1471733}, {"type": "node", "id": 2292708426, "lat": 41.4008224, "lon": 2.2002019}, {"type": "node", "id": 2292708428, "lat": 41.4008755, "lon": 2.200019}, {"type": "node", "id": 2292708431, "lat": 41.4009173, "lon": 2.2000772}, {"type": "node", "id": 2292708433, "lat": 41.4009452, "lon": 2.2000387}, {"type": "node", "id": 2292708437, "lat": 41.4009068, "lon": 2.2003172}, {"type": "node", "id": 2292708443, "lat": 41.4009767, "lon": 2.2000801}, {"type": "node", "id": 2292708447, "lat": 41.4010289, "lon": 2.2000118}, {"type": "node", "id": 2292908701, "lat": 41.4043625, "lon": 2.1996801}, {"type": "node", "id": 2292908717, "lat": 41.4045285, "lon": 2.1998546}, {"type": "node", "id": 2450650969, "lat": 41.4199421, "lon": 2.1899241}, {"type": "node", "id": 2486105470, "lat": 41.4027189, "lon": 2.1559586, "tags": {"addr:city": "Barcelona", "addr:housenumber": "47", "addr:street": "Carrer del Montseny", "amenity": "theatre", "contact:phone": "+34932387625", "contact:website": "http://www.teatrelliure.com", "name": "Lliure", "name:ca": "Lliure", "wheelchair": "limited", "wikidata": "Q2713554", "wikipedia": "ca:Teatre Lliure"}}, {"type": "node", "id": 2558451075, "lat": 41.3877482, "lon": 2.1682551, "tags": {"addr:housenumber": "2-4", "addr:postcode": "08007", "addr:street": "Rambla de Catalunya", "amenity": "theatre", "check_date": "2023-04-25", "contact:facebook": "flamencobarcelonacity", "contact:instagram": "flamencobarcelonacityhall", "email": "Flamencobarcelonacityhall@gmail.com", "harassment_prevention": "No Callem", "name": "City Hall", "name:en": "City Hall Theatre", "name:es": "Teatro City Hall", "name:fr": "Th\u00e9\u00e2tre City Hall", "opening_hours": "Mo-Su 17:10-23:00", "sexual_antiharassment_policy": "yes", "sexual_antiharassment_policy:name": "NoCallem", "source": "survey", "website": "https://flamencobarcelonacity.com/"}}, {"type": "node", "id": 2560090774, "lat": 41.3880753, "lon": 2.1660449}, {"type": "node", "id": 2560090907, "lat": 41.3882213, "lon": 2.1658525}, {"type": "node", "id": 2560090962, "lat": 41.3882732, "lon": 2.1663132}, {"type": "node", "id": 2560091115, "lat": 41.388361, "lon": 2.1656694}, {"type": "node", "id": 2560091140, "lat": 41.3883791, "lon": 2.1656956}, {"type": "node", "id": 2560091180, "lat": 41.3884013, "lon": 2.1661389}, {"type": "node", "id": 2560091236, "lat": 41.3884474, "lon": 2.1657947}, {"type": "node", "id": 2560091333, "lat": 41.3885439, "lon": 2.1659516}, {"type": "node", "id": 2633991615, "lat": 41.3636041, "lon": 2.1431923, "tags": {"amenity": "theatre", "name": "Teatro de los sentidos", "website": "http://www.teatro de los sentidos.com"}}, {"type": "node", "id": 2968921904, "lat": 41.4028862, "lon": 2.1588995, "tags": {"addr:housenumber": "35", "addr:postcode": "08012", "addr:street": "Carrer de Ram\u00f3n y Cajal", "amenity": "theatre", "check_date": "2023-10-14", "contact:email": "info@casadelcontes.com", "contact:instagram": "casadelscontes", "name": "La Casa de los Contos", "name:ca": "La Casa dels Contes", "name:es": "La Casa de los Cuentos", "phone": "+34 697 47 27 09", "website": "https://www.casadelscontes.com", "wheelchair": "no"}}, {"type": "node", "id": 3096906054, "lat": 41.3793223, "lon": 2.1650025, "tags": {"addr:city": "Barcelona", "addr:housenumber": "12", "addr:postcode": "08001", "addr:street": "Carrer de Sant Antoni Abat", "amenity": "theatre", "check_date": "2024-09-24", "contact:email": "teatredelraval@teatredelraval.com", "contact:phone": "+34 93 443 38 19", "contact:phone:ticket_office": "+34 93 443 39 99", "contact:website": "http://www.teatredelraval.com/contacte/", "name": "Teatre del Raval", "name:ca": "Teatre del Raval", "wikidata": "Q11951057", "wikipedia": "ca:Teatre del Raval"}}, {"type": "node", "id": 3140065853, "lat": 41.3994281, "lon": 2.1859486}, {"type": "node", "id": 3140065854, "lat": 41.399454, "lon": 2.1859134}, {"type": "node", "id": 3140065855, "lat": 41.399478, "lon": 2.1858813}, {"type": "node", "id": 3140065856, "lat": 41.3994853, "lon": 2.1860873}, {"type": "node", "id": 3140065857, "lat": 41.3994921, "lon": 2.1858519}, {"type": "node", "id": 3140065858, "lat": 41.3994966, "lon": 2.1858574}, {"type": "node", "id": 3140065863, "lat": 41.3996904, "lon": 2.186359}, {"type": "node", "id": 3140065868, "lat": 41.3997959, "lon": 2.1864376}, {"type": "node", "id": 3140065869, "lat": 41.3998215, "lon": 2.1864031}, {"type": "node", "id": 3140065870, "lat": 41.3998465, "lon": 2.1863708}, {"type": "node", "id": 3140065871, "lat": 41.3998646, "lon": 2.1863468}, {"type": "node", "id": 3140065872, "lat": 41.399869, "lon": 2.1863525}, {"type": "node", "id": 3140083581, "lat": 41.3977469, "lon": 2.1861}, {"type": "node", "id": 3140083582, "lat": 41.3978442, "lon": 2.1859711}, {"type": "node", "id": 3140083583, "lat": 41.3978893, "lon": 2.1860293}, {"type": "node", "id": 3140083584, "lat": 41.3981519, "lon": 2.1863181}, {"type": "node", "id": 3140114530, "lat": 41.3977874, "lon": 2.1861542}, {"type": "node", "id": 3140114535, "lat": 41.3980275, "lon": 2.1856675}, {"type": "node", "id": 3140114547, "lat": 41.3982249, "lon": 2.1854048}, {"type": "node", "id": 3140114563, "lat": 41.3985195, "lon": 2.1854517}, {"type": "node", "id": 3140114565, "lat": 41.3985255, "lon": 2.1852361}, {"type": "node", "id": 3140114567, "lat": 41.3985543, "lon": 2.1858445}, {"type": "node", "id": 3140114572, "lat": 41.3986687, "lon": 2.1848145}, {"type": "node", "id": 3140114573, "lat": 41.3986804, "lon": 2.1854438}, {"type": "node", "id": 3140114575, "lat": 41.3986862, "lon": 2.1852292}, {"type": "node", "id": 3140114577, "lat": 41.3987355, "lon": 2.1849537}, {"type": "node", "id": 3140114579, "lat": 41.3987676, "lon": 2.1846829}, {"type": "node", "id": 3140114584, "lat": 41.3988923, "lon": 2.1851648}, {"type": "node", "id": 3140114585, "lat": 41.3989061, "lon": 2.1844986}, {"type": "node", "id": 3140114587, "lat": 41.3989119, "lon": 2.1847202}, {"type": "node", "id": 3140114588, "lat": 41.3989313, "lon": 2.1847326}, {"type": "node", "id": 3140114589, "lat": 41.3989614, "lon": 2.1847584}, {"type": "node", "id": 3140114590, "lat": 41.3989906, "lon": 2.1847878}, {"type": "node", "id": 3140114591, "lat": 41.3989997, "lon": 2.1852512}, {"type": "node", "id": 3140114592, "lat": 41.3990106, "lon": 2.1844443}, {"type": "node", "id": 3140114593, "lat": 41.3990162, "lon": 2.1848223}, {"type": "node", "id": 3140114595, "lat": 41.3990373, "lon": 2.184858}, {"type": "node", "id": 3140114596, "lat": 41.3990555, "lon": 2.1848969}, {"type": "node", "id": 3140114597, "lat": 41.3990683, "lon": 2.1849318}, {"type": "node", "id": 3140114601, "lat": 41.3990948, "lon": 2.1851251}, {"type": "node", "id": 3140114602, "lat": 41.3992364, "lon": 2.1849373}, {"type": "node", "id": 3140114604, "lat": 41.3992836, "lon": 2.1848102}, {"type": "node", "id": 3455944125, "lat": 41.3799115, "lon": 2.1732741}, {"type": "node", "id": 3455944127, "lat": 41.3804354, "lon": 2.173473}, {"type": "node", "id": 3522230415, "lat": 41.3956736, "lon": 2.1725544}, {"type": "node", "id": 3522230416, "lat": 41.3958536, "lon": 2.1728065}, {"type": "node", "id": 3522230417, "lat": 41.3956917, "lon": 2.1725731}, {"type": "node", "id": 3522230418, "lat": 41.3955659, "lon": 2.1727783}, {"type": "node", "id": 3522230419, "lat": 41.3955709, "lon": 2.1726898}, {"type": "node", "id": 3522230420, "lat": 41.3958919, "lon": 2.1727515}, {"type": "node", "id": 3522230421, "lat": 41.3957259, "lon": 2.1725316}, {"type": "node", "id": 3522230422, "lat": 41.3957068, "lon": 2.1729647}, {"type": "node", "id": 3522230423, "lat": 41.3955941, "lon": 2.172726}, {"type": "node", "id": 3522230424, "lat": 41.3958426, "lon": 2.1727998}, {"type": "node", "id": 3551202852, "lat": 41.4158456, "lon": 2.1991619}, {"type": "node", "id": 3551202863, "lat": 41.4159875, "lon": 2.1992745}, {"type": "node", "id": 3551202867, "lat": 41.416041, "lon": 2.1991365}, {"type": "node", "id": 3551202868, "lat": 41.4160446, "lon": 2.1993512}, {"type": "node", "id": 3551202870, "lat": 41.4160711, "lon": 2.1988657}, {"type": "node", "id": 3551202872, "lat": 41.4161225, "lon": 2.1992429}, {"type": "node", "id": 3551202875, "lat": 41.416158, "lon": 2.1989822}, {"type": "node", "id": 3805966096, "lat": 41.3875278, "lon": 2.1756274}, {"type": "node", "id": 3805966097, "lat": 41.3877756, "lon": 2.1749959}, {"type": "node", "id": 3805966098, "lat": 41.3878929, "lon": 2.1751612}, {"type": "node", "id": 3805966099, "lat": 41.3872747, "lon": 2.1752823}, {"type": "node", "id": 3884061274, "lat": 41.3875806, "lon": 2.1749259}, {"type": "node", "id": 3884061276, "lat": 41.3876212, "lon": 2.1748925}, {"type": "node", "id": 3884061278, "lat": 41.3876285, "lon": 2.1749011}, {"type": "node", "id": 3884061280, "lat": 41.3876544, "lon": 2.1748722}, {"type": "node", "id": 3884061284, "lat": 41.3876968, "lon": 2.174804}, {"type": "node", "id": 3884061285, "lat": 41.3877856, "lon": 2.1749835}, {"type": "node", "id": 3889101384, "lat": 41.3872862, "lon": 2.175258}, {"type": "node", "id": 3889101406, "lat": 41.3874558, "lon": 2.1755664}, {"type": "node", "id": 3889101408, "lat": 41.3875072, "lon": 2.1756297}, {"type": "node", "id": 3889101412, "lat": 41.3875859, "lon": 2.1749014}, {"type": "node", "id": 3889101414, "lat": 41.3875931, "lon": 2.1748926}, {"type": "node", "id": 3889101416, "lat": 41.3876023, "lon": 2.1748879}, {"type": "node", "id": 3889101420, "lat": 41.3876466, "lon": 2.1748599}, {"type": "node", "id": 3890611568, "lat": 41.3711744, "lon": 2.1550152}, {"type": "node", "id": 3890611576, "lat": 41.371651, "lon": 2.1555412}, {"type": "node", "id": 3890611577, "lat": 41.3719229, "lon": 2.1552418}, {"type": "node", "id": 3952724196, "lat": 41.3693942, "lon": 2.1599118}, {"type": "node", "id": 4049180562, "lat": 41.3877322, "lon": 2.1748594}, {"type": "node", "id": 4049180564, "lat": 41.3877185, "lon": 2.1748345}, {"type": "node", "id": 4049180565, "lat": 41.3877604, "lon": 2.1749247}, {"type": "node", "id": 4065001015, "lat": 41.4015887, "lon": 2.164673, "tags": {"addr:city": "Barcelona", "addr:housenumber": "194", "addr:postcode": "08037", "addr:street": "Carrer de Bail\u00e8n", "alt_name": "Sala Pangol\u00ed", "amenity": "theatre", "check_date": "2024-03-13", "name": "Microteatre Barcelona", "phone": "+34 93 277 96 83", "website": "http://microteatrebarcelona.com", "wheelchair": "yes"}}, {"type": "node", "id": 4090180417, "lat": 41.3845106, "lon": 2.1574535, "tags": {"addr:city": "Barcelona", "addr:housenumber": "87", "addr:postcode": "08011", "addr:street": "Carrer de Villarroel", "amenity": "theatre", "name": "La Villarroel", "name:ca": "La Villarroel", "operator": "Grup Focus", "phone": "+34934511234", "website": "https://www.lavillarroel.cat", "wheelchair": "yes", "wikidata": "Q11930951", "wikimedia_commons": "Category:La Villarroel", "wikipedia": "ca:La Villarroel"}}, {"type": "node", "id": 4254671048, "lat": 41.3888056, "lon": 2.17027, "tags": {"amenity": "theatre", "name": "Teatre T\u00edvoli", "name:ca": "Teatre T\u00edvoli", "wheelchair": "limited", "wikidata": "Q5101816", "wikimedia_commons": "Category:Teatre T\u00edvoli (Barcelona)", "wikipedia": "ca:Teatre T\u00edvoli (Barcelona)"}}, {"type": "node", "id": 4305198866, "lat": 41.4157519, "lon": 2.1992142}, {"type": "node", "id": 4305198868, "lat": 41.4157803, "lon": 2.1991633}, {"type": "node", "id": 4305198870, "lat": 41.415811, "lon": 2.1993179}, {"type": "node", "id": 4305198871, "lat": 41.4158187, "lon": 2.1991259}, {"type": "node", "id": 4305198873, "lat": 41.4158886, "lon": 2.1993967}, {"type": "node", "id": 4305198874, "lat": 41.4159267, "lon": 2.1993619}, {"type": "node", "id": 4305198875, "lat": 41.4159553, "lon": 2.1993089}, {"type": "node", "id": 4305198876, "lat": 41.4159582, "lon": 2.1993127}, {"type": "node", "id": 4334559547, "lat": 41.4200352, "lon": 2.1897854}, {"type": "node", "id": 4334559565, "lat": 41.4202366, "lon": 2.1898932}, {"type": "node", "id": 4334559571, "lat": 41.4201996, "lon": 2.1900403}, {"type": "node", "id": 4386702393, "lat": 41.3847112, "lon": 2.1813669, "tags": {"amenity": "theatre", "name": "Palau Dalmases"}}, {"type": "node", "id": 4507233219, "lat": 41.3788618, "lon": 2.1674882, "tags": {"addr:city": "Barcelona", "addr:housenumber": "7", "addr:postcode": "08001", "addr:street": "Carrer de la Riereta", "alt_name": "El Llantiol", "amenity": "theatre", "contact:email": "info@llantiol.com", "contact:facebook": "https://www.facebook.com/pages/Caf%C3%A8-Teatre-Llantiol/105743666179621", "contact:phone": "+34 933 299 009", "contact:twitter": "Llantiol", "name": "Caf\u00e8-Teatre el Llantiol", "name:ca": "Caf\u00e8-Teatre el Llantiol", "theatre:genre": "stand_up_comedy", "website": "http://llantiol.com/", "wikidata": "Q17600633", "wikipedia": "ca:El Llantiol"}}, {"type": "node", "id": 4551460226, "lat": 41.4000068, "lon": 2.2032634}, {"type": "node", "id": 4715298441, "lat": 41.4012074, "lon": 2.2002488}, {"type": "node", "id": 4725707889, "lat": 41.3747886, "lon": 2.1647518, "tags": {"amenity": "theatre", "name": "Condal", "name:ca": "Condal", "name:es": "Condal", "wikidata": "Q965351", "wikimedia_commons": "Category:Teatre Condal", "wikipedia": "ca:Teatre Condal"}}, {"type": "node", "id": 4787970260, "lat": 41.4047238, "lon": 2.1996334}, {"type": "node", "id": 4787970262, "lat": 41.4045687, "lon": 2.1998961}, {"type": "node", "id": 4787970904, "lat": 41.4048028, "lon": 2.1995005}, {"type": "node", "id": 4787973289, "lat": 41.4045829, "lon": 2.1993182}, {"type": "node", "id": 4851290023, "lat": 41.3871392, "lon": 2.1759819, "tags": {"amenity": "theatre", "name": "L'Antic Teatre", "name:ca": "L'Antic Teatre", "wikidata": "Q11951052", "wikimedia_commons": "Category:Cercle Barcelon\u00e8s de Sant Josep", "wikipedia": "ca:Teatre del Cercle Barcelon\u00e8s de Sant Josep"}}, {"type": "node", "id": 4968681298, "lat": 41.3716143, "lon": 2.1569306, "tags": {"amenity": "theatre", "name": "sala Ovidi Montllor", "name:etymology:wikidata": "Q2734296"}}, {"type": "node", "id": 5001130370, "lat": 41.3888477, "lon": 2.1735904, "tags": {"addr:housenumber": "9", "addr:street": "Pla\u00e7a d'Urquinaona", "amenity": "theatre", "contact:phone": "+34 934121582", "name": "Teatre Borr\u00e0s", "name:ca": "Teatre Borr\u00e0s", "operator": "Grup Bala\u00f1a", "wikidata": "Q11950998", "wikimedia_commons": "Category:Teatre Borr\u00e0s", "wikipedia": "ca:Teatre Borr\u00e0s"}}, {"type": "node", "id": 5235701360, "lat": 41.3989019, "lon": 2.1849328, "tags": {"amenity": "theatre", "name": "Sala 2 Oriol Martorell", "operator": "L'Auditori", "theatre:genre": "chamber_music"}}, {"type": "node", "id": 5235701361, "lat": 41.398234, "lon": 2.1858287, "tags": {"amenity": "theatre", "name": "Sala 1 Pau Casals", "operator": "L'Auditori", "theatre:genre": "philharmonic"}}, {"type": "node", "id": 5235703140, "lat": 41.3986786, "lon": 2.1855739, "tags": {"amenity": "theatre", "name": "Sala 4 Alicia de Larrocha", "operator": "L'Auditori"}}, {"type": "node", "id": 5235703141, "lat": 41.3984452, "lon": 2.1852359, "tags": {"amenity": "theatre", "name": "Sala 3 Tete Montoliu", "operator": "L'Auditori"}}, {"type": "node", "id": 5268115897, "lat": 41.3881657, "lon": 2.1661657, "tags": {"addr:city": "Barcelona", "addr:housenumber": "595-599", "addr:street": "Gran Via de les Corts Catalanes", "entrance": "yes"}}, {"type": "node", "id": 5320917346, "lat": 41.369792, "lon": 2.1379041}, {"type": "node", "id": 5320917347, "lat": 41.3698777, "lon": 2.137811}, {"type": "node", "id": 5791801353, "lat": 41.3927386, "lon": 2.147171, "tags": {"amenity": "theatre", "name": "Teatre Akademia"}}, {"type": "node", "id": 5791835753, "lat": 41.3968292, "lon": 2.1560889, "tags": {"amenity": "theatre", "name": "Jove Teatre Regina", "name:ca": "Jove Teatre Regina", "wikidata": "Q18006198", "wikimedia_commons": "Category:Jove Teatre Regina", "wikipedia": "ca:Jove Teatre Regina"}}, {"type": "node", "id": 5827436775, "lat": 41.3781969, "lon": 2.1750091}, {"type": "node", "id": 5863322773, "lat": 41.3697458, "lon": 2.1378329}, {"type": "node", "id": 5863322778, "lat": 41.3697445, "lon": 2.1376152}, {"type": "node", "id": 5863322781, "lat": 41.3696592, "lon": 2.1377055}, {"type": "node", "id": 6052932393, "lat": 41.4046905, "lon": 2.1994074, "tags": {"entrance": "main"}}, {"type": "node", "id": 6052932398, "lat": 41.4044235, "lon": 2.1995763}, {"type": "node", "id": 6052932399, "lat": 41.4044773, "lon": 2.1994847}, {"type": "node", "id": 6052932408, "lat": 41.4045768, "lon": 2.199316}, {"type": "node", "id": 6052932409, "lat": 41.4045815, "lon": 2.1993169}, {"type": "node", "id": 6052932410, "lat": 41.4045784, "lon": 2.1993154}, {"type": "node", "id": 6052932411, "lat": 41.4045751, "lon": 2.1993184}, {"type": "node", "id": 6052932412, "lat": 41.4045849, "lon": 2.1998391}, {"type": "node", "id": 6052932416, "lat": 41.4045628, "lon": 2.1995752}, {"type": "node", "id": 6052932417, "lat": 41.4045754, "lon": 2.1997993}, {"type": "node", "id": 6052932418, "lat": 41.4045837, "lon": 2.1996374}, {"type": "node", "id": 6052932420, "lat": 41.4045677, "lon": 2.1995669}, {"type": "node", "id": 6052932424, "lat": 41.4046028, "lon": 2.1996046}, {"type": "node", "id": 6052932425, "lat": 41.4045648, "lon": 2.199817}, {"type": "node", "id": 6052932426, "lat": 41.4045479, "lon": 2.1996004}, {"type": "node", "id": 6052932428, "lat": 41.4045961, "lon": 2.1998209}, {"type": "node", "id": 6055668322, "lat": 41.4011264, "lon": 2.2001413, "tags": {"addr:housenumber": "176-178", "addr:postcode": "08005", "addr:street": "Carrer de Pujades", "entrance": "yes"}}, {"type": "node", "id": 6055668369, "lat": 41.4010524, "lon": 2.200456}, {"type": "node", "id": 6055668370, "lat": 41.4010302, "lon": 2.2004857}, {"type": "node", "id": 6055668685, "lat": 41.4011258, "lon": 2.2003577}, {"type": "node", "id": 6055668686, "lat": 41.4010777, "lon": 2.2004222}, {"type": "node", "id": 6055668698, "lat": 41.4011275, "lon": 2.2003556}, {"type": "node", "id": 6055668774, "lat": 41.4008178, "lon": 2.2000952}, {"type": "node", "id": 6055668908, "lat": 41.4011627, "lon": 2.2003085}, {"type": "node", "id": 6055668914, "lat": 41.4008682, "lon": 2.2000287}, {"type": "node", "id": 6055668919, "lat": 41.4008486, "lon": 2.2000545}, {"type": "node", "id": 6055668946, "lat": 41.4008058, "lon": 2.2001791}, {"type": "node", "id": 6055669246, "lat": 41.4010707, "lon": 2.2004316}, {"type": "node", "id": 6055669250, "lat": 41.4009848, "lon": 2.2004237}, {"type": "node", "id": 6055669262, "lat": 41.4008297, "lon": 2.2002118}, {"type": "node", "id": 6055669264, "lat": 41.400793, "lon": 2.2001279}, {"type": "node", "id": 6055669265, "lat": 41.4007787, "lon": 2.2001469}, {"type": "node", "id": 6055669409, "lat": 41.4007983, "lon": 2.200121}, {"type": "node", "id": 6061381984, "lat": 41.3999273, "lon": 2.203155}, {"type": "node", "id": 6061383795, "lat": 41.399833, "lon": 2.2031507, "tags": {"addr:housenumber": "42", "addr:postcode": "08005", "addr:street": "Rambla del Poblenou", "entrance": "yes"}}, {"type": "node", "id": 6061383801, "lat": 41.3997153, "lon": 2.2033989}, {"type": "node", "id": 6061383816, "lat": 41.3997732, "lon": 2.2034663}, {"type": "node", "id": 6061383822, "lat": 41.3997614, "lon": 2.2034526}, {"type": "node", "id": 6061383865, "lat": 41.3999925, "lon": 2.2036277}, {"type": "node", "id": 6061383870, "lat": 41.3996851, "lon": 2.2033638}, {"type": "node", "id": 6061383928, "lat": 41.4000737, "lon": 2.2035004}, {"type": "node", "id": 6061383940, "lat": 41.399715, "lon": 2.2033479}, {"type": "node", "id": 6061384125, "lat": 41.3996755, "lon": 2.2033526}, {"type": "node", "id": 6061384136, "lat": 41.3998216, "lon": 2.2035226}, {"type": "node", "id": 6061384140, "lat": 41.399967, "lon": 2.2036678}, {"type": "node", "id": 6061384156, "lat": 41.4000876, "lon": 2.2034786}, {"type": "node", "id": 6061384169, "lat": 41.4000755, "lon": 2.2034623}, {"type": "node", "id": 6061384171, "lat": 41.399899, "lon": 2.2036126}, {"type": "node", "id": 6061384172, "lat": 41.399688, "lon": 2.2033365}, {"type": "node", "id": 6061384173, "lat": 41.3998808, "lon": 2.2031508}, {"type": "node", "id": 6061384289, "lat": 41.399911, "lon": 2.2036266}, {"type": "node", "id": 6061384290, "lat": 41.3999582, "lon": 2.2036816}, {"type": "node", "id": 6061384297, "lat": 41.3996349, "lon": 2.2033053}, {"type": "node", "id": 6061384299, "lat": 41.3997487, "lon": 2.2031546}, {"type": "node", "id": 6061384301, "lat": 41.3997943, "lon": 2.2031506}, {"type": "node", "id": 6061384306, "lat": 41.3996977, "lon": 2.2033241}, {"type": "node", "id": 6061384311, "lat": 41.3999713, "lon": 2.2033229}, {"type": "node", "id": 6061384336, "lat": 41.3997054, "lon": 2.2033603}, {"type": "node", "id": 6061384349, "lat": 41.3998807, "lon": 2.2031564}, {"type": "node", "id": 6061384413, "lat": 41.3997941, "lon": 2.203155}, {"type": "node", "id": 6126176185, "lat": 41.4074303, "lon": 2.16953, "tags": {"amenity": "theatre", "name": "Teatre Gaudi"}}, {"type": "node", "id": 6241175607, "lat": 41.3688864, "lon": 2.1543167}, {"type": "node", "id": 6241175608, "lat": 41.3689108, "lon": 2.1543815}, {"type": "node", "id": 6241175818, "lat": 41.3683915, "lon": 2.1540274}, {"type": "node", "id": 6241175819, "lat": 41.3684146, "lon": 2.1539677}, {"type": "node", "id": 6241175820, "lat": 41.3684236, "lon": 2.1539079}, {"type": "node", "id": 6241175822, "lat": 41.3683536, "lon": 2.1540643}, {"type": "node", "id": 6241175823, "lat": 41.368152, "lon": 2.1540837}, {"type": "node", "id": 6241175824, "lat": 41.3681916, "lon": 2.1541211}, {"type": "node", "id": 6241175825, "lat": 41.3682401, "lon": 2.1541178}, {"type": "node", "id": 6241175826, "lat": 41.3682837, "lon": 2.1541119}, {"type": "node", "id": 6291252151, "lat": 41.3875815, "lon": 2.174913}, {"type": "node", "id": 6291252159, "lat": 41.3877129, "lon": 2.1748245}, {"type": "node", "id": 6291252177, "lat": 41.387612, "lon": 2.1748878}, {"type": "node", "id": 6291252692, "lat": 41.3875225, "lon": 2.1756333}, {"type": "node", "id": 6291252700, "lat": 41.3875103, "lon": 2.1756332}, {"type": "node", "id": 6291252701, "lat": 41.3875193, "lon": 2.1756351}, {"type": "node", "id": 6291252703, "lat": 41.3874044, "lon": 2.1754855}, {"type": "node", "id": 6291252704, "lat": 41.3875169, "lon": 2.1756357}, {"type": "node", "id": 6291252705, "lat": 41.3875139, "lon": 2.1756354}, {"type": "node", "id": 6331805379, "lat": 41.3681709, "lon": 2.1540968}, {"type": "node", "id": 6331805380, "lat": 41.3682619, "lon": 2.1541156}, {"type": "node", "id": 6331805381, "lat": 41.368216, "lon": 2.1541278}, {"type": "node", "id": 6331805382, "lat": 41.3681928, "lon": 2.1541065}, {"type": "node", "id": 6331805383, "lat": 41.3683705, "lon": 2.1540428}, {"type": "node", "id": 6331805384, "lat": 41.3684201, "lon": 2.1539389}, {"type": "node", "id": 6331805385, "lat": 41.3684044, "lon": 2.1540009}, {"type": "node", "id": 6331805386, "lat": 41.3683842, "lon": 2.1540224}, {"type": "node", "id": 6331806077, "lat": 41.3682385, "lon": 2.1541293}, {"type": "node", "id": 6331806078, "lat": 41.3682019, "lon": 2.15398}, {"type": "node", "id": 6331806079, "lat": 41.3682236, "lon": 2.1539865}, {"type": "node", "id": 6331806080, "lat": 41.3682445, "lon": 2.1539905}, {"type": "node", "id": 6331806081, "lat": 41.3682617, "lon": 2.1539922}, {"type": "node", "id": 6331806082, "lat": 41.3682944, "lon": 2.1539692}, {"type": "node", "id": 6331806083, "lat": 41.368307, "lon": 2.1539444}, {"type": "node", "id": 6331806084, "lat": 41.3683152, "lon": 2.1539198}, {"type": "node", "id": 6331806085, "lat": 41.3683222, "lon": 2.1538985}, {"type": "node", "id": 6473601385, "lat": 41.4032061, "lon": 2.1459094, "tags": {"amenity": "theatre", "name": "La Gleva", "name:ca": "La Gleva"}}, {"type": "node", "id": 6557494610, "lat": 41.3901979, "lon": 2.1447718, "tags": {"amenity": "theatre", "name": "Aquitania", "wikidata": "Q11913810", "wikipedia": "ca:Cine Aquitania"}}, {"type": "node", "id": 6897225324, "lat": 41.388473, "lon": 2.1660447}, {"type": "node", "id": 6960234548, "lat": 41.4060827, "lon": 2.1614031, "tags": {"addr:housenumber": "64", "addr:street": "Carrer de Sant Llu\u00eds", "amenity": "theatre", "check_date": "2024-11-22", "name": "Golem's", "old_name": "Almeria Teatre", "phone": "+34 933 51 82 31", "website": "https://www.golems.cat", "wikidata": "Q3957238", "wikimedia_commons": "Category:Almeria Teatre", "wikipedia": "ca:Almeria Teatre"}}, {"type": "node", "id": 6990651000, "lat": 41.3738917, "lon": 2.1696061, "tags": {"addr:city": "Barcelona", "addr:housenumber": "65", "addr:postcode": "08004", "addr:street": "Carrer de Vila i Vil\u00e0", "amenity": "theatre", "name": "Sala Hiroshima", "name:ca": "Sala Hiroshima", "website": "https://www.hiroshima.cat/", "wikidata": "Q23069680", "wikipedia": "ca:Sala Hiroshima"}}, {"type": "node", "id": 6993749545, "lat": 41.4002817, "lon": 2.1858038}, {"type": "node", "id": 7181789046, "lat": 41.3786274, "lon": 2.1753162}, {"type": "node", "id": 7181789048, "lat": 41.3784977, "lon": 2.1748988}, {"type": "node", "id": 7181789064, "lat": 41.3787598, "lon": 2.1751822}, {"type": "node", "id": 7181789074, "lat": 41.3786451, "lon": 2.1750708}, {"type": "node", "id": 7181846191, "lat": 41.3787674, "lon": 2.1749678}, {"type": "node", "id": 7181846196, "lat": 41.3787213, "lon": 2.1752316}, {"type": "node", "id": 7181846201, "lat": 41.3784365, "lon": 2.1748649}, {"type": "node", "id": 7181846211, "lat": 41.3786031, "lon": 2.1753262}, {"type": "node", "id": 7181846215, "lat": 41.3787925, "lon": 2.1749995}, {"type": "node", "id": 7181846224, "lat": 41.3785607, "lon": 2.17462}, {"type": "node", "id": 7181846248, "lat": 41.3784736, "lon": 2.1747895}, {"type": "node", "id": 7181846254, "lat": 41.3786464, "lon": 2.1748218}, {"type": "node", "id": 7181846259, "lat": 41.3783788, "lon": 2.1747889}, {"type": "node", "id": 7181846260, "lat": 41.3785962, "lon": 2.1750724}, {"type": "node", "id": 7181846262, "lat": 41.378446, "lon": 2.1745271}, {"type": "node", "id": 7181846268, "lat": 41.3784959, "lon": 2.1753459}, {"type": "node", "id": 7181846273, "lat": 41.3786062, "lon": 2.1747742}, {"type": "node", "id": 7181846279, "lat": 41.3784598, "lon": 2.1745393}, {"type": "node", "id": 7181846285, "lat": 41.378256, "lon": 2.1750968}, {"type": "node", "id": 7181846306, "lat": 41.3784657, "lon": 2.1753727}, {"type": "node", "id": 7181846323, "lat": 41.3787429, "lon": 2.1749374}, {"type": "node", "id": 7181846339, "lat": 41.378486, "lon": 2.1745625}, {"type": "node", "id": 7181846354, "lat": 41.3785433, "lon": 2.17474}, {"type": "node", "id": 7181846358, "lat": 41.3782698, "lon": 2.17511}, {"type": "node", "id": 7181846365, "lat": 41.3784563, "lon": 2.1748455}, {"type": "node", "id": 7181846369, "lat": 41.3783925, "lon": 2.1744799}, {"type": "node", "id": 7181846370, "lat": 41.3787233, "lon": 2.1749176}, {"type": "node", "id": 7181846382, "lat": 41.378287, "lon": 2.1748816}, {"type": "node", "id": 7181846393, "lat": 41.3785206, "lon": 2.1745931}, {"type": "node", "id": 7181846395, "lat": 41.378739, "lon": 2.1752104}, {"type": "node", "id": 7181846398, "lat": 41.3784268, "lon": 2.1745102}, {"type": "node", "id": 7181846411, "lat": 41.3784121, "lon": 2.1746162}, {"type": "node", "id": 7181846419, "lat": 41.3787577, "lon": 2.1751809}, {"type": "node", "id": 7181846429, "lat": 41.3784364, "lon": 2.1746362}, {"type": "node", "id": 7181846439, "lat": 41.3785275, "lon": 2.174685}, {"type": "node", "id": 7181846444, "lat": 41.3784551, "lon": 2.1745482}, {"type": "node", "id": 7181846445, "lat": 41.3787945, "lon": 2.174997}, {"type": "node", "id": 7181846455, "lat": 41.3785563, "lon": 2.1746263}, {"type": "node", "id": 7181846483, "lat": 41.378408, "lon": 2.1746939}, {"type": "node", "id": 7181846505, "lat": 41.3784907, "lon": 2.1745934}, {"type": "node", "id": 7181846516, "lat": 41.3784508, "lon": 2.1745569}, {"type": "node", "id": 7181846517, "lat": 41.3787961, "lon": 2.1749988}, {"type": "node", "id": 7181846527, "lat": 41.3786009, "lon": 2.1746699}, {"type": "node", "id": 7181846537, "lat": 41.3785935, "lon": 2.1747896}, {"type": "node", "id": 7181846544, "lat": 41.3786484, "lon": 2.1753008}, {"type": "node", "id": 7181846553, "lat": 41.3786667, "lon": 2.1752857}, {"type": "node", "id": 7181846565, "lat": 41.3788261, "lon": 2.1750353}, {"type": "node", "id": 7181846574, "lat": 41.3784895, "lon": 2.1753892}, {"type": "node", "id": 7181846576, "lat": 41.3783838, "lon": 2.1746738}, {"type": "node", "id": 7181846588, "lat": 41.3784374, "lon": 2.1745438}, {"type": "node", "id": 7181846597, "lat": 41.3786036, "lon": 2.1746671}, {"type": "node", "id": 7181846606, "lat": 41.3787871, "lon": 2.1749927}, {"type": "node", "id": 7181846608, "lat": 41.3784546, "lon": 2.174843}, {"type": "node", "id": 7181846611, "lat": 41.3787049, "lon": 2.1752493}, {"type": "node", "id": 7181846613, "lat": 41.3782522, "lon": 2.1750918}, {"type": "node", "id": 7181846619, "lat": 41.3783676, "lon": 2.1747348}, {"type": "node", "id": 7181846621, "lat": 41.3783058, "lon": 2.1746931}, {"type": "node", "id": 7181846644, "lat": 41.3783686, "lon": 2.1745388}, {"type": "node", "id": 7181846645, "lat": 41.3785002, "lon": 2.1745751}, {"type": "node", "id": 7181846654, "lat": 41.3788081, "lon": 2.1750134}, {"type": "node", "id": 7181846668, "lat": 41.3786364, "lon": 2.1747343}, {"type": "node", "id": 7181846693, "lat": 41.3783652, "lon": 2.1747712}, {"type": "node", "id": 7181846701, "lat": 41.3788425, "lon": 2.1750549}, {"type": "node", "id": 7181846716, "lat": 41.3786063, "lon": 2.1753297}, {"type": "node", "id": 7181846726, "lat": 41.3786109, "lon": 2.1750531}, {"type": "node", "id": 7181846730, "lat": 41.3787413, "lon": 2.1749401}, {"type": "node", "id": 7181846732, "lat": 41.3784769, "lon": 2.1745806}, {"type": "node", "id": 7181846738, "lat": 41.3783974, "lon": 2.174763}, {"type": "node", "id": 7181846744, "lat": 41.3786916, "lon": 2.1748754}, {"type": "node", "id": 7181846754, "lat": 41.3786227, "lon": 2.1751066}, {"type": "node", "id": 7181846756, "lat": 41.3787237, "lon": 2.1749133}, {"type": "node", "id": 7181846763, "lat": 41.3786337, "lon": 2.1748373}, {"type": "node", "id": 7181846780, "lat": 41.3783531, "lon": 2.1747553}, {"type": "node", "id": 7181846796, "lat": 41.3784803, "lon": 2.1749222}, {"type": "node", "id": 7181846801, "lat": 41.3787587, "lon": 2.1749571}, {"type": "node", "id": 7181846822, "lat": 41.3784889, "lon": 2.174806}, {"type": "node", "id": 7181846824, "lat": 41.3788208, "lon": 2.1750871}, {"type": "node", "id": 7181846829, "lat": 41.3785622, "lon": 2.1747169}, {"type": "node", "id": 7181846872, "lat": 41.3785226, "lon": 2.1745892}, {"type": "node", "id": 7181846874, "lat": 41.3784807, "lon": 2.174573}, {"type": "node", "id": 7274324804, "lat": 41.3802917, "lon": 2.1714069}, {"type": "node", "id": 7274324818, "lat": 41.3804547, "lon": 2.1712277}, {"type": "node", "id": 7274324827, "lat": 41.3805842, "lon": 2.171129}, {"type": "node", "id": 7274324849, "lat": 41.3803996, "lon": 2.1712985}, {"type": "node", "id": 7274329065, "lat": 41.3803711, "lon": 2.1734449}, {"type": "node", "id": 7274329078, "lat": 41.380047, "lon": 2.1729462}, {"type": "node", "id": 7274330603, "lat": 41.3804274, "lon": 2.1712705}, {"type": "node", "id": 7274330623, "lat": 41.3803515, "lon": 2.1713468}, {"type": "node", "id": 7274330635, "lat": 41.3805591, "lon": 2.1711465}, {"type": "node", "id": 7274330644, "lat": 41.3804703, "lon": 2.1711189}, {"type": "node", "id": 7274330646, "lat": 41.3803266, "lon": 2.1713717}, {"type": "node", "id": 7274330658, "lat": 41.3804913, "lon": 2.1712063}, {"type": "node", "id": 7274330673, "lat": 41.3802168, "lon": 2.1714822}, {"type": "node", "id": 7274330688, "lat": 41.3804406, "lon": 2.1710639}, {"type": "node", "id": 7274330697, "lat": 41.3804724, "lon": 2.1710664}, {"type": "node", "id": 7274330703, "lat": 41.3801405, "lon": 2.171559}, {"type": "node", "id": 7274330710, "lat": 41.3804367, "lon": 2.1712611}, {"type": "node", "id": 7274330730, "lat": 41.3800323, "lon": 2.1713575}, {"type": "node", "id": 7274330747, "lat": 41.3804786, "lon": 2.1710785}, {"type": "node", "id": 7274330755, "lat": 41.3801313, "lon": 2.1715419}, {"type": "node", "id": 7274330761, "lat": 41.3804124, "lon": 2.1710146}, {"type": "node", "id": 7274330788, "lat": 41.3805664, "lon": 2.1710682, "tags": {"addr:housenumber": "51", "addr:postcode": "08001", "addr:street": "Carrer de l'Hospital", "entrance": "yes"}}, {"type": "node", "id": 7274330800, "lat": 41.3805474, "lon": 2.1710037}, {"type": "node", "id": 7274330808, "lat": 41.3804589, "lon": 2.1710977}, {"type": "node", "id": 7274330811, "lat": 41.3800812, "lon": 2.1714485}, {"type": "node", "id": 7274330814, "lat": 41.3804073, "lon": 2.1710058}, {"type": "node", "id": 7274330823, "lat": 41.3805092, "lon": 2.1711912}, {"type": "node", "id": 7274330829, "lat": 41.3804543, "lon": 2.171135}, {"type": "node", "id": 7274330833, "lat": 41.3804926, "lon": 2.1712085}, {"type": "node", "id": 7274330846, "lat": 41.380422, "lon": 2.1712609}, {"type": "node", "id": 7274330855, "lat": 41.3805239, "lon": 2.1710193}, {"type": "node", "id": 7274330864, "lat": 41.3805159, "lon": 2.1710266}, {"type": "node", "id": 7274330870, "lat": 41.3800593, "lon": 2.1714077}, {"type": "node", "id": 7274330873, "lat": 41.3800267, "lon": 2.1713471}, {"type": "node", "id": 7274330901, "lat": 41.3804311, "lon": 2.1712513}, {"type": "node", "id": 7274330919, "lat": 41.3804524, "lon": 2.1710843}, {"type": "node", "id": 7274330925, "lat": 41.3803942, "lon": 2.1712887}, {"type": "node", "id": 7274330934, "lat": 41.3805389, "lon": 2.1711605}, {"type": "node", "id": 7274330942, "lat": 41.3801191, "lon": 2.1715191}, {"type": "node", "id": 7274330956, "lat": 41.3803166, "lon": 2.1713818}, {"type": "node", "id": 7274330960, "lat": 41.380443, "lon": 2.1711134}, {"type": "node", "id": 7274330973, "lat": 41.380092, "lon": 2.1714687}, {"type": "node", "id": 7274330979, "lat": 41.3804603, "lon": 2.1712374}, {"type": "node", "id": 7274330988, "lat": 41.3802042, "lon": 2.1714949}, {"type": "node", "id": 7274330997, "lat": 41.3804812, "lon": 2.1710586}, {"type": "node", "id": 7274331005, "lat": 41.380161, "lon": 2.1715383}, {"type": "node", "id": 7274345602, "lat": 41.3804129, "lon": 2.1733798}, {"type": "node", "id": 7274345609, "lat": 41.3800016, "lon": 2.1730575}, {"type": "node", "id": 7274345613, "lat": 41.3798746, "lon": 2.1733056}, {"type": "node", "id": 7274345615, "lat": 41.380021, "lon": 2.1730107}, {"type": "node", "id": 7274345617, "lat": 41.3798986, "lon": 2.173264}, {"type": "node", "id": 7274345622, "lat": 41.3804914, "lon": 2.1735077}, {"type": "node", "id": 7274345648, "lat": 41.3804026, "lon": 2.1734298}, {"type": "node", "id": 7274345657, "lat": 41.380475, "lon": 2.1734976}, {"type": "node", "id": 7274345662, "lat": 41.3805311, "lon": 2.1735707}, {"type": "node", "id": 7274345673, "lat": 41.37978, "lon": 2.1734608}, {"type": "node", "id": 7274345688, "lat": 41.3798976, "lon": 2.1732673}, {"type": "node", "id": 7274345696, "lat": 41.3797443, "lon": 2.1735185}, {"type": "node", "id": 7274345713, "lat": 41.3804685, "lon": 2.1731069}, {"type": "node", "id": 7274345727, "lat": 41.3804421, "lon": 2.1730963}, {"type": "node", "id": 7274345732, "lat": 41.3804198, "lon": 2.1730866}, {"type": "node", "id": 7274345734, "lat": 41.3800704, "lon": 2.1728894}, {"type": "node", "id": 7274345757, "lat": 41.3800194, "lon": 2.1730146}, {"type": "node", "id": 7274345771, "lat": 41.3804273, "lon": 2.1730512}, {"type": "node", "id": 7274345774, "lat": 41.3804482, "lon": 2.173481}, {"type": "node", "id": 7274345781, "lat": 41.3799189, "lon": 2.1732565}, {"type": "node", "id": 7274345790, "lat": 41.3798669, "lon": 2.1733182}, {"type": "node", "id": 7274345792, "lat": 41.3804623, "lon": 2.1731387}, {"type": "node", "id": 7274345806, "lat": 41.3800452, "lon": 2.1729451}, {"type": "node", "id": 7274345815, "lat": 41.3804857, "lon": 2.1735159}, {"type": "node", "id": 7274345816, "lat": 41.3797326, "lon": 2.1735377}, {"type": "node", "id": 7274345825, "lat": 41.3800187, "lon": 2.1730085}, {"type": "node", "id": 7274345842, "lat": 41.38051, "lon": 2.1735452}, {"type": "node", "id": 7279942490, "lat": 41.3754067, "lon": 2.1703049}, {"type": "node", "id": 7279942571, "lat": 41.375493, "lon": 2.1700761}, {"type": "node", "id": 7279955239, "lat": 41.3752547, "lon": 2.1700011}, {"type": "node", "id": 7279955313, "lat": 41.3754363, "lon": 2.1700254}, {"type": "node", "id": 7279955350, "lat": 41.3753893, "lon": 2.1703509}, {"type": "node", "id": 7279955384, "lat": 41.3760699, "lon": 2.1705908}, {"type": "node", "id": 7279955396, "lat": 41.3752432, "lon": 2.1700411, "tags": {"addr:housenumber": "60", "addr:postcode": "08001", "addr:street": "Avinguda del Paral\u00b7lel", "entrance": "yes"}}, {"type": "node", "id": 7279955416, "lat": 41.375213, "lon": 2.1701463}, {"type": "node", "id": 7455112836, "lat": 41.3704842, "lon": 2.1232532, "tags": {"addr:city": "l'Hospitalet de Llobregat", "addr:housenumber": "40", "addr:neighbourhood": "la Torrassa", "addr:postcode": "08903", "addr:street": "Carrer de Santiago Ap\u00f2stol", "amenity": "theatre", "capacity": "196", "name": "Auditori la Torrassa", "name:ca": "Auditori la Torrassa", "phone": "+34 93 449 59 30"}}, {"type": "node", "id": 7726640885, "lat": 41.3787928, "lon": 2.1347327, "tags": {"amenity": "theatre", "name:en": "The Actors Workshop by Frank Feyz"}}, {"type": "node", "id": 7997331440, "lat": 41.3884562, "lon": 2.1738887, "tags": {"amenity": "theatre", "name": "Sala Ars"}}, {"type": "node", "id": 8390060118, "lat": 41.40057, "lon": 2.1206713, "tags": {"amenity": "theatre", "name": "Centre Parroquial de Sant Vicen\u00e7 de Sarri\u00e0"}}, {"type": "node", "id": 8515568612, "lat": 41.3800483, "lon": 2.1713277}, {"type": "node", "id": 9233320104, "lat": 41.3868174, "lon": 2.1812244, "tags": {"amenity": "theatre", "name": "La Puntual", "theatre:genre": "figure", "website": "https://www.lapuntual.info", "wikidata": "Q11930716", "wikipedia": "ca:La Puntual"}}, {"type": "node", "id": 9556175085, "lat": 41.3762965, "lon": 2.1710152}, {"type": "node", "id": 9959870628, "lat": 41.4046853, "lon": 2.1571547, "tags": {"amenity": "theatre", "name": "Microteatre Barcelona"}}, {"type": "node", "id": 10068186773, "lat": 41.4066659, "lon": 2.1549408, "tags": {"addr:housenumber": "18", "addr:postcode": "08024", "addr:street": "Carrer de Mart\u00ed", "amenity": "theatre", "check_date": "2024-04-15", "email": "info@lautenticateatro.com", "name": "L'Autentica Teatre", "name:ca": "L'aut\u00e8ntica Teatre", "name:es": "L'aut\u00e8ntica Teatro", "opening_hours": "Mo-Fr 16:00-20:00; Sa-Su 10:00-18:00", "phone": "+34 93 185 4840", "website": "https://www.lautenticateatro.com/"}}, {"type": "node", "id": 10142531592, "lat": 41.3739321, "lon": 2.1645433, "tags": {"addr:city": "Barcelona", "addr:housenumber": "12", "addr:postcode": "08004", "addr:street": "Carrer de Tapioles", "addr:unit": "Local", "amenity": "theatre", "email": "info@oraclestheatre.com", "name": "Oracles Theater", "phone": "931 396 305 / 622 733 322", "website": "https://www.oraclestheatre.com/index.html"}}, {"type": "node", "id": 10316805809, "lat": 41.3720486, "lon": 2.1650065, "tags": {"addr:housenumber": "68", "addr:postcode": "08004", "addr:street": "Carrer de Salv\u00e0", "amenity": "theatre", "contact:facebook": "espaipiluso", "contact:instagram": "espaipiluso", "email": "info@espaipiluso.com", "name": "Espai Piluso", "website": "https://www.espaipiluso.com/"}}, {"type": "node", "id": 10810696989, "lat": 41.379138, "lon": 2.1746555, "tags": {"amenity": "theatre", "contact:email": "tablao@tablaocordobes.com", "contact:facebook": "https://www.facebook.com/tablaocordobes", "contact:phone": "+34 933 17 57 11", "name": "Tablao Flamenco Cordobes", "website": "https://tablaocordobes.es/"}}, {"type": "node", "id": 11603200907, "lat": 41.403691, "lon": 2.1605474, "tags": {"addr:housenumber": "88", "addr:street": "Carrer de Ram\u00f3n y Cajal", "amenity": "theatre", "check_date": "2024-02-09", "name": "Youkali Escola de Teatre Musical"}}, {"type": "node", "id": 11760680375, "lat": 41.3995859, "lon": 2.1862206, "tags": {"entrance": "main"}}, {"type": "node", "id": 11959590639, "lat": 41.3706631, "lon": 2.157444, "tags": {"addr:housenumber": "1-2", "addr:street": "Pla\u00e7a de Margarida Xirgu"}}, {"type": "node", "id": 12031257197, "lat": 41.3709528, "lon": 2.1563699}, {"type": "node", "id": 12031257211, "lat": 41.3711946, "lon": 2.1570056}, {"type": "node", "id": 12031257238, "lat": 41.3711737, "lon": 2.1569353}, {"type": "node", "id": 12031257260, "lat": 41.3712201, "lon": 2.1562215}, {"type": "node", "id": 12031276587, "lat": 41.3713214, "lon": 2.1564953}, {"type": "node", "id": 12031276627, "lat": 41.3713838, "lon": 2.1571608}, {"type": "node", "id": 12031276680, "lat": 41.3714289, "lon": 2.1570849}, {"type": "node", "id": 12031276695, "lat": 41.3714257, "lon": 2.1568873}, {"type": "node", "id": 12031276704, "lat": 41.3714281, "lon": 2.1570348}, {"type": "node", "id": 12031276784, "lat": 41.3712957, "lon": 2.1564259}, {"type": "node", "id": 12031276796, "lat": 41.3712294, "lon": 2.1570967}, {"type": "node", "id": 12031276839, "lat": 41.3713079, "lon": 2.1571586}, {"type": "node", "id": 12031276845, "lat": 41.3714301, "lon": 2.1571636}, {"type": "node", "id": 12031298896, "lat": 41.3709401, "lon": 2.1568653}, {"type": "node", "id": 12031298897, "lat": 41.3703798, "lon": 2.157327}, {"type": "node", "id": 12031298898, "lat": 41.3707914, "lon": 2.1564762}, {"type": "node", "id": 12031298899, "lat": 41.3703882, "lon": 2.1576729}, {"type": "node", "id": 12031298905, "lat": 41.3703671, "lon": 2.1573449}, {"type": "node", "id": 12031298908, "lat": 41.3704089, "lon": 2.1574095}, {"type": "node", "id": 12031298913, "lat": 41.3703814, "lon": 2.1573627}, {"type": "node", "id": 12031298914, "lat": 41.3703993, "lon": 2.1572994}, {"type": "node", "id": 12031298918, "lat": 41.3707012, "lon": 2.1565364}, {"type": "node", "id": 12031298919, "lat": 41.3704223, "lon": 2.1570621}, {"type": "node", "id": 12031298924, "lat": 41.3709671, "lon": 2.1569359}, {"type": "node", "id": 12031298928, "lat": 41.3703897, "lon": 2.1577088}, {"type": "node", "id": 12031298930, "lat": 41.370375, "lon": 2.1576921}, {"type": "node", "id": 12031298932, "lat": 41.3704221, "lon": 2.1572851}, {"type": "node", "id": 12031298934, "lat": 41.3704513, "lon": 2.1571388}, {"type": "node", "id": 12031298936, "lat": 41.3703372, "lon": 2.1567795}, {"type": "node", "id": 12031298939, "lat": 41.3704093, "lon": 2.1567314}, {"type": "node", "id": 12031298946, "lat": 41.3705918, "lon": 2.1577461}, {"type": "node", "id": 12031298949, "lat": 41.3706706, "lon": 2.1577409}, {"type": "node", "id": 12031298954, "lat": 41.3708938, "lon": 2.1567441}, {"type": "node", "id": 12031298961, "lat": 41.3703201, "lon": 2.1567909}, {"type": "node", "id": 12031298962, "lat": 41.3709306, "lon": 2.1568403}, {"type": "node", "id": 12031313273, "lat": 41.3708371, "lon": 2.1565958}, {"type": "node", "id": 12031313275, "lat": 41.3704081, "lon": 2.157396}, {"type": "node", "id": 12031313279, "lat": 41.370413, "lon": 2.1577353}, {"type": "node", "id": 12031313291, "lat": 41.3703297, "lon": 2.1568165}, {"type": "node", "id": 12031313297, "lat": 41.3704075, "lon": 2.1576447}, {"type": "node", "id": 12031313303, "lat": 41.3708001, "lon": 2.156499}, {"type": "node", "id": 12031313316, "lat": 41.3704178, "lon": 2.1571614}, {"type": "node", "id": 12031313320, "lat": 41.3707741, "lon": 2.1564878}, {"type": "node", "id": 12031313323, "lat": 41.3704157, "lon": 2.1576328}, {"type": "node", "id": 12031313351, "lat": 41.3706116, "lon": 2.1577448}, {"type": "node", "id": 12031313356, "lat": 41.3704091, "lon": 2.1572857}, {"type": "node", "id": 12031313359, "lat": 41.3703659, "lon": 2.1569126}, {"type": "node", "id": 12031313361, "lat": 41.3704033, "lon": 2.1573902}, {"type": "node", "id": 12031313362, "lat": 41.3704371, "lon": 2.1578037}, {"type": "node", "id": 12031313365, "lat": 41.3704234, "lon": 2.1577471}, {"type": "node", "id": 12031313368, "lat": 41.3704351, "lon": 2.1577465}, {"type": "node", "id": 12031313370, "lat": 41.3705932, "lon": 2.1577944}, {"type": "node", "id": 12338089797, "lat": 41.3691951, "lon": 2.1372772, "tags": {"addr:city": "Barcelona", "addr:postcode": "08014", "amenity": "theatre", "name": "Auditori Can Batll\u00f3", "operator": "Can Batll\u00f3", "toilets": "yes", "wheelchair": "yes"}}, {"type": "node", "id": 12346103921, "lat": 41.3698348, "lon": 2.1378557, "tags": {"entrance": "main"}}, {"type": "node", "id": 12543413303, "lat": 41.3972955, "lon": 2.173756, "tags": {"amenity": "theatre", "name": "Sala atrium"}}, {"type": "node", "id": 12626325932, "lat": 41.4058465, "lon": 2.1593168, "tags": {"addr:city": "Barcelona", "addr:housenumber": "24", "addr:postcode": "08012", "addr:street": "Carrer de l'Encarnaci\u00f3", "amenity": "theatre", "email": "info@anareichteatro.com", "name": "Ana Reich Teatro", "website": "https://anareichteatro.com/", "wheelchair": "no"}}, {"type": "way", "id": 10426929, "nodes": [3455944125, 7274345781, 7274345609, 7274345757, 7274345615, 7274345825, 7274345806, 7274329078, 7274345734, 7274345771, 7274345732, 7274345727, 7274345713, 7274345792, 7274345602, 7274345648, 89156912, 7274329065, 3455944127, 7274345774, 7274345657, 7274345622, 7274345815, 7274345842, 7274345662, 89156913, 7274345816, 7274345696, 7274345673, 7274345790, 7274345613, 7274345688, 7274345617, 3455944125], "tags": {"amenity": "theatre", "building": "public", "building:levels": "6", "building:levels:underground": "4", "contact:website": "http://www.liceubarcelona.cat/", "name": "Gran Teatre del Liceu", "name:ca": "Gran Teatre del Liceu", "name:es": "Gran Teatro del Liceo", "name:ru": "\u0411\u043e\u043b\u044c\u0448\u043e\u0439 \u0442\u0435\u0430\u0442\u0440 \u00ab\u041b\u0438\u0441\u0435\u043e\u00bb", "name:zh": "\u5229\u585e\u5967\u5927\u5287\u9662", "tourism": "attraction", "wikidata": "Q1130050", "wikipedia": "ca:Gran Teatre del Liceu"}}, {"type": "way", "id": 66258205, "nodes": [803442610, 803442614, 3890611576, 803442616, 803442627, 803442634, 803442638, 3890611568, 803442643, 803442648, 819660808, 3890611577, 803442610], "tags": {"amenity": "theatre", "building": "yes", "check_date": "2024-08-03", "name": "Barcelona Teatre Musical", "name:ca": "Barcelona Teatre Musical", "name:en": "Barcelona Teatre Musical", "name:es": "Barcelona Teatre Musical", "name:zh": "\u5df4\u585e\u7f57\u90a3\u97f3\u4e50\u5267\u9662", "old_name": "Palau Municipal d'Esports", "wikidata": "Q4889424", "wikimedia_commons": "Category:Barcelona Teatre Musical", "wikipedia": "ca:Barcelona Teatre Musical"}}, {"type": "way", "id": 68766758, "nodes": [826460662, 826460665, 2264602354, 826460668, 826460671, 826460662], "tags": {"amenity": "theatre", "building": "yes", "building:levels": "4", "name": "Teatre Nacional de Catalunya. Sala Tallers", "name:ca": "Teatre Nacional de Catalunya. Sala Tallers", "roof:levels": "1", "roof:material": "concrete", "roof:shape": "gabled", "wikidata": "Q1320197", "wikipedia": "ca:Teatre Nacional de Catalunya"}}, {"type": "way", "id": 68766768, "nodes": [826460705, 826460711, 2264602356, 6993749545, 3140065872, 3140065871, 3140065870, 3140065869, 3140065868, 826460713, 2264602310, 3140065863, 11760680375, 3140065856, 2264602288, 826460716, 3140065853, 3140065854, 3140065855, 3140065858, 3140065857, 2264602347, 826460705], "tags": {"amenity": "theatre", "architect": "Ricardo Bofill", "building": "civic", "contact:instagram": "teatrenacional", "name": "Teatre Nacional de Catalunya", "name:ca": "Teatre Nacional de Catalunya", "name:es": "Teatro Nacional de Catalu\u00f1a", "name:etymology:wikidata": "Q1320197", "wikidata": "Q1320197", "wikipedia": "ca:Teatre Nacional de Catalunya"}}, {"type": "way", "id": 167067587, "nodes": [12031313303, 12031313273, 12031298954, 12031298962, 12031298896, 12031298924, 2175860850, 11959590639, 12031298949, 12031313351, 12031298946, 12031313370, 12031313362, 12031313368, 12031313365, 12031313279, 12031298928, 12031298930, 12031298899, 12031313297, 12031313323, 1999038874, 12031298908, 12031313275, 12031313361, 12031298913, 12031298905, 12031298897, 12031298914, 12031313356, 12031298932, 12031313316, 12031298934, 12031298919, 12031313359, 12031313291, 12031298961, 12031298936, 12031298939, 12031298918, 12031313320, 12031298898, 12031313303], "tags": {"alt_name": "Mercat de les Flors", "alt_name:ca": "Mercat de les Flors", "amenity": "theatre", "contact:email": "info@teatrelliure.com", "name": "Teatre Lliure", "name:ca": "Teatre Lliure", "name:en": "Teatre Lliure", "name:zh": "\u52d2\u5415\u5c14\u6b4c\u5267\u9662", "website": "https://teatrelliure.com/ca", "wheelchair": "yes", "wikidata": "Q2713554", "wikimedia_commons": "Category:Mercat de les Flors", "wikipedia": "ca:Teatre Lliure"}}, {"type": "way", "id": 169733814, "nodes": [1808937575, 1808937581, 1808937599, 1808937618, 1808937622, 1808937617, 1808937616, 1808937592, 1808937559, 1808937575], "tags": {"amenity": "theatre", "building": "yes"}}, {"type": "way", "id": 203790020, "nodes": [2137848696, 3140083584, 2137848684, 3140083583, 2137848691, 3140114530, 3140083581, 3140083582, 2137848690, 3140114535, 3140114547, 3140114572, 3140114579, 3140114585, 2137848687, 2137848692, 3140114592, 2137848686, 2137848688, 3140114604, 2137848689, 2137848685, 3140114602, 3140114601, 3140114591, 2181551034, 2181551036, 2181551035, 2181551037, 3140114567, 2137848693, 2137848696]}, {"type": "way", "id": 214436160, "nodes": [2239783235, 2239783231, 2239783226, 2239783219, 2239783215, 2239783211, 2239783202, 2239783195, 2239783189, 2239783182, 2239783174, 2239783158, 2239783149, 2239783132, 2239783095, 2239783085, 2239783080, 2239783092, 2239783097, 2239783135, 2239783151, 2239783161, 2239783171, 2239783184, 2239783190, 2239783193, 2239783203, 2239783209, 2239783214, 2239783221, 2239783228, 2239783232, 2239783236, 2239783239, 2239783237, 2239783235], "tags": {"amenity": "theatre", "theatre:type": "open_air"}}, {"type": "way", "id": 216954154, "nodes": [2262724136, 2262724138, 2262724140, 2262724141, 2262724143, 2262724146, 2262724148, 2262724149, 2262724150, 2262724153, 2262724158, 2262724160, 2262724162, 2262724164, 2262724165, 2262724169, 2262724171, 2262724173, 2262724174, 2262724175, 2262724177, 2262724178, 2262724179, 2262724180, 1495434415, 1495434413, 3952724196, 1495434412, 1495434417, 2262724136], "tags": {"amenity": "theatre", "name": "Teatre Grec", "name:ca": "Teatre Grec", "name:es": "Teatro Griego", "name:etymology:wikidata": "Q2352194", "surface": "paving_stones", "theatre:type": "open_air", "website": "http://grec.bcn.cat/", "wheelchair": "no", "wikidata": "Q2352194", "wikimedia_commons": "Category:Teatre Grec (Barcelona)", "wikipedia": "ca:Teatre Grec"}}, {"type": "way", "id": 217108957, "nodes": [7279955313, 7279942571, 7279942490, 7279955350, 2264166346, 7279955416, 7279955396, 7279955239, 2264166351, 7279955313], "tags": {"amenity": "theatre", "building": "public", "building:levels": "2", "name": "Teatre Arnau", "name:ca": "Teatre Arnau", "name:etymology:wikidata": "Q17152404", "wikidata": "Q17152404", "wikimedia_commons": "Category:Teatre Arnau", "wikipedia": "ca:Teatre Arnau"}}, {"type": "way", "id": 217108958, "nodes": [2264166452, 2264166390, 7279955384, 2264166481, 9556175085, 2264166452], "tags": {"amenity": "theatre", "building": "yes", "name": "Conservatori Superior de M\u00fasica del Liceu", "name:ca": "Conservatori Superior de M\u00fasica del Liceu", "name:etymology:wikidata": "Q2386124", "operator": "Liceu Barcelona"}}, {"type": "way", "id": 217141698, "nodes": [2175908050, 12031276695, 12031276704, 12031276680, 12031276845, 12031276627, 2175860854, 12031276839, 2175860847, 12031276796, 12031257211, 2264440401, 12031257238, 2175860846, 12031257197, 2264440403, 12031257260, 12031276784, 12031276587, 2175908050], "tags": {"addr:housenumber": "53", "addr:postcode": "08004", "addr:street": "Carrer de Lleida", "amenity": "theatre", "building": "public", "building:levels": "3", "name": "Teatre Mercat de les Flors", "name:ca": "teatre Mercat de les Flors"}}, {"type": "way", "id": 217364695, "nodes": [2266369621, 2266369589, 2266369575, 2266369626, 2266369678, 2266369664, 2266369649, 2266369646, 2266369637, 2266369631, 2266369629, 2266369615, 2266369607, 2266369621], "tags": {"amenity": "theatre", "building": "yes", "name": "Sala Upload", "website": "https://sala-upload.com/"}}, {"type": "way", "id": 249407520, "nodes": [2560091140, 2560091236, 2560091333, 6897225324, 2560091180, 2560090962, 5268115897, 2560090774, 2560090907, 2560091115, 2560091140], "tags": {"amenity": "theatre", "building": "apartments", "name": "Coliseum", "name:ca": "Coliseum", "source": "Ajuntament de Barcelona - CartoBCN (@2013-11-10)", "website": "https://www.balanaenviu.com/teatre/teatre-coliseum", "wikidata": "Q5145764", "wikimedia_commons": "Category:Cinema Coliseum", "wikipedia": "ca:Cinema Coliseum"}}, {"type": "way", "id": 308747021, "nodes": [3140114597, 3140114584, 3140114577, 3140114587, 3140114588, 3140114589, 3140114590, 3140114593, 3140114595, 3140114596, 3140114597]}, {"type": "way", "id": 308747027, "nodes": [3140114575, 3140114573, 3140114563, 3140114565, 3140114575]}, {"type": "way", "id": 345578584, "nodes": [3522230420, 3522230421, 3522230417, 3522230415, 3522230419, 3522230423, 3522230418, 3522230422, 3522230424, 3522230416, 3522230420], "tags": {"amenity": "theatre", "building": "yes", "name": "Taller Masriera", "wikidata": "Q19257604", "wikimedia_commons": "Category:Taller Masriera", "wikipedia": "ca:Taller Masriera"}}, {"type": "way", "id": 349200308, "nodes": [3551202872, 3551202867, 3551202875, 3551202870, 3551202852, 4305198871, 4305198868, 4305198866, 4305198870, 4305198873, 4305198874, 4305198875, 4305198876, 3551202863, 3551202868, 3551202872], "tags": {"amenity": "theatre", "building": "civic", "name": "Auditori Sant Mart\u00ed de Proven\u00e7als", "name:ca": "Auditori Sant Mart\u00ed de Proven\u00e7als", "operator": "Generalitat de Catalunya", "phone": "+34 93 256 57 60", "website": "http://ccivics.bcn.cat/auditorisantmarti"}}, {"type": "way", "id": 377216661, "nodes": [3805966097, 3805966098, 3805966096, 6291252692, 6291252701, 6291252704, 6291252705, 6291252700, 3889101408, 3889101406, 6291252703, 3805966099, 3889101384, 3884061274, 6291252151, 3889101412, 3889101414, 3889101416, 6291252177, 3884061276, 3884061278, 3884061280, 3889101420, 3884061284, 6291252159, 4049180564, 4049180562, 4049180565, 3884061285, 3805966097], "tags": {"amenity": "theatre", "check_date": "2023-11-17", "heritage": "1", "heritage:operator": "whc", "internet_access": "wlan", "internet_access:fee": "no", "name": "Palau de la M\u00fasica Catalana", "name:ca": "Palau de la M\u00fasica Catalana", "name:en": "Palau de la M\u00fasica Catalana", "name:es": "Palau de la M\u00fasica Catalana", "name:fr": "Palais de la musique catalane", "name:ja": "\u30ab\u30bf\u30eb\u30fc\u30cb\u30e3\u97f3\u697d\u5802", "name:ko": "\uce74\ud0c8\ub8e8\ub0d0 \uc74c\uc545\ub2f9", "name:ru": "\u0414\u0432\u043e\u0440\u0435\u0446 \u043a\u0430\u0442\u0430\u043b\u043e\u043d\u0441\u043a\u043e\u0439 \u043c\u0443\u0437\u044b\u043a\u0438", "name:zh": "\u52a0\u6cf0\u9686\u5c3c\u4e9e\u97f3\u6a02\u5ef3", "opening_hours": "Mo-Su 09:00-15:30", "phone": "+34 93 295 72 00", "short_name": "Palau de la M\u00fasica", "source": "Bing;survey", "tourism": "attraction", "website": "https://www.palaumusica.cat/", "wheelchair": "yes", "wikidata": "Q327940", "wikipedia": "ca:Palau de la M\u00fasica Catalana"}}, {"type": "way", "id": 435547702, "nodes": [4334559571, 2450650969, 4334559547, 4334559565, 4334559571], "tags": {"amenity": "theatre", "building": "yes", "building:levels": "3", "description": "EXIT (Experi\u00e8ncies InTernacionals) La Nau Ivanow quiere convertirse en un punto de referencia para las j\u00f3venes compa\u00f1\u00edas de teatro y poderles ofrecer un acompa\u00f1amiento cercano que les facilite el salto a la ...", "name": "Nau Ivanow", "roof:orientation": "along", "roof:shape": "flat"}}, {"type": "way", "id": 478298925, "nodes": [6055668698, 6055668685, 6055668686, 6055669246, 6055668369, 6055668370, 6055669250, 2292708437, 6055669262, 2292708426, 6055668946, 6055669265, 6055669264, 6055669409, 6055668774, 6055668919, 6055668914, 2292708428, 2292708431, 2292708433, 2292708443, 2292708447, 6055668322, 4715298441, 6055668908, 6055668698], "tags": {"amenity": "theatre", "building": "public", "building:levels": "2", "name": "Sala Poblenou. Centre Moral i Cultural"}}, {"type": "way", "id": 486060558, "nodes": [4787973289, 6052932393, 1502974121, 4787970904, 4787970260, 4787970262, 2292908717, 2292908701, 6052932398, 6052932399, 6052932411, 6052932408, 6052932410, 6052932409, 4787973289]}, {"type": "way", "id": 620606851, "nodes": [5320917346, 5863322773, 5863322781, 5863322778, 5320917347, 12346103921, 5320917346], "tags": {"amenity": "theatre", "building": "yes", "name": "Sala Sant Medir"}}, {"type": "way", "id": 643127633, "nodes": [6052932425, 6052932412, 6052932428, 6052932417, 6052932425]}, {"type": "way", "id": 643127634, "nodes": [6052932416, 6052932426, 6052932418, 6052932424, 6052932420, 6052932416]}, {"type": "way", "id": 644517988, "nodes": [6061384349, 6061381984, 4551460226, 6061384311, 6061384169, 6061384156, 6061383928, 6061383865, 6061384140, 6061384290, 6061384289, 6061384171, 6061384136, 6061383816, 6061383822, 6061383801, 6061383870, 6061384125, 6061384297, 6061384299, 6061384413, 6061384301, 6061383795, 6061384173, 6061384349]}, {"type": "way", "id": 644518029, "nodes": [6061384172, 6061384336, 6061383940, 6061384306, 6061384172]}, {"type": "way", "id": 666599306, "nodes": [559426316, 6241175607, 6241175608, 559426315, 559426316], "tags": {"amenity": "theatre", "theatre:genre": "3D", "theatre:type": "3D"}}, {"type": "way", "id": 666599322, "nodes": [6331806085, 6331806084, 6331806083, 6331806082, 6241175822, 6331805383, 6331805386, 6241175818, 6331805385, 6241175819, 6331805384, 6241175820, 6331806085], "tags": {"amenity": "theatre", "check_date": "2023-04-27", "indoor": "room", "level": "0", "room": "auditorium", "theatre:type": "amphi"}}, {"type": "way", "id": 666599323, "nodes": [6331806081, 6331806080, 6331806079, 6331806078, 6241175823, 6331805379, 6331805382, 6241175824, 6331805381, 6331806077, 6241175825, 6331805380, 6241175826, 6331806081], "tags": {"amenity": "theatre", "check_date": "2023-04-27", "indoor": "room", "level": "0", "room": "auditorium", "theatre:type": "amphi"}}, {"type": "way", "id": 769392429, "nodes": [7181846780, 7181846693, 7181846259, 7181846738, 7181846619, 7181846780]}, {"type": "way", "id": 769392432, "nodes": [7181846398, 7181846262, 7181846588, 7181846516, 7181846444, 7181846279, 7181846339, 7181846874, 7181846732, 7181846505, 7181846645, 7181846393, 7181846872, 7181846224, 7181846455, 7181846527, 7181846597, 7181846668, 7181846273, 7181846537, 7181846763, 7181846254, 7181846744, 7181846756, 7181846370, 7181846730, 7181846323, 7181846801, 7181846191, 7181846606, 7181846215, 7181846445, 7181846517, 7181846654, 7181846565, 7181846701, 7181846824, 7181846419, 7181789064, 7181846395, 7181846196, 7181846611, 7181846553, 7181846544, 7181789046, 7181846716, 7181846211, 7181846574, 7181846306, 7181846268, 7181846358, 7181846285, 7181846613, 5827436775, 7181846382, 2262848435, 2262848429, 7181846621, 7181846644, 7181846369, 7181846398]}, {"type": "way", "id": 769392445, "nodes": [7181846822, 7181846354, 7181846829, 7181846439, 7181846248, 7181846822]}, {"type": "way", "id": 769392454, "nodes": [7181846483, 7181846429, 7181846411, 7181846576, 7181846483]}, {"type": "way", "id": 769392479, "nodes": [7181846260, 7181846754, 7181789074, 7181846726, 7181846260]}, {"type": "way", "id": 769392581, "nodes": [7181846201, 7181846796, 7181789048, 7181846365, 7181846608, 7181846201]}, {"type": "way", "id": 779099050, "nodes": [7274330808, 7274330747, 7274330697, 7274330997, 7274330864, 7274330855, 7274330800, 7274330788, 7274324827, 7274330635, 7274330934, 7274330823, 7274330833, 7274330658, 7274330979, 7274324818, 7274330901, 7274330710, 7274330603, 7274330846, 7274330925, 7274324849, 7274330623, 7274330646, 7274330956, 7274324804, 7274330673, 7274330988, 7274331005, 7274330703, 7274330755, 7274330942, 7274330973, 7274330811, 7274330870, 7274330730, 7274330873, 8515568612, 7274330814, 7274330761, 7274330688, 7274330919, 7274330808]}, {"type": "way", "id": 779099072, "nodes": [7274330808, 7274330960, 7274330829, 7274330644, 7274330808]}, {"type": "relation", "id": 4123031, "members": [{"type": "way", "ref": 308747027, "role": "inner"}, {"type": "way", "ref": 203790020, "role": "outer"}, {"type": "way", "ref": 308747021, "role": "inner"}], "tags": {"alt_name": "Auditori Nacional de Catalunya", "amenity": "theatre", "architect": "Rafael Moneo", "building": "civic", "building:levels": "4", "culture": "music", "name": "L'Auditori", "name:ca": "L'Auditori", "type": "multipolygon", "wikidata": "Q2713088", "wikipedia": "ca:Auditori de Barcelona"}}, {"type": "relation", "id": 8911229, "members": [{"type": "way", "ref": 486060558, "role": "outer"}, {"type": "way", "ref": 643127633, "role": "inner"}, {"type": "way", "ref": 643127634, "role": "inner"}], "tags": {"amenity": "theatre", "building": "yes", "building:levels": "3", "name": "Sala Beckett", "name:ca": "Sala Beckett", "type": "multipolygon", "website": "https://www.salabeckett.cat/", "wikidata": "Q11946657", "wikimedia_commons": "Category:Sala Beckett", "wikipedia": "ca:Sala Beckett"}}, {"type": "relation", "id": 8940717, "members": [{"type": "way", "ref": 644517988, "role": "outer"}, {"type": "way", "ref": 644518029, "role": "inner"}], "tags": {"addr:city": "Barcelona", "amenity": "theatre", "building": "yes", "building:levels": "3", "email": "casinoalianca@telefonica.net", "name": "Casino l'Alian\u00e7a del Poblenou", "name:ca": "Casino l'Alian\u00e7a del Poblenou", "phone": "+34 932252814", "type": "multipolygon", "website": "http://www.casinoalianca.com", "wikidata": "Q46229138", "wikipedia": "ca:Casino l'Alian\u00e7a"}}, {"type": "relation", "id": 10667100, "members": [{"type": "way", "ref": 769392432, "role": "outer"}, {"type": "way", "ref": 769392454, "role": "inner"}, {"type": "way", "ref": 769392445, "role": "inner"}, {"type": "way", "ref": 769392429, "role": "inner"}, {"type": "way", "ref": 769392581, "role": "inner"}, {"type": "way", "ref": 769392479, "role": "inner"}], "tags": {"addr:housenumber": "27", "addr:postcode": "08002", "addr:street": "La Rambla", "amenity": "theatre", "building": "public", "building:levels": "7", "building:levels:underground": "1", "name": "Teatro Principal", "name:ca": "Teatre Principal", "old_name": "Teatre de la Santa Creu;Teatre de l'Hospital", "type": "multipolygon", "wikidata": "Q5658141", "wikipedia": "ca:Teatre Principal (Barcelona)"}}, {"type": "relation", "id": 10795345, "members": [{"type": "way", "ref": 779099050, "role": "outer"}, {"type": "way", "ref": 779099072, "role": "inner"}], "tags": {"amenity": "theatre", "building": "apartments", "building:levels": "6", "type": "multipolygon", "wikidata": "Q4569267", "wikipedia": "ca:Teatre Romea (Barcelona)"}}]}