{"version": 0.6, "generator": "Overpass API 0.7.62.5 1bd436f1", "osm3s": {"timestamp_osm_base": "2025-03-24T00:15:46Z", "copyright": "The data included in this document is from www.openstreetmap.org. The data is made available under ODbL."}, "elements": [{"type": "node", "id": 6884900189, "lat": 6.4153152, "lon": 2.8959768}, {"type": "node", "id": 6884900190, "lat": 6.4151121, "lon": 2.8963793}, {"type": "node", "id": 6884900191, "lat": 6.4155675, "lon": 2.8976117}, {"type": "node", "id": 6884900192, "lat": 6.4155675, "lon": 2.8986088}, {"type": "node", "id": 6884900193, "lat": 6.4135981, "lon": 2.8985902}, {"type": "node", "id": 6884900194, "lat": 6.4136105, "lon": 2.8959458}, {"type": "node", "id": 11887082163, "lat": 6.4042557, "lon": 3.0292305, "tags": {"amenity": "hospital", "name": "Primary Health Building Dadiluwi Ilaje Riverine", "operator:type": "public"}}, {"type": "node", "id": 11887087044, "lat": 6.4078114, "lon": 3.0736023, "tags": {"amenity": "hospital", "name": "Taffi Awori Primary Health Centre", "operator:type": "public"}}, {"type": "node", "id": 11887518929, "lat": 6.457593, "lon": 3.1535174, "tags": {"amenity": "hospital", "name": "Edo Convalescent Homeclinic And Easy Delivery", "operator": "private"}}, {"type": "node", "id": 11887518930, "lat": 6.4534686, "lon": 3.1439942, "tags": {"amenity": "hospital", "name": "Munidola Maternity Center", "operator": "private"}}, {"type": "node", "id": 11887518931, "lat": 6.4547106, "lon": 3.1392762, "tags": {"amenity": "hospital", "name": "Grace Mobolaji Maternity", "operator": "private"}}, {"type": "node", "id": 11887518933, "lat": 6.4584845, "lon": 3.131361, "tags": {"amenity": "hospital", "name": "Summy Indeel Laboratary", "operator": "private"}}, {"type": "node", "id": 11888950304, "lat": 6.443889, "lon": 3.1465262, "tags": {"amenity": "hospital", "name": "Primary Health Center Ese Ofin Riverine", "operator:type": "public"}}, {"type": "node", "id": 11888969820, "lat": 6.4181773, "lon": 3.1449088, "tags": {"amenity": "hospital", "name": "Irewe Primary Care Health Center Osulu Kingdom", "operator:type": "public"}}, {"type": "node", "id": 11889023442, "lat": 6.4581407, "lon": 3.1593271, "tags": {"amenity": "hospital", "name": "Conner Stone Medical Center", "operator": "private"}}, {"type": "node", "id": 11889023447, "lat": 6.458735, "lon": 3.1770015, "tags": {"amenity": "hospital", "name": "Deelshaddai Health Canter Home", "operator": "private"}}, {"type": "node", "id": 11889046391, "lat": 6.4515789, "lon": 3.1627616, "tags": {"amenity": "hospital", "name": "Igbede Primary Health Center Igbede Bstop Ojo Igbede", "operator": "private"}}, {"type": "node", "id": 11889159163, "lat": 6.4568267, "lon": 3.2021928, "tags": {"amenity": "hospital", "name": "Fellowship Clinic And Maternity Center", "operator": "private"}}, {"type": "node", "id": 11889159164, "lat": 6.4560805, "lon": 3.2022692, "tags": {"amenity": "hospital", "name": "God's Goal Hospital", "operator": "private"}}, {"type": "node", "id": 11889159165, "lat": 6.458504, "lon": 3.1849846, "tags": {"amenity": "hospital", "healthcare": "hospital", "name": "Divine Release Maternity Home", "operator": "private"}}, {"type": "node", "id": 11889159166, "lat": 6.4535725, "lon": 3.1895582, "tags": {"amenity": "hospital", "name": "Genesis Health Center", "operator": "private"}}, {"type": "node", "id": 11889190338, "lat": 6.44454, "lon": 3.2142627, "tags": {"amenity": "hospital", "name": "New Nigeria Hospital", "operator": "private"}}, {"type": "node", "id": 11975057900, "lat": 6.4182879, "lon": 3.2002549, "tags": {"amenity": "hospital", "name": "Iyagbe Maternity Centre", "operator:type": "public"}}, {"type": "way", "id": 735122001, "nodes": [6884900189, 6884900190, 6884900191, 6884900192, 6884900193, 6884900194, 6884900189], "tags": {"amenity": "hospital", "healthcare": "hospital", "name": "Badagry General Hospital"}}]}