{"version": 0.6, "generator": "Overpass API 0.7.62.5 1bd436f1", "osm3s": {"timestamp_osm_base": "2025-03-23T22:04:54Z", "copyright": "The data included in this document is from www.openstreetmap.org. The data is made available under ODbL."}, "elements": [{"type": "node", "id": 1483785546, "lat": 41.4153909, "lon": 2.1306852, "tags": {"name": "Llu\u00eds Muntades", "name:ca": "Llu\u00eds Muntades", "public_transport": "stop_position", "railway": "tram_stop", "tram": "yes"}}, {"type": "node", "id": 1483785586, "lat": 41.4156309, "lon": 2.1297114, "tags": {"name": "Font del Rac\u00f3", "name:ca": "Font del Rac\u00f3", "public_transport": "stop_position", "railway": "tram_stop", "tram": "yes"}}, {"type": "node", "id": 1483785644, "lat": 41.4160934, "lon": 2.131888, "tags": {"name": "Pla\u00e7a Dr. Andreu", "name:ca": "Pla\u00e7a Dr. Andreu", "public_transport": "stop_position", "railway": "tram_stop", "tram": "yes", "wheelchair": "no"}}, {"type": "node", "id": 1483785647, "lat": 41.4131825, "lon": 2.1349167, "tags": {"name": "Rom\u00e1n Macaya", "public_transport": "stop_position", "railway": "tram_stop", "tram": "yes", "wheelchair": "no"}}, {"type": "node", "id": 1483785670, "lat": 41.4151031, "lon": 2.1334309, "tags": {"name": "Josep Gar\u00ed", "public_transport": "stop_position", "railway": "tram_stop", "tram": "yes", "wheelchair": "no"}}, {"type": "node", "id": 1483785677, "lat": 41.4104671, "lon": 2.1368495, "tags": {"name": "Pla\u00e7a Kennedy", "name:ca": "Pla\u00e7a Kennedy", "public_transport": "stop_position", "railway": "tram_stop", "tram": "yes", "wheelchair": "no"}}, {"type": "node", "id": 1708943506, "lat": 41.3433368, "lon": 2.1451594}, {"type": "node", "id": 1747487695, "lat": 41.4151973, "lon": 2.1318636, "tags": {"name": "Adri\u00e0 Margarit", "name:ca": "Adri\u00e0 Margarit", "public_transport": "stop_position", "railway": "tram_stop", "tram": "yes"}}, {"type": "node", "id": 1747487696, "lat": 41.4147574, "lon": 2.1336901, "tags": {"name": "Bosch i Alsina", "public_transport": "stop_position", "railway": "tram_stop", "tram": "yes"}}, {"type": "node", "id": 1747487697, "lat": 41.41533, "lon": 2.1294738, "tags": {"name": "Carrer num. 15", "name:ca": "Carrer num. 15", "public_transport": "stop_position", "railway": "tram_stop", "tram": "yes"}}, {"type": "node", "id": 1747487698, "lat": 41.4126544, "lon": 2.135251, "tags": {"name": "Josep M\u00aa Florensa", "public_transport": "stop_position", "railway": "tram_stop", "tram": "yes", "wheelchair": "no"}}, {"type": "node", "id": 1926250991, "lat": 41.3433185, "lon": 2.1452093}, {"type": "node", "id": 1926251044, "lat": 41.3426516, "lon": 2.1447346}, {"type": "node", "id": 1926251159, "lat": 41.3426336, "lon": 2.1447865}, {"type": "node", "id": 2158044594, "lat": 41.3790068, "lon": 2.1400042, "tags": {"addr:city": "Barcelona", "addr:housenumber": "1-7", "addr:postcode": "08014", "addr:street": "Pla\u00e7a dels Pa\u00efsos Catalans", "alt_name": "Barcelona Sants", "description:ru": "\u0416/\u0434 \u0432\u043e\u043a\u0437\u0430\u043b. \u0413\u043b\u0430\u0432\u043d\u044b\u0439", "iata": "YJB", "internet_access": "wlan", "internet_access:fee": "no", "layer": "1", "name": "Barcelona - Sants", "official_name": "Barcelona - Sants", "opening_hours": "Mo-Fr 04:30-00:30; Sa-Su 05:00-00:30; PH 05:00-00:30", "operator": "Adif", "public_transport": "station", "railway": "station", "railway:ref": "BSA", "source": "http://adif.es/es_ES/infraestructuras/estaciones/71801/informacion_000097.shtml;https://github.com/trainline-eu/stations", "toilets:wheelchair": "yes", "uic_ref": "7171801", "website": "https://www.adif.es/w/71801-barcelona-sants?pageFromPlid=335", "wheelchair": "yes"}}, {"type": "node", "id": 2564671338, "lat": 41.3687724, "lon": 2.1630364, "tags": {"name": "Parc de Montju\u00efc", "name:ca": "Parc de Montju\u00efc", "name:en": "Parc de Montju\u00efc", "name:zh": "\u7336\u592a\u4eba\u7684\u5c71", "public_transport": "stop_position", "railway": "station", "wheelchair": "yes", "wheelchair:description": "Die Kabinen sind mit Rolli befahrbar, die Kabine wird daf\u00fcr extra angehalten.", "wikidata": "Q2436833", "wikipedia": "ca:Estaci\u00f3 de Parc de Montju\u00efc"}}, {"type": "node", "id": 2972006273, "lat": 41.3548169, "lon": 2.1152828, "tags": {"name": "Bellvitge - Gornal", "railway": "entrance"}}, {"type": "node", "id": 3394604126, "lat": 41.4171697, "lon": 2.2135446, "tags": {"name": "Alfons el Magn\u00e0nim", "name:ca": "Alfons el Magn\u00e0nim", "network": "Tranv\u00eda de Barcelona", "operator": "Tram", "public_transport": "stop_position", "railway": "tram_stop", "tram": "yes"}}, {"type": "node", "id": 3394604127, "lat": 41.4171932, "lon": 2.2135869, "tags": {"name": "Alfons el Magn\u00e0nim", "name:ca": "Alfons el Magn\u00e0nim", "network": "Tranv\u00eda de Barcelona", "operator": "Tram", "public_transport": "stop_position", "railway": "tram_stop", "tram": "yes"}}, {"type": "node", "id": 3394604128, "lat": 41.3975452, "lon": 2.1868584, "tags": {"name": "Auditori | Teatre Nacional", "network": "Tramvia de Barcelona", "operator": "Tram", "public_transport": "stop_position", "railway": "tram_stop", "tram": "yes"}}, {"type": "node", "id": 3394604129, "lat": 41.3975471, "lon": 2.1869019, "tags": {"name": "Auditori | Teatre Nacional", "network": "Tramvia de Barcelona", "operator": "Tram", "public_transport": "stop_position", "railway": "tram_stop", "tram": "yes"}}, {"type": "node", "id": 3394604130, "lat": 41.4201024, "lon": 2.2096149, "tags": {"name": "Bes\u00f2s", "name:ca": "Bes\u00f2s", "network": "Tranv\u00eda de Barcelona", "operator": "Tram", "public_transport": "stop_position", "railway": "tram_stop", "tram": "yes"}}, {"type": "node", "id": 3394604131, "lat": 41.4201141, "lon": 2.2095826, "tags": {"name": "Bes\u00f2s", "name:ca": "Bes\u00f2s", "network": "Tranv\u00eda de Barcelona", "operator": "Tram", "public_transport": "stop_position", "railway": "tram_stop", "tram": "yes"}}, {"type": "node", "id": 3394604132, "lat": 41.404366, "lon": 2.1915144, "tags": {"name": "Ca l'Arany\u00f3", "network": "Tramvia de Barcelona", "operator": "Tram", "public_transport": "stop_position", "railway": "tram_stop", "tram": "yes", "wheelchair": "yes"}}, {"type": "node", "id": 3394604133, "lat": 41.404517, "lon": 2.1914398, "tags": {"name": "Ca l'Arany\u00f3", "network": "Tramvia de Barcelona", "operator": "Tram", "public_transport": "stop_position", "railway": "tram_stop", "tram": "yes", "wheelchair": "yes"}}, {"type": "node", "id": 3394604134, "lat": 41.4080857, "lon": 2.1936474, "tags": {"name": "Can Jaumandreu", "network": "Tranv\u00eda de Barcelona", "operator": "Tram", "public_transport": "stop_position", "railway": "tram_stop", "tram": "yes", "wheelchair": "yes"}}, {"type": "node", "id": 3394604135, "lat": 41.4081175, "lon": 2.1935727, "tags": {"name": "Can Jaumandreu", "network": "Tranv\u00eda de Barcelona", "operator": "Tram", "public_transport": "stop_position", "railway": "tram_stop", "tram": "yes", "wheelchair": "yes"}}, {"type": "node", "id": 3394604136, "lat": 41.4152344, "lon": 2.2229671, "tags": {"name": "Campus Diagonal-Bes\u00f2s", "name:ca": "Campus Diagonal-Bes\u00f2s", "network": "Tramvia de Barcelona", "operator": "Tram", "public_transport": "stop_position", "railway": "tram_stop", "tram": "yes", "wikidata": "Q5574402", "wikipedia": "ca:Estaci\u00f3 de Campus Diagonal-Bes\u00f2s"}}, {"type": "node", "id": 3394604137, "lat": 41.4152598, "lon": 2.2228987, "tags": {"name": "Campus Diagonal-Bes\u00f2s", "name:ca": "Campus Diagonal-Bes\u00f2s", "network": "Tramvia de Barcelona", "operator": "Tram", "public_transport": "stop_position", "railway": "tram_stop", "tram": "yes", "wikidata": "Q5574402", "wikipedia": "ca:Estaci\u00f3 de Campus Diagonal-Bes\u00f2s"}}, {"type": "node", "id": 3394604138, "lat": 41.4188705, "lon": 2.226179, "tags": {"name": "Port F\u00f2rum", "name:ca": "Port F\u00f2rum", "network": "Tramvia de Barcelona", "operator": "Tram", "public_transport": "stop_position", "railway": "tram_stop", "tram": "yes", "wheelchair": "yes"}}, {"type": "node", "id": 3394604139, "lat": 41.4188838, "lon": 2.2261494, "tags": {"name": "Port F\u00f2rum", "name:ca": "Port F\u00f2rum", "network": "Tramvia de Barcelona", "operator": "Tram", "public_transport": "stop_position", "railway": "tram_stop", "tram": "yes", "wheelchair": "yes"}}, {"type": "node", "id": 3394604140, "lat": 41.3876188, "lon": 2.1918931, "tags": {"name": "Ciutadella | Vila Ol\u00edmpica", "network": "Tramvia de Barcelona", "operator": "Tram", "public_transport": "stop_position", "railway": "tram_stop", "tram": "yes"}}, {"type": "node", "id": 3394604141, "lat": 41.3876404, "lon": 2.1919248, "tags": {"name": "Ciutadella | Vila Ol\u00edmpica", "network": "Tramvia de Barcelona", "operator": "Tram", "public_transport": "stop_position", "railway": "tram_stop", "tram": "yes"}}, {"type": "node", "id": 3394604142, "lat": 41.4104628, "lon": 2.2156503, "tags": {"name": "El Maresme", "network": "Tramvia de Barcelona", "operator": "Tram", "public_transport": "stop_position", "railway": "tram_stop", "tram": "yes"}}, {"type": "node", "id": 3394604143, "lat": 41.4105255, "lon": 2.215634, "tags": {"name": "El Maresme", "network": "Tramvia de Barcelona", "operator": "Tram", "public_transport": "stop_position", "railway": "tram_stop", "tram": "yes"}}, {"type": "node", "id": 3394604146, "lat": 41.4113468, "lon": 2.19793, "tags": {"name": "Espronceda", "name:ca": "Espronceda", "network": "Tranv\u00eda de Barcelona", "operator": "Tram", "public_transport": "stop_position", "railway": "tram_stop", "tram": "yes"}}, {"type": "node", "id": 3394604147, "lat": 41.4113792, "lon": 2.1979225, "tags": {"name": "Espronceda", "name:ca": "Espronceda", "network": "Tranv\u00eda de Barcelona", "operator": "Tram", "public_transport": "stop_position", "railway": "tram_stop", "tram": "yes"}}, {"type": "node", "id": 3394604148, "lat": 41.4239413, "lon": 2.2305837, "tags": {"name": "Estaci\u00f3 de Sant Adri\u00e0", "name:ca": "Estaci\u00f3 de Sant Adri\u00e0", "network": "Tramvia de Barcelona", "operator": "Tram", "public_transport": "stop_position", "railway": "tram_stop", "tram": "yes", "wheelchair": "yes"}}, {"type": "node", "id": 3394604149, "lat": 41.4239698, "lon": 2.2305117, "tags": {"name": "Estaci\u00f3 de Sant Adri\u00e0", "name:ca": "Estaci\u00f3 de Sant Adri\u00e0", "network": "Tramvia de Barcelona", "operator": "Tram", "public_transport": "stop_position", "railway": "tram_stop", "tram": "yes", "wheelchair": "yes"}}, {"type": "node", "id": 3394604150, "lat": 41.4077339, "lon": 2.2049435, "tags": {"name": "Fluvi\u00e0", "network": "Tramvia de Barcelona", "operator": "Tram", "public_transport": "stop_position", "railway": "tram_stop", "tram": "yes"}}, {"type": "node", "id": 3394604151, "lat": 41.4078868, "lon": 2.2048765, "tags": {"name": "Fluvi\u00e0", "network": "Tramvia de Barcelona", "operator": "Tram", "public_transport": "stop_position", "railway": "tram_stop", "tram": "yes"}}, {"type": "node", "id": 3394604152, "lat": 41.4118206, "lon": 2.2198859, "tags": {"name": "F\u00f2rum", "network": "Tramvia de Barcelona", "operator": "Tram", "public_transport": "stop_position", "railway": "tram_stop", "tram": "yes"}}, {"type": "node", "id": 3394604153, "lat": 41.4118502, "lon": 2.2198212, "tags": {"name": "F\u00f2rum", "network": "Tramvia de Barcelona", "operator": "Tram", "public_transport": "stop_position", "railway": "tram_stop", "tram": "yes"}}, {"type": "node", "id": 3394604158, "lat": 41.4226283, "lon": 2.2219791, "tags": {"name": "la Catalana", "name:ca": "la Catalana", "network": "Tranv\u00eda de Barcelona", "operator": "Tram", "public_transport": "stop_position", "railway": "tram_stop", "tram": "yes"}}, {"type": "node", "id": 3394604159, "lat": 41.4226667, "lon": 2.2219075, "tags": {"name": "la Catalana", "name:ca": "la Catalana", "network": "Tranv\u00eda de Barcelona", "operator": "Tram", "public_transport": "stop_position", "railway": "tram_stop", "tram": "yes"}}, {"type": "node", "id": 3394604162, "lat": 41.4183226, "lon": 2.2209248, "tags": {"name": "la Mina", "name:ca": "la Mina", "network": "Tranv\u00eda de Barcelona", "operator": "Tram", "public_transport": "stop_position", "railway": "tram_stop", "tram": "yes"}}, {"type": "node", "id": 3394604163, "lat": 41.418424, "lon": 2.2210723, "tags": {"name": "la Mina", "name:ca": "la Mina", "network": "Tranv\u00eda de Barcelona", "operator": "Tram", "public_transport": "stop_position", "railway": "tram_stop", "tram": "yes"}}, {"type": "node", "id": 3394604164, "lat": 41.3940623, "lon": 2.1869404, "tags": {"name": "Marina", "name:ca": "Marina", "network": "Tramvia de Barcelona", "operator": "Tram", "public_transport": "stop_position", "railway": "tram_stop", "tram": "yes"}}, {"type": "node", "id": 3394604165, "lat": 41.3940648, "lon": 2.1868977, "tags": {"name": "Marina", "name:ca": "Marina", "network": "Tramvia de Barcelona", "operator": "Tram", "public_transport": "stop_position", "railway": "tram_stop", "tram": "yes"}}, {"type": "node", "id": 3394604166, "lat": 41.4194058, "lon": 2.2176683, "tags": {"name": "Parc del Bes\u00f2s", "name:ca": "Parc del Bes\u00f2s", "network": "Tranv\u00eda de Barcelona", "operator": "Tram", "public_transport": "stop_position", "railway": "tram_stop", "tram": "yes"}}, {"type": "node", "id": 3394604167, "lat": 41.419444, "lon": 2.2176113, "tags": {"name": "Parc del Bes\u00f2s", "name:ca": "Parc del Bes\u00f2s", "network": "Tranv\u00eda de Barcelona", "operator": "Tram", "public_transport": "stop_position", "railway": "tram_stop", "tram": "yes"}}, {"type": "node", "id": 3394604168, "lat": 41.4060605, "lon": 2.1982421, "tags": {"name": "Pere IV", "name:ca": "Pere IV", "network": "Tramvia de Barcelona", "operator": "Tram", "public_transport": "stop_position", "railway": "tram_stop", "tram": "yes"}}, {"type": "node", "id": 3394604169, "lat": 41.4062304, "lon": 2.1982588, "tags": {"name": "Pere IV", "name:ca": "Pere IV", "network": "Tramvia de Barcelona", "operator": "Tram", "public_transport": "stop_position", "railway": "tram_stop", "tram": "yes", "wheelchair": "yes"}}, {"type": "node", "id": 3394604170, "lat": 41.4273203, "lon": 2.2253427, "tags": {"name": "Sant Joan Baptista", "name:ca": "Sant Joan Baptista", "network": "Tranv\u00eda de Barcelona", "operator": "Tram", "public_transport": "stop_position", "railway": "tram_stop", "tram": "yes"}}, {"type": "node", "id": 3394604171, "lat": 41.4274396, "lon": 2.2254392, "tags": {"name": "Sant Joan Baptista", "name:ca": "Sant Joan Baptista", "network": "Tranv\u00eda de Barcelona", "operator": "Tram", "public_transport": "stop_position", "railway": "tram_stop", "tram": "yes"}}, {"type": "node", "id": 3394604172, "lat": 41.41646, "lon": 2.2047556, "tags": {"name": "Sant Mart\u00ed de Proven\u00e7als", "name:ca": "Sant Mart\u00ed de Proven\u00e7als", "network": "Tranv\u00eda de Barcelona", "operator": "Tram", "public_transport": "stop_position", "railway": "tram_stop", "tram": "yes"}}, {"type": "node", "id": 3394604173, "lat": 41.416499, "lon": 2.2047358, "tags": {"name": "Sant Mart\u00ed de Proven\u00e7als", "name:ca": "Sant Mart\u00ed de Proven\u00e7als", "network": "Tranv\u00eda de Barcelona", "operator": "Tram", "public_transport": "stop_position", "railway": "tram_stop", "tram": "yes"}}, {"type": "node", "id": 3394604176, "lat": 41.4091122, "lon": 2.2104564, "tags": {"name": "Selva de Mar", "name:ca": "Selva de Mar", "network": "Tramvia de Barcelona", "operator": "Tram", "public_transport": "stop_position", "railway": "tram_stop", "tram": "yes"}}, {"type": "node", "id": 3394604177, "lat": 41.4092736, "lon": 2.2104084, "tags": {"name": "Selva de Mar", "name:ca": "Selva de Mar", "network": "Tramvia de Barcelona", "operator": "Tram", "public_transport": "stop_position", "railway": "tram_stop", "tram": "yes"}}, {"type": "node", "id": 3394604178, "lat": 41.3901439, "lon": 2.1885483, "tags": {"name": "Wellington-UPF", "network": "Tramvia de Barcelona", "operator": "Tram", "public_transport": "stop_position", "railway": "tram_stop", "tram": "yes"}}, {"type": "node", "id": 3394604179, "lat": 41.3901664, "lon": 2.1885772, "tags": {"name": "Wellington-UPF", "network": "Tramvia de Barcelona", "operator": "Tram", "public_transport": "stop_position", "railway": "tram_stop", "tram": "yes"}}, {"type": "node", "id": 3395373883, "lat": 41.3807263, "lon": 2.1148697, "tags": {"name": "Avinguda de Xile", "name:ca": "Avinguda de Xile", "network": "Tranv\u00eda de Barcelona", "operator": "Tram", "public_transport": "stop_position", "railway": "tram_stop", "tram": "yes"}}, {"type": "node", "id": 3395373884, "lat": 41.3807557, "lon": 2.1147979, "tags": {"name": "Avinguda de Xile", "name:ca": "Avinguda de Xile", "network": "Tranv\u00eda de Barcelona", "operator": "Tram", "public_transport": "stop_position", "railway": "tram_stop", "tram": "yes"}}, {"type": "node", "id": 3395374193, "lat": 41.3921793, "lon": 2.1432109, "tags": {"name": "Francesc Maci\u00e0", "name:ca": "Francesc Maci\u00e0", "network": "Tranv\u00eda de Barcelona", "operator": "Tram", "public_transport": "stop_position", "railway": "tram_stop", "tram": "yes", "wheelchair": "yes"}}, {"type": "node", "id": 3395374194, "lat": 41.3922404, "lon": 2.143184, "tags": {"name": "Francesc Maci\u00e0", "name:ca": "Francesc Maci\u00e0", "network": "Tranv\u00eda de Barcelona", "operator": "Tram", "public_transport": "stop_position", "railway": "tram_stop", "tram": "yes", "wheelchair": "yes"}}, {"type": "node", "id": 3395374197, "lat": 41.3904953, "lon": 2.136533, "tags": {"name": "L'illa", "network": "Tranv\u00eda de Barcelona", "operator": "Tram", "public_transport": "stop_position", "railway": "tram_stop", "tram": "yes"}}, {"type": "node", "id": 3395374198, "lat": 41.3905232, "lon": 2.136522, "tags": {"name": "L'illa", "network": "Tranv\u00eda de Barcelona", "operator": "Tram", "public_transport": "stop_position", "railway": "tram_stop", "tram": "yes", "wheelchair": "yes"}}, {"type": "node", "id": 3395374199, "lat": 41.3879548, "lon": 2.1265109, "tags": {"name": "Maria Cristina", "network": "Tranv\u00eda de Barcelona", "operator": "Tram", "public_transport": "stop_position", "railway": "tram_stop", "tram": "yes"}}, {"type": "node", "id": 3395374200, "lat": 41.3879818, "lon": 2.1264998, "tags": {"name": "Maria Cristina", "network": "Tranv\u00eda de Barcelona", "operator": "Tram", "public_transport": "stop_position", "railway": "tram_stop", "tram": "yes"}}, {"type": "node", "id": 3395374203, "lat": 41.3893363, "lon": 2.1319742, "tags": {"name": "Num\u00e0ncia", "network": "Tranv\u00eda de Barcelona", "operator": "Tram", "public_transport": "stop_position", "railway": "tram_stop", "tram": "yes", "wheelchair": "yes"}}, {"type": "node", "id": 3395374204, "lat": 41.3893636, "lon": 2.1319611, "tags": {"name": "Num\u00e0ncia", "network": "Tranv\u00eda de Barcelona", "operator": "Tram", "public_transport": "stop_position", "railway": "tram_stop", "tram": "yes", "wheelchair": "yes"}}, {"type": "node", "id": 3395374205, "lat": 41.3859152, "lon": 2.1184788, "tags": {"name": "Palau Reial", "name:ca": "Palau Reial", "network": "Tranv\u00eda de Barcelona", "operator": "Tram", "public_transport": "stop_position", "railway": "tram_stop", "tram": "yes"}}, {"type": "node", "id": 3395374206, "lat": 41.3859419, "lon": 2.1184679, "tags": {"name": "Palau Reial", "name:ca": "Palau Reial", "network": "Tranv\u00eda de Barcelona", "operator": "Tram", "public_transport": "stop_position", "railway": "tram_stop", "tram": "yes"}}, {"type": "node", "id": 3395374207, "lat": 41.3867075, "lon": 2.1216148, "tags": {"name": "Pius XII", "network": "Tranv\u00eda de Barcelona", "operator": "Tram", "public_transport": "stop_position", "railway": "tram_stop", "tram": "yes"}}, {"type": "node", "id": 3395374208, "lat": 41.3867337, "lon": 2.1216038, "tags": {"name": "Pius XII", "network": "Tranv\u00eda de Barcelona", "operator": "Tram", "public_transport": "stop_position", "railway": "tram_stop", "tram": "yes"}}, {"type": "node", "id": 3395374211, "lat": 41.3842627, "lon": 2.1144128, "tags": {"name": "Zona Universit\u00e0ria", "name:ca": "Zona Universit\u00e0ria", "network": "Tranv\u00eda de Barcelona", "operator": "Tram", "public_transport": "stop_position", "railway": "tram_stop", "tram": "yes"}}, {"type": "node", "id": 3395374212, "lat": 41.3842711, "lon": 2.1144492, "tags": {"name": "Zona Universit\u00e0ria", "name:ca": "Zona Universit\u00e0ria", "network": "Tranv\u00eda de Barcelona", "operator": "Tram", "public_transport": "stop_position", "railway": "tram_stop", "tram": "yes"}}, {"type": "node", "id": 3397396364, "lat": 41.3755518, "lon": 2.1289265, "tags": {"covered": "yes", "defibrillator:access": "yes", "defibrillator:location": "Andana direcci\u00f3 Vall d'Hebron", "defibrillator:location:en": "Platform to Vall d'Hebron", "defibrillator:survey:date": "2023-12-02", "emergency": "defibrillator", "name": "Badal", "name:ca": "Badal", "network": "Metro de Barcelona", "operator": "TMB", "public_transport": "station", "railway": "station", "source": "geolocation taken from http://en.wikipedia.org/wiki/Barcelona_metro_line_5", "station": "subway", "subway": "yes", "wheelchair": "yes", "wikidata": "Q2348839", "wikipedia": "ca:Estaci\u00f3 de Badal"}}, {"type": "node", "id": 3397396374, "lat": 41.4146858, "lon": 2.1810127, "tags": {"defibrillator:access": "yes", "defibrillator:location": "andana direcci\u00f3 Vall d'Hebron", "defibrillator:location:en": "platform to Vall d'Hebron", "defibrillator:wheelchair:access": "yes", "emergency": "defibrillator", "emergency:fire_extinguisher": "yes", "indoor": "yes", "name": "Camp de l'Arpa", "name:ca": "Camp de l'Arpa", "network": "Metro de Barcelona", "operator": "TMB", "public_transport": "station", "railway": "station", "source": "geolocation taken from http://en.wikipedia.org/wiki/Barcelona_metro_line_5", "station": "subway", "subway": "yes", "wheelchair": "yes", "wikidata": "Q1866200", "wikipedia": "ca:Estaci\u00f3 de Camp de l'Arpa"}}, {"type": "node", "id": 3397396384, "lat": 41.3758735, "lon": 2.1184045, "tags": {"defibrillator:access": "yes", "defibrillator:indoor": "yes", "defibrillator:location": "andana direcci\u00f3 Fondo", "defibrillator:location:en": "platform", "emergency": "defibrillator", "emergency:fire_extinguisher": "yes", "indoor": "yes", "name": "Collblanc", "name:ca": "Collblanc", "network": "Metro de Barcelona", "network:wikidata": "Q237189", "operator": "TMB", "public_transport": "station", "railway": "station", "source": "surveying", "station": "subway", "subway": "yes", "wheelchair": "yes", "wikidata": "Q2181335", "wikipedia": "ca:Estaci\u00f3 de Collblanc"}}, {"type": "node", "id": 3397396385, "lat": 41.4234164, "lon": 2.1812853, "tags": {"defibrillator:access": "yes", "defibrillator:location": "andana direcci\u00f3 Vall d'Hebron", "defibrillator:location:en": "platform to Vall d'Hebron", "defibrillator:wheelchair:access": "yes", "emergency": "defibrillator", "emergency:fire_extinguisher": "yes", "name": "Congr\u00e9s-Indians", "name:ca": "Congr\u00e9s-Indians", "network": "Metro de Barcelona", "operator": "Transports Metropolitans de Barcelona", "public_transport": "station", "railway": "station", "station": "subway", "subway": "yes", "survey:date": "2023-12-24", "wheelchair": "yes", "wikidata": "Q2106590", "wikipedia": "ca:Estaci\u00f3 de Congr\u00e9s - Indians"}}, {"type": "node", "id": 3397396389, "lat": 41.3769334, "lon": 2.1759836, "tags": {"defibrillator:access": "yes", "defibrillator:location": "andana direcci\u00f3 Trinitat Nova", "defibrillator:location:en": "platform to Trinitat Nova", "defibrillator:wheelchair:access": "yes", "emergency": "defibrillator", "emergency:fire_extinguisher": "yes", "name": "Drassanes", "name:ca": "Drassanes", "network": "Metro de Barcelona", "operator": "Transports Metropolitans de Barcelona", "public_transport": "station", "railway": "station", "source": "geolocation taken from http://en.wikipedia.org/wiki/Barcelona_metro_line_3", "station": "subway", "subway": "yes", "wheelchair": "yes", "wikidata": "Q2549147", "wikipedia": "ca:Estaci\u00f3 de La Rambla - Drassanes"}}, {"type": "node", "id": 3397396595, "lat": 41.3839818, "lon": 2.1449598, "tags": {"defibrillator:access": "yes", "defibrillator:location": "Andana direcci\u00f3 Vall d'Hebron", "defibrillator:location:en": "Platform to Vall d'Hebron", "defibrillator:survey:date": "2023-12-02", "emergency": "defibrillator", "emergency:fire_extinguisher": "yes", "name": "Enten\u00e7a", "name:ca": "Enten\u00e7a", "network": "Metro de Barcelona", "operator": "TMB", "public_transport": "station", "railway": "station", "source": "geolocation taken from http://en.wikipedia.org/wiki/Barcelona_metro_line_5", "station": "subway", "subway": "yes", "wheelchair": "yes", "wikidata": "Q2640900", "wikipedia": "ca:Estaci\u00f3 d'Enten\u00e7a"}}, {"type": "node", "id": 3397396601, "lat": 41.4021018, "lon": 2.1529951, "tags": {"defibrillator:access": "yes", "defibrillator:location": "andana direcci\u00f3 Trinitat Nova", "defibrillator:location:en": "platform to Trinitat Nova", "defibrillator:wheelchair:access": "yes", "emergency": "defibrillator", "emergency:fire_extinguisher": "yes", "indoor": "yes", "name": "Fontana", "name:ca": "Fontana", "network": "Metro de Barcelona", "operator": "Transports Metropolitans de Barcelona", "public_transport": "station", "railway": "station", "station": "subway", "subway": "yes", "wheelchair": "yes", "wikidata": "Q535545", "wikipedia": "ca:Estaci\u00f3 de Fontana"}}, {"type": "node", "id": 3397396608, "lat": 41.4296898, "lon": 2.1603155, "tags": {"defibrillator:access": "yes", "defibrillator:location": "andana", "defibrillator:location:en": "platform", "defibrillator:wheelchair:access": "yes", "emergency": "defibrillator", "emergency:fire_extinguisher": "yes", "name": "Horta", "name:ca": "Horta", "network": "Metro de Barcelona", "operator": "Transports Metropolitans de Barcelona", "public_transport": "station", "railway": "station", "source": "geolocation taken from http://en.wikipedia.org/wiki/Barcelona_metro_line_5 and corrected by daily knowledge", "station": "subway", "subway": "yes", "survey:date": "2023-12-24", "wheelchair": "yes", "wikidata": "Q2643379", "wikipedia": "ca:Estaci\u00f3 d'Horta"}}, {"type": "node", "id": 3397396609, "lat": 41.3881615, "lon": 2.1505425, "tags": {"check_date": "2024-08-06", "defibrillator:access": "yes", "defibrillator:location": "Andana direcci\u00f3 Vall d'Hebron", "defibrillator:location:en": "Platform to Vall d'Hebron", "defibrillator:survey:date": "2023-12-02", "emergency": "defibrillator", "emergency:fire_extinguisher": "yes", "indoor": "no", "name": "Hospital Cl\u00ednic", "name:ca": "Hospital Cl\u00ednic", "network": "Metro de Barcelona", "operator": "TMB", "public_transport": "station", "railway": "station", "station": "subway", "subway": "yes", "wheelchair": "yes", "wikidata": "Q2331545", "wikipedia": "ca:Estaci\u00f3 d'Hospital Cl\u00ednic"}}, {"type": "node", "id": 3397396625, "lat": 41.4250282, "lon": 2.176504, "tags": {"defibrillator:access": "yes", "defibrillator:location": "andana", "defibrillator:location:en": "platform", "emergency": "defibrillator", "emergency:fire_extinguisher": "yes", "name": "Maragall", "name:ca": "Maragall", "public_transport": "station", "railway": "station", "source": "geolocation taken from http://en.wikipedia.org/wiki/Barcelona_metro_line_3", "station": "subway", "subway": "yes", "survey:date": "2023-12-24", "wheelchair": "yes", "wikidata": "Q2720055", "wikipedia": "ca:Estaci\u00f3 de Maragall"}}, {"type": "node", "id": 3397396626, "lat": 41.38794, "lon": 2.1262221, "tags": {"defibrillator:access": "yes", "defibrillator:location": "andana direcci\u00f3 Trinitat Nova", "defibrillator:location:en": "platform to Trinitat Nova", "defibrillator:wheelchair:access": "yes", "emergency": "defibrillator", "emergency:fire_extinguisher": "yes", "name": "Maria Cristina", "name:ca": "Maria Cristina", "network": "Metro de Barcelona", "operator": "Transports Metropolitans de Barcelona", "public_transport": "station", "railway": "station", "station": "subway", "subway": "yes", "wheelchair": "yes", "wikidata": "Q596655", "wikipedia": "ca:Estaci\u00f3 de Maria Cristina"}}, {"type": "node", "id": 3397396629, "lat": 41.4295504, "lon": 2.1445379, "tags": {"defibrillator:access": "yes", "defibrillator:location": "andana direcci\u00f3 Trinitat Nova", "defibrillator:location:en": "platform to Trinitat Nova", "defibrillator:wheelchair:access": "yes", "emergency": "defibrillator", "emergency:fire_extinguisher": "yes", "name": "Montbau", "name:ca": "Montbau", "network": "Metro de Barcelona", "operator": "Transports Metropolitans de Barcelona", "public_transport": "station", "railway": "station", "source": "geolocation taken from http://en.wikipedia.org/wiki/Barcelona_metro_line_3", "station": "subway", "subway": "yes", "survey:date": "2023-12-24", "wheelchair": "yes", "wikidata": "Q1850417", "wikipedia": "ca:Estaci\u00f3 de Montbau"}}, {"type": "node", "id": 3397396633, "lat": 41.4297598, "lon": 2.193435, "tags": {"defibrillator:access": "yes", "defibrillator:indoor": "yes", "defibrillator:location": "Andada direcci\u00f3 Can Zam", "defibrillator:location:en": "Platform to Can Zam", "defibrillator:wheelchair:access": "yes", "emergency": "defibrillator", "emergency:fire_extinguisher": "yes", "indoor": "yes", "name": "Onze de Setembre", "name:ca": "Onze de Setembre", "public_transport": "station", "railway": "station", "station": "subway", "subway": "yes", "survey:date": "2023-12-11", "wheelchair": "yes", "wikidata": "Q4889695", "wikipedia": "ca:Estaci\u00f3 d'Onze de Setembre"}}, {"type": "node", "id": 3397396640, "lat": 41.4175413, "lon": 2.1411326, "tags": {"defibrillator:access": "yes", "defibrillator:location": "andana direcci\u00f3 Trinitat Nova", "defibrillator:location:en": "platform to Trinitat Nova", "defibrillator:wheelchair:access": "yes", "emergency": "defibrillator", "emergency:fire_extinguisher": "yes", "indoor": "yes", "name": "Penitents", "name:ca": "Penitents", "network": "Metro de Barcelona", "operator": "Transports Metropolitans de Barcelona", "public_transport": "station", "railway": "station", "station": "subway", "subway": "yes", "wheelchair": "yes", "wikidata": "Q952778", "wikipedia": "ca:Estaci\u00f3 de Penitents"}}, {"type": "node", "id": 3397396644, "lat": 41.3820364, "lon": 2.136232, "tags": {"defibrillator:access": "yes", "defibrillator:location": "andana direcci\u00f3 Trinitat Nova", "defibrillator:location:en": "platform to Trinitat Nova", "defibrillator:wheelchair:access": "yes", "emergency": "defibrillator", "emergency:fire_extinguisher": "yes", "indoor": "yes", "name": "Pla\u00e7a del Centre", "name:ca": "Pla\u00e7a del Centre", "network": "Metro de Barcelona", "operator": "Transports Metropolitans de Barcelona", "public_transport": "station", "railway": "station", "station": "subway", "subway": "yes", "wheelchair": "yes", "wikidata": "Q2127269", "wikipedia": "ca:Estaci\u00f3 de Pla\u00e7a del Centre"}}, {"type": "node", "id": 3397396664, "lat": 41.378444, "lon": 2.1453675, "tags": {"defibrillator:access": "yes", "defibrillator:location": "andana direcci\u00f3 Trinitat Nova", "defibrillator:location:en": "platform to Trinitat Nova", "defibrillator:wheelchair:access": "yes", "emergency": "defibrillator", "emergency:fire_extinguisher": "yes", "name": "Tarragona", "name:ca": "Tarragona", "network": "Metro de Barcelona", "operator": "Transports Metropolitans de Barcelona", "public_transport": "station", "railway": "station", "source": "geolocation taken from http://en.wikipedia.org/wiki/Barcelona_metro_line_3", "station": "subway", "subway": "yes", "wheelchair": "yes", "wikidata": "Q2548401", "wikipedia": "ca:Estaci\u00f3 de Tarragona (Metro de Barcelona)"}}, {"type": "node", "id": 3397396678, "lat": 41.4119065, "lon": 2.1445239, "tags": {"defibrillator:access": "yes", "defibrillator:location": "andana direcci\u00f3 Trinitat Nova", "defibrillator:location:en": "platform to Trinitat Nova", "defibrillator:wheelchair:access": "yes", "emergency": "defibrillator", "emergency:fire_extinguisher": "yes", "name": "Vallcarca", "name:ca": "Vallcarca", "network": "Metro de Barcelona", "network:wikidata": "Q237189", "operator": "Transports Metropolitans de Barcelona", "public_transport": "station", "railway": "station", "station": "subway", "subway": "yes", "wheelchair": "yes", "wikidata": "Q1813621", "wikipedia": "ca:Estaci\u00f3 de Vallcarca"}}, {"type": "node", "id": 3397396688, "lat": 41.3841337, "lon": 2.1308782, "tags": {"defibrillator:access": "yes", "defibrillator:location": "andana direcci\u00f3 Trinitat Nova", "defibrillator:location:en": "platform to Trinitat Nova", "defibrillator:wheelchair:access": "yes", "emergency": "defibrillator", "emergency:fire_extinguisher": "yes", "name": "les Corts", "name:ca": "les Corts", "network": "Metro de Barcelona", "operator": "Transports Metropolitans de Barcelona", "public_transport": "station", "railway": "station", "station": "subway", "subway": "yes", "wheelchair": "yes", "wikidata": "Q2180113", "wikipedia": "ca:Estaci\u00f3 de les Corts"}}, {"type": "node", "id": 4447955596, "lat": 41.3747892, "lon": 2.169837, "tags": {"name": "Paral\u00b7lel (Funicular)", "name:ca": "Paral\u00b7lel (Funicular)", "network": "Metro de Barcelona", "operator": "Transports Metropolitans de Barcelona", "public_transport": "station", "railway": "station", "station": "funicular", "wheelchair": "yes", "wikidata": "Q2313145", "wikipedia": "ca:Estaci\u00f3 de Paral\u00b7lel"}}, {"type": "node", "id": 4710195127, "lat": 41.3988657, "lon": 2.1251389, "tags": {"name": "Sarri\u00e0", "name:ca": "Sarri\u00e0", "network": "FGC", "public_transport": "station", "railway": "station", "station": "subway", "subway": "yes", "train": "yes", "wheelchair": "yes", "wikidata": "Q2876854", "wikipedia": "ca:Estaci\u00f3 de Sarri\u00e0"}}, {"type": "node", "id": 4771857434, "lat": 41.3997143, "lon": 2.1520847, "tags": {"name": "Gr\u00e0cia", "name:ca": "Gr\u00e0cia", "network": "Metro de Barcelona;Metro del Vall\u00e8s", "piano": "yes", "public_transport": "station", "railway": "station", "station": "subway", "subway": "yes", "wikidata": "Q2501185", "wikipedia": "ca:Estaci\u00f3 de Gr\u00e0cia"}}, {"type": "node", "id": 5264056118, "lat": 41.3875812, "lon": 2.1692912, "tags": {"addr:city": "Barcelona", "addr:postcode": "08007", "addr:street": "Pla\u00e7a de Catalunya", "emergency": "defibrillator", "level": "-2", "name": "Barcelona - Pla\u00e7a Catalunya", "name:ca": "Barcelona - Pla\u00e7a Catalunya", "operator": "Adif", "public_transport": "station", "railway": "station", "wheelchair": "yes", "wikidata": "Q800447", "wikipedia": "ca:Estaci\u00f3 de Pla\u00e7a de Catalunya"}}, {"type": "node", "id": 5264057221, "lat": 41.3950237, "lon": 2.1709596, "tags": {"defibrillator:access": "yes", "defibrillator:indoor": "yes", "defibrillator:location": "Andana direcci\u00f3 Trinitat Nova", "defibrillator:location:en": "Platform to Trinitat Nova", "emergency": "defibrillator", "emergency:fire_extinguisher": "yes", "indoor": "no", "name": "Girona", "name:ca": "Girona", "network": "Metro de Barcelona", "operator": "Transports Metropolitans de Barcelona", "public_transport": "station", "railway": "station", "station": "subway", "subway": "yes", "wheelchair": "yes", "wikidata": "Q2606185", "wikipedia": "ca:Estaci\u00f3 de Girona (Metro de Barcelona)"}}, {"type": "node", "id": 5264057222, "lat": 41.385731, "lon": 2.1640978, "tags": {"access": "yes", "defibrillator:location": "Andana direcci\u00f3 Fondo", "defibrillator:location:en": "Platform to Fondo", "emergency": "defibrillator", "indoor": "yes", "level": "-2", "name": "Universitat", "name:ca": "Universitat", "network": "Metro de Barcelona", "operator": "Transports Metropolitans de Barcelona", "public_transport": "station", "railway": "station", "source": "geolocation taken from http://en.wikipedia.org/wiki/Barcelona_metro_line_1", "station": "subway", "subway": "yes", "survey:date": "2023-11-11", "wheelchair": "yes", "wikidata": "Q678668", "wikipedia": "ca:Estaci\u00f3 d'Universitat"}}, {"type": "node", "id": 5264057223, "lat": 41.3802503, "lon": 2.1633286, "tags": {"defibrillator:access": "yes", "defibrillator:indoor": "yes", "defibrillator:location": "andana direcci\u00f3 Pompeu Fabra", "defibrillator:location:en": "platform to Pompeu Fabra", "defibrillator:wheelchair:access": "yes", "emergency": "defibrillator", "emergency:fire_extinguisher": "yes", "indoor": "yes", "name": "Sant Antoni", "name:ca": "Sant Antoni", "network": "Metro de Barcelona", "operator": "Transports Metropolitans de Barcelona", "public_transport": "station", "railway": "station", "station": "subway", "subway": "yes", "wheelchair": "yes", "wikidata": "Q514447", "wikipedia": "ca:Estaci\u00f3 de Sant Antoni"}}, {"type": "node", "id": 5264057227, "lat": 41.3921143, "lon": 2.1809092, "tags": {"access": "yes", "defibrillator:location": "andana direcci\u00f3 Fondo", "defibrillator:location:en": "platform to Fondo", "emergency": "defibrillator", "indoor": "yes", "name": "Barcelona - Arc de Triomf", "name:ca": "Barcelona - Arc de Triomf", "operator": "Adif", "public_transport": "station", "railway": "station", "source": "geolocation taken from http://en.wikipedia.org/wiki/Barcelona_metro_line_1", "station": "subway", "subway": "yes", "train": "yes", "uic_ref": "7178804", "wheelchair": "yes", "wikidata": "Q800445", "wikipedia": "ca:Estaci\u00f3 d'Arc de Triomf"}}, {"type": "node", "id": 5264057229, "lat": 41.4000911, "lon": 2.1684275, "tags": {"defibrillator:access": "yes", "defibrillator:indoor": "yes", "defibrillator:location": "Andana direcci\u00f3 Trinitat Nova", "defibrillator:location:en": "Platform to Trinitat Nova", "defibrillator:wheelchair:access": "yes", "emergency": "defibrillator", "emergency:fire_extinguisher": "yes", "indoor": "no", "name": "Verdaguer", "name:ca": "Verdaguer", "network": "Metro de Barcelona", "operator": "TMB", "public_transport": "station", "railway": "station", "source": "geolocation taken from http://en.wikipedia.org/wiki/Barcelona_metro_line_4", "station": "subway", "subway": "yes", "wheelchair": "no", "wikidata": "Q2514293", "wikipedia": "ca:Estaci\u00f3 de Verdaguer"}}, {"type": "node", "id": 5264057235, "lat": 41.3959412, "lon": 2.1599423, "tags": {"defibrillator:access": "yes", "defibrillator:location": "andana direcci\u00f3 Trinitat Nova", "defibrillator:location:en": "platform to Trinitat Nova", "defibrillator:wheelchair:access": "yes", "emergency": "defibrillator", "emergency:fire_extinguisher": "yes", "intercambiador": "Proven\u00e7a/Diagonal", "name": "Diagonal", "name:ca": "Diagonal", "network": "Metro de Barcelona", "operator": "Transports Metropolitans de Barcelona", "public_transport": "station", "railway": "station", "station": "subway", "subway": "yes", "train_station": "Proven\u00e7a/Diagonal", "wheelchair": "yes", "wikidata": "Q2472213", "wikipedia": "ca:Estaci\u00f3 de Diagonal-Proven\u00e7a"}}, {"type": "node", "id": 5264057236, "lat": 41.3928741, "lon": 2.157979, "tags": {"name": "Proven\u00e7a", "name:ca": "Proven\u00e7a", "public_transport": "station", "railway": "station", "station": "subway", "subway": "yes", "train": "yes", "wikidata": "Q2472213", "wikipedia": "ca:Estaci\u00f3 de Diagonal-Proven\u00e7a"}}, {"type": "node", "id": 5296569385, "lat": 41.4216569, "lon": 2.1493621, "tags": {"access": "yes", "defibrillator:access": "yes", "defibrillator:location": "Andana central", "defibrillator:location:en": "Platform", "defibrillator:wheelchair:access": "yes", "emergency": "defibrillator", "emergency:fire_extinguisher": "yes", "indoor": "yes", "level": "-2", "name": "El Coll | La Teixonera", "name:ca": "El Coll | La Teixonera", "network": "Metro de Barcelona", "operator": "TMB", "panoramax": "7ec495a4-bf33-47dc-a307-d9919c5e8491", "public_transport": "station", "railway": "station", "station": "subway", "subway": "yes", "survey:date": "2023-12-24", "wheelchair": "yes", "wikidata": "Q690814", "wikipedia": "ca:Estaci\u00f3 del Coll - la Teixonera"}}, {"type": "node", "id": 5306327174, "lat": 41.3684057, "lon": 2.1166305, "tags": {"defibrillator:access": "yes", "defibrillator:location": "andana direcci\u00f3 Fondo", "defibrillator:location:en": "platform to Fondo", "emergency": "defibrillator", "emergency:fire_extinguisher": "yes", "emergency:indoor": "yes", "indoor": "yes", "level": "-2", "name": "Torrassa", "name:ca": "Torrassa", "network": "Metro de Barcelona", "operator": "Transports Metropolitans de Barcelona", "panoramax": "a2fa461b-2d9e-48e4-9501-28e3b6f0bdd1", "panoramax:0": "a2fa461b-2d9e-48e4-9501-28e3b6f0bdd1", "public_transport": "station", "railway": "station", "source": "rough manual transfer from http://www.tmb.net/img/genplano.pdf", "station": "subway", "subway": "yes", "survey:date": "2023-11-29", "wheelchair": "yes", "wikidata": "Q2003013", "wikipedia": "ca:Estaci\u00f3 de Torrassa"}}, {"type": "node", "id": 5306572501, "lat": 41.3687993, "lon": 2.1286052, "tags": {"defibrillator:access": "yes", "defibrillator:indoor": "yes", "defibrillator:location": "andana direcci\u00f3 Fondo", "defibrillator:location:en": "platform to Fondo", "defibrillator:wheelchair:access": "yes", "emergency": "defibrillator", "name": "Santa Eul\u00e0lia", "name:ca": "Santa Eul\u00e0lia", "network": "Metro de Barcelona", "operator": "Transports Metropolitans de Barcelona", "panoramax": "09b6a1b8-e9b6-410e-aa49-8cf199e82628", "public_transport": "station", "railway": "station", "station": "subway", "subway": "yes", "survey:date": "2024-03-16", "wheelchair": "yes", "wikidata": "Q2035804", "wikipedia": "ca:Estaci\u00f3 de Santa Eul\u00e0lia"}}, {"type": "node", "id": 5306846276, "lat": 41.3752424, "lon": 2.143419, "tags": {"name": "Hostafrancs", "name:ca": "Hostafrancs", "network": "Metro de Barcelona", "operator": "Transports Metropolitans de Barcelona", "public_transport": "station", "railway": "station", "source": "geolocation taken from http://en.wikipedia.org/wiki/Barcelona_metro_line_1", "station": "subway", "subway": "yes", "wheelchair": "yes", "wikidata": "Q2021847", "wikipedia": "ca:Estaci\u00f3 d'Hostafrancs"}}, {"type": "node", "id": 5306846302, "lat": 41.3753756, "lon": 2.1379127, "tags": {"level": "-2", "name": "Pla\u00e7a de Sants", "name:ca": "Pla\u00e7a de Sants", "network": "Metro de Barcelona", "operator": "Transports Metropolitans de Barcelona", "public_transport": "station", "railway": "station", "station": "subway", "subway": "yes", "wikidata": "Q2054359", "wikipedia": "ca:Estaci\u00f3 de Pla\u00e7a de Sants"}}, {"type": "node", "id": 5306885845, "lat": 41.3754812, "lon": 2.1493272, "tags": {"access": "yes", "defibrillator:location": "Andana direcci\u00f3 Fondo", "defibrillator:location:en": "Platform to Fondo", "emergency": "defibrillator", "indoor": "yes", "level": "-2", "name": "Espanya", "name:ca": "Espanya", "network": "Metro de Barcelona", "operator": "TMB", "panoramax": "291d864e-f217-401a-a401-ece7e5c75eaa", "public_transport": "station", "railway": "station", "station": "subway", "subway": "yes", "survey:date": "2023-11-17", "wheelchair": "yes", "wikidata": "Q669990", "wikipedia": "ca:Estaci\u00f3 d'Espanya"}}, {"type": "node", "id": 5307549252, "lat": 41.3792368, "lon": 2.1545732, "tags": {"access": "yes", "defibrillator:location": "andana direcci\u00f3 Fondo", "defibrillator:location:en": "platform to Fondo", "emergency": "defibrillator", "indoor": "yes", "level": "-2", "name": "Rocafort", "name:ca": "Rocafort", "network": "Metro de Barcelona", "operator": "Transports Metropolitans de Barcelona", "public_transport": "station", "railway": "station", "source": "geolocation taken from http://en.wikipedia.org/wiki/Barcelona_metro_line_1", "station": "subway", "subway": "yes", "wheelchair": "yes", "wikidata": "Q935853", "wikipedia": "ca:Estaci\u00f3 de Rocafort"}}, {"type": "node", "id": 5307617521, "lat": 41.3857937, "lon": 2.1683846, "tags": {"emergency": "defibrillator", "name": "Pla\u00e7a de Catalunya (FGC)", "name:ca": "Pla\u00e7a de Catalunya (FGC)", "network": "Metro de Barcelona;Metro del Vall\u00e8s", "public_transport": "station", "railway": "station", "source": "geolocation taken from http://en.wikipedia.org/wiki/Barcelona_metro_line_1", "station": "subway", "subway": "yes", "train": "yes", "train_station": "Estaci\u00f3n de Plaza de Catalu\u00f1a", "wheelchair": "yes", "wikidata": "Q800447", "wikipedia": "ca:Estaci\u00f3 de Pla\u00e7a de Catalunya"}}, {"type": "node", "id": 5307631366, "lat": 41.3747456, "lon": 2.1488327, "tags": {"access": "yes", "defibrillator:location": "andana", "defibrillator:location:en": "platform", "emergency": "defibrillator", "indoor": "yes", "level": "-2", "name": "Pla\u00e7a Espanya", "name:ca": "Pla\u00e7a Espanya", "name:ru": "\u041f\u043b\u043e\u0449\u0430\u0434\u044c \u0418\u0441\u043f\u0430\u043d\u0438\u0438", "public_transport": "station", "railway": "station", "station": "subway", "subway": "yes", "survey:date": "2023-11-17", "train": "yes", "wheelchair": "yes", "wikidata": "Q669990", "wikipedia": "ca:Estaci\u00f3 d'Espanya"}}, {"type": "node", "id": 5308480500, "lat": 41.4226234, "lon": 2.1870242, "tags": {"defibrillator:access": "yes", "defibrillator:location": "andana", "defibrillator:location:en": "platform", "defibrillator:wheelchair:access": "yes", "emergency": "defibrillator", "emergency:fire_extinguisher": "yes", "name": "La Sagrera (L1)", "name:ca": "La Sagrera (L1)", "network": "Metro de Barcelona", "operator": "Transports Metropolitans de Barcelona", "panoramax": "47e5f47c-d2eb-4d21-9d5a-2036440c1d28", "public_transport": "station", "railway": "station", "source": "geolocation taken from http://en.wikipedia.org/wiki/Barcelona_metro_line_1", "station": "subway", "subway": "yes", "survey:date": "2023-12-24", "wheelchair": "yes", "wikidata": "Q2140013", "wikipedia": "ca:Estaci\u00f3 de la Sagrera"}}, {"type": "node", "id": 5308481070, "lat": 41.4204532, "lon": 2.1867491, "tags": {"defibrillator:access": "yes", "defibrillator:location": "Andada", "defibrillator:location:en": "Platform", "defibrillator:wheelchair:access": "yes", "emergency": "defibrillator", "emergency:fire_extinguisher": "yes", "name": "La Sagrera (L9N-L10)", "name:ca": "La Sagrera (L9N-L10)", "network": "Metro de Barcelona", "operator": "Transports Metropolitans de Barcelona", "public_transport": "station", "railway": "station", "source": "geolocation taken from http://en.wikipedia.org/wiki/Barcelona_metro_line_1", "station": "subway", "subway": "yes", "survey:date": "2023-12-11", "train": "yes", "wheelchair": "yes", "wikidata": "Q2140013", "wikipedia": "ca:Estaci\u00f3 de la Sagrera"}}, {"type": "node", "id": 5308481074, "lat": 41.4212221, "lon": 2.186586, "tags": {"defibrillator:access": "yes", "defibrillator:location": "andana", "defibrillator:location:en": "platform", "defibrillator:wheelchair:access": "yes", "departures_board": "no", "emergency": "defibrillator", "emergency:fire_extinguisher": "yes", "name": "La Sagrera (L5)", "name:ca": "La Sagrera (L5)", "network": "Metro de Barcelona", "operator": "Transports Metropolitans de Barcelona", "panoramax": "7ac1051d-da52-445c-8c7f-d41da7ce08a3", "public_transport": "station", "railway": "station", "station": "subway", "subway": "yes", "survey:date": "2023-12-24", "wheelchair": "yes", "wikidata": "Q2140013", "wikipedia": "ca:Estaci\u00f3 de la Sagrera"}}, {"type": "node", "id": 5308768761, "lat": 41.4295936, "lon": 2.1749989, "tags": {"defibrillator:access": "yes", "defibrillator:location": "andana direcci\u00f3 Vall d'Hebron", "defibrillator:location:en": "platform to Vall d'Hebron", "defibrillator:wheelchair:access": "yes", "emergency": "defibrillator", "emergency:fire_extinguisher": "yes", "name": "Virrei Amat", "name:ca": "Virrei Amat", "network": "Metro de Barcelona", "operator": "Transports Metropolitans de Barcelona", "public_transport": "station", "railway": "station", "source": "geolocation taken from http://en.wikipedia.org/wiki/Barcelona_metro_line_5", "station": "subway", "subway": "yes", "survey:date": "2023-12-24", "wheelchair": "yes", "wikidata": "Q2710794", "wikipedia": "ca:Estaci\u00f3 de Virrei Amat"}}, {"type": "node", "id": 5308859849, "lat": 41.4040622, "lon": 2.173924, "tags": {"defibrillator:access": "yes", "defibrillator:indoor": "yes", "defibrillator:location": "Andana direcci\u00f3 Vall d'Hebron", "defibrillator:location:en": "Platform to Vall d'Hebron", "defibrillator:survey:date": "2023-12-02", "defibrillator:wheelchair:access": "yes", "emergency": "defibrillator", "emergency:fire_extinguisher": "yes", "name": "Sagrada Fam\u00edlia", "name:ca": "Sagrada Fam\u00edlia", "name:en": "Sagrada Fam\u00edlia", "name:ja": "\u30b5\u30b0\u30e9\u30c0\u30fb\u30d5\u30a1\u30df\u30ea\u30a2", "name:ru": "\u0421\u0430\u0433\u0440\u0430\u0434\u0430 \u0424\u0430\u043c\u0438\u043b\u0438\u044f", "network": "Metro de Barcelona", "operator": "Transports Metropolitans de Barcelona", "panoramax": "26e16d4f-0f75-4dad-8fa0-3d689145871a", "public_transport": "station", "railway": "station", "station": "subway", "subway": "yes", "survey:date": "2023-12-02", "wheelchair": "yes", "wikidata": "Q2548808", "wikipedia": "ca:Estaci\u00f3 de Sagrada Fam\u00edlia"}}, {"type": "node", "id": 5308901391, "lat": 41.4039801, "lon": 2.1751136, "tags": {"defibrillator:access": "yes", "defibrillator:indoor": "yes", "defibrillator:location": "andana direcci\u00f3 Pompeu Fabra", "defibrillator:location:en": "platform to Pompeu Fabra", "defibrillator:wheelchair:access": "yes", "emergency": "defibrillator", "emergency:fire_extinguisher": "yes", "name": "Sagrada Fam\u00edlia", "name:ca": "Sagrada Fam\u00edlia", "name:en": "Sagrada Fam\u00edlia", "name:ja": "\u30b5\u30b0\u30e9\u30c0\u30fb\u30d5\u30a1\u30df\u30ea\u30a2", "name:ru": "\u0421\u0430\u0433\u0440\u0430\u0434\u0430 \u0424\u0430\u043c\u0438\u043b\u0438\u044f", "network": "Metro de Barcelona", "operator": "Transports Metropolitans de Barcelona", "panoramax": "e71470f5-c9dc-4b8c-909c-6987d835b8b7", "public_transport": "station", "railway": "station", "station": "subway", "subway": "yes", "survey:date": "2023-12-02", "wheelchair": "yes", "wikidata": "Q2548808", "wikipedia": "ca:Estaci\u00f3 de Sagrada Fam\u00edlia"}}, {"type": "node", "id": 5310387159, "lat": 41.4297809, "lon": 2.1836388, "tags": {"access": "yes", "defibrillator:access": "yes", "defibrillator:location": "Andana central", "defibrillator:location:en": "Platform", "emergency": "defibrillator", "emergency:fire_extinguisher": "yes", "indoor": "yes", "level": "-2", "name": "Fabra i Puig", "name:ca": "Fabra i Puig", "public_transport": "station", "railway": "station", "source": "geolocation taken from http://en.wikipedia.org/wiki/Barcelona_metro_line_1", "station": "subway", "subway": "yes", "survey:date": "2023-11-12", "wheelchair": "yes", "wikidata": "Q1810408", "wikipedia": "ca:Estaci\u00f3 de Fabra i Puig"}}, {"type": "node", "id": 5310507552, "lat": 41.3987898, "lon": 2.119034, "tags": {"name": "Reina Elisenda", "name:ca": "Reina Elisenda", "network": "FGC", "public_transport": "station", "railway": "station", "station": "subway", "subway": "yes", "wikidata": "Q3495438", "wikipedia": "ca:Estaci\u00f3 de Reina Elisenda"}}, {"type": "node", "id": 5310684212, "lat": 41.3865465, "lon": 2.170084, "tags": {"defibrillator:access": "yes", "defibrillator:location": "andana direcci\u00f3 Trinitat Nova", "defibrillator:location:en": "platform to Trinitat Nova", "defibrillator:wheelchair:access": "yes", "emergency": "defibrillator", "emergency:fire_extinguisher": "yes", "indoor": "yes", "name": "Catalunya", "name:ca": "Catalunya", "network": "Metro de Barcelona", "operator": "Transports Metropolitans de Barcelona", "public_transport": "station", "railway": "station", "source": "geolocation taken from http://en.wikipedia.org/wiki/Barcelona_metro_line_1", "station": "subway", "subway": "yes", "wheelchair": "yes", "wikidata": "Q800447", "wikipedia": "ca:Estaci\u00f3 de Pla\u00e7a de Catalunya"}}, {"type": "node", "id": 5311209954, "lat": 41.3813959, "lon": 2.1730711, "tags": {"defibrillator:access": "yes", "defibrillator:location": "andana direcci\u00f3 Trinitat Nova", "defibrillator:location:en": "platform to Trinitat Nova", "emergency": "defibrillator", "emergency:fire_extinguisher": "yes", "name": "Liceu", "name:ca": "Liceu", "network": "Metro de Barcelona", "operator": "Transports Metropolitans de Barcelona", "public_transport": "station", "railway": "station", "source": "geolocation taken from http://en.wikipedia.org/wiki/Barcelona_metro_line_3", "station": "subway", "subway": "yes", "wheelchair": "yes", "wikidata": "Q2383315", "wikipedia": "ca:Estaci\u00f3 de Liceu"}}, {"type": "node", "id": 5312699738, "lat": 41.3417575, "lon": 2.1280783, "tags": {"defibrillator:access": "yes", "defibrillator:location": "Andana via 1", "defibrillator:location:en": "Platform 1", "defibrillator:survey:date": "2023-11-29", "emergency": "defibrillator", "indoor": "yes", "level": "-2", "name": "Parc Log\u00edstic", "name:ca": "Parc Log\u00edstic", "network": "Metro de Barcelona", "operator": "Transports Metropolitans de Barcelona", "public_transport": "station", "railway": "station", "share_taxi": "no", "start_date": "2016-02", "station": "subway", "subway": "yes", "survey:date": "2023-11-29", "wheelchair": "yes"}}, {"type": "node", "id": 5312699739, "lat": 41.3519228, "lon": 2.130679, "tags": {"defibrillator:access": "yes", "defibrillator:location": "Andana via 1", "defibrillator:location:en": "Platform 1", "defibrillator:survey:date": "2023-11-29", "emergency": "defibrillator", "indoor": "yes", "level": "-2", "name": "Fira", "name:ca": "Fira", "network": "Metro de Barcelona", "operator": "Transports Metropolitans de Barcelona", "public_transport": "station", "railway": "station", "share_taxi": "no", "start_date": "2016-02", "station": "subway", "subway": "yes", "wheelchair": "yes", "wikidata": "Q5492214", "wikipedia": "ca:Estaci\u00f3 de Fira"}}, {"type": "node", "id": 5312699740, "lat": 41.3572488, "lon": 2.1256902, "tags": {"defibrillator:access": "yes", "defibrillator:location": "Andana via 1", "defibrillator:location:en": "Platform 1", "defibrillator:survey:date": "2023-11-29", "emergency": "defibrillator", "indoor": "yes", "level": "-2", "name": "Europa | Fira", "name:ca": "Europa | Fira", "network": "Metro de Barcelona", "network:wikidata": "Q237189", "operator": "Transports Metropolitans de Barcelona", "public_transport": "station", "railway": "station", "share_taxi": "no", "station": "subway", "subway": "yes", "wheelchair": "yes", "wikidata": "Q2430675", "wikipedia": "ca:Estaci\u00f3 d'Europa-Fira"}}, {"type": "node", "id": 5312699741, "lat": 41.3607212, "lon": 2.1181989, "tags": {"defibrillator:access": "yes", "defibrillator:location": "Andana via 1", "defibrillator:location:en": "Platform 1", "defibrillator:survey:date": "2023-11-29", "emergency": "defibrillator", "name": "Can Tries - Gornal", "network": "Metro de Barcelona", "operator": "Transports Metropolitans de Barcelona", "public_transport": "station", "railway": "station", "station": "subway", "subway": "yes", "wheelchair": "yes", "wikidata": "Q8779847", "wikipedia": "ca:Estaci\u00f3 de Can Tries - Gornal"}}, {"type": "node", "id": 5312699743, "lat": 41.3858079, "lon": 2.1178553, "tags": {"defibrillator:access": "yes", "defibrillator:location": "andana direcci\u00f3 Trinitat Nova", "defibrillator:location:en": "platform to Trinitat Nova", "defibrillator:wheelchair:access": "yes", "emergency": "defibrillator", "emergency:fire_extinguisher": "yes", "indoor": "yes", "name": "Palau Reial", "name:ca": "Palau Reial", "network": "Metro de Barcelona", "operator": "Transports Metropolitans de Barcelona", "public_transport": "station", "railway": "station", "station": "subway", "subway": "yes", "wheelchair": "yes", "wikidata": "Q2536272", "wikipedia": "ca:Estaci\u00f3 de Palau Reial"}}, {"type": "node", "id": 5312707122, "lat": 41.3814691, "lon": 2.141114, "tags": {"defibrillator:access": "yes", "defibrillator:location": "andana direcci\u00f3 Trinitat Nova", "defibrillator:location:en": "platform to Trinitat Nova", "defibrillator:wheelchair:access": "yes", "emergency": "defibrillator", "emergency:fire_extinguisher": "yes", "name": "Sants Estaci\u00f3", "name:ca": "Sants Estaci\u00f3", "network": "Metro de Barcelona", "operator": "Transports Metropolitans de Barcelona", "public_transport": "station", "railway": "station", "station": "subway", "subway": "yes", "wheelchair": "yes", "wikidata": "Q800453", "wikipedia": "ca:Estaci\u00f3 de Barcelona-Sants"}}, {"type": "node", "id": 5312707123, "lat": 41.3749795, "lon": 2.1605721, "tags": {"defibrillator:access": "yes", "defibrillator:location": "andana direcci\u00f3 Trinitat Nova", "defibrillator:location:en": "platform to Trinitat Nova", "defibrillator:wheelchair:access": "yes", "emergency": "defibrillator", "emergency:fire_extinguisher": "yes", "indoor": "yes", "name": "el Poble-sec", "name:2022": "Poble Sec", "name:ca": "el Poble-sec", "network": "Metro de Barcelona", "operator": "Transports Metropolitans de Barcelona", "public_transport": "station", "railway": "station", "source": "geolocation taken from http://en.wikipedia.org/wiki/Barcelona_metro_line_3", "station": "subway", "subway": "yes", "survey:date": "2022-07-03", "wheelchair": "yes", "wikidata": "Q610740", "wikipedia": "ca:Estaci\u00f3 de Poble Sec"}}, {"type": "node", "id": 5312707126, "lat": 41.4061724, "lon": 2.1500337, "tags": {"defibrillator:access": "yes", "defibrillator:location": "andana direcci\u00f3 Trinitat Nova", "defibrillator:location:en": "platform to Trinitat Nova", "defibrillator:wheelchair:access": "yes", "emergency": "defibrillator", "emergency:fire_extinguisher": "yes", "name": "Lesseps", "name:ca": "Lesseps", "network": "Metro de Barcelona", "network:wikidata": "Q237189", "operator": "Transports Metropolitans de Barcelona", "public_transport": "station", "railway": "station", "station": "subway", "subway": "yes", "wheelchair": "yes", "wikidata": "Q979398", "wikipedia": "ca:Estaci\u00f3 de Lesseps"}}, {"type": "node", "id": 5313296732, "lat": 41.4005241, "lon": 2.1794545, "tags": {"defibrillator:access": "yes", "defibrillator:indoor": "yes", "defibrillator:location": "andana direcci\u00f3 Pompeu Fabra", "defibrillator:location:en": "platform to Pompeu Fabra", "defibrillator:wheelchair:access": "yes", "emergency": "defibrillator", "emergency:fire_extinguisher": "yes", "name": "Monumental", "name:ca": "Monumental", "network": "Metro de Barcelona", "operator": "Transports Metropolitans de Barcelona", "public_transport": "station", "railway": "station", "source": "geolocation taken from http://en.wikipedia.org/wiki/Barcelona_metro_line_2", "station": "subway", "subway": "yes", "wheelchair": "yes", "wikidata": "Q1877541", "wikipedia": "ca:Estaci\u00f3 de Monumental"}}, {"type": "node", "id": 5313315534, "lat": 41.4240389, "lon": 2.205618, "tags": {"defibrillator:access": "yes", "defibrillator:indoor": "yes", "defibrillator:location": "Andana direcci\u00f3 Pompeu Fabra", "defibrillator:location:en": "platform to Pompeu Fabra", "defibrillator:wheelchair:access": "yes", "emergency": "defibrillator", "emergency:fire_extinguisher": "yes", "name": "La Pau", "name:ca": "La Pau", "network": "Metro de Barcelona", "operator": "Transports Metropolitans de Barcelona", "public_transport": "station", "railway": "station", "station": "subway", "subway": "yes", "wheelchair": "yes", "wikidata": "Q1427150", "wikipedia": "ca:Estaci\u00f3 de la Pau"}}, {"type": "node", "id": 5313315535, "lat": 41.4070747, "lon": 2.1825232, "tags": {"defibrillator:access": "yes", "defibrillator:indoor": "yes", "defibrillator:location": "andana direcci\u00f3 Pompeu Fabra", "defibrillator:location:en": "platform to Pompeu Fabra", "defibrillator:wheelchair:access": "yes", "emergency:fire_extinguisher": "yes", "name": "Encants", "name:ca": "Encants", "network": "Metro de Barcelona", "operator": "Transports Metropolitans de Barcelona", "public_transport": "station", "railway": "station", "source": "rough manual transfer from http://www.tmb.net/img/genplano.pdf", "station": "subway", "subway": "yes", "wheelchair": "yes", "wikidata": "Q2184180", "wikipedia": "ca:Estaci\u00f3 d'Encants"}}, {"type": "node", "id": 5313315536, "lat": 41.4298896, "lon": 2.2097745, "tags": {"defibrillator:access": "yes", "defibrillator:indoor": "yes", "defibrillator:location": "andana direcci\u00f3 Pompeu Fabra", "defibrillator:location:en": "platform to Pompeu Fabra", "defibrillator:wheelchair:access": "yes", "emergency": "defibrillator", "emergency:fire_extinguisher": "yes", "name": "Verneda", "name:ca": "Verneda", "network": "Metro de Barcelona", "operator": "Transports Metropolitans de Barcelona", "public_transport": "station", "railway": "station", "station": "subway", "subway": "yes", "wheelchair": "yes", "wikidata": "Q1832307", "wikipedia": "ca:Estaci\u00f3 de Verneda"}}, {"type": "node", "id": 5313328722, "lat": 41.3678579, "lon": 2.1393675, "tags": {"camera:mount": "pole", "camera:type": "fixed", "man_made": "surveillance", "name": "Mag\u00f2ria - la Campana", "name:ca": "Mag\u00f2ria - la Campana", "public_transport": "station", "railway": "station", "source": "geolocation taken from http://en.wikipedia.org/wiki/Barcelona_metro_line_8", "station": "subway", "subway": "yes", "surveillance": "outdoor", "surveillance:type": "camera", "train": "yes", "wheelchair": "yes", "wikidata": "Q3780401", "wikipedia": "ca:Estaci\u00f3 de Mag\u00f2ria - la Campana"}}, {"type": "node", "id": 5313328723, "lat": 41.361165, "lon": 2.1301693, "tags": {"name": "Ildefons Cerd\u00e0", "name:ca": "Ildefons Cerd\u00e0", "public_transport": "station", "railway": "station", "station": "subway", "subway": "yes", "train": "yes", "wheelchair": "yes", "wikidata": "Q2605288", "wikipedia": "ca:Estaci\u00f3 d'Ildefons Cerd\u00e0 - Ciutat de la Just\u00edcia"}}, {"type": "node", "id": 5313328724, "lat": 41.3547752, "lon": 2.1170729, "tags": {"name": "Gornal", "name:ca": "Gornal", "public_transport": "station", "railway": "station", "source": "http://en.wikipedia.org/wiki/Barcelona_metro_line_8", "station": "subway", "subway": "yes", "train": "yes", "wheelchair": "yes", "wikidata": "Q3780396", "wikimedia_commons": "File:Estaci\u00f3 Gornal octubre 2023 2.jpg", "wikipedia": "ca:Estaci\u00f3 de Can Tries - Gornal"}}, {"type": "node", "id": 5313328726, "lat": 41.4148814, "lon": 2.1951059, "tags": {"defibrillator:access": "yes", "defibrillator:indoor": "yes", "defibrillator:location": "andana direcci\u00f3 Pompeu Fabra", "defibrillator:location:en": "platform to Pompeu Fabra", "defibrillator:wheelchair:access": "yes", "emergency": "defibrillator", "emergency:fire_extinguisher": "yes", "name": "Bac de Roda", "name:ca": "Bac de Roda", "network": "Metro de Barcelona", "operator": "Transports Metropolitans de Barcelona", "public_transport": "station", "railway": "station", "source": "geolocation taken from http://en.wikipedia.org/wiki/Barcelona_metro_line_2", "station": "subway", "subway": "yes", "wheelchair": "yes", "wikidata": "Q969395", "wikipedia": "ca:Estaci\u00f3 de Bac de Roda"}}, {"type": "node", "id": 5313340296, "lat": 41.3880852, "lon": 2.1733108, "tags": {"defibrillator:access": "yes", "defibrillator:indoor": "yes", "defibrillator:location": "Andana direcci\u00f3 Trinitat Nova", "defibrillator:location:en": "Platform to Trinitat Nova", "emergency": "defibrillator", "emergency:fire_extinguisher": "yes", "indoor": "yes", "layer": "-1", "name": "Urquinaona", "network": "Metro de Barcelona", "operator": "Transports Metropolitans de Barcelona", "public_transport": "station", "railway": "station", "source": "geolocation taken from http://en.wikipedia.org/wiki/Barcelona_metro_line_1", "station": "subway", "subway": "yes", "wheelchair": "yes"}}, {"type": "node", "id": 5313340297, "lat": 41.3840008, "lon": 2.1787061, "tags": {"defibrillator:access": "yes", "defibrillator:indoor": "yes", "defibrillator:location": "Andana direcci\u00f3 Trinitat Nova", "defibrillator:location:en": "Platform to Trinitat Nova", "emergency": "defibrillator", "emergency:fire_extinguisher": "yes", "name": "Jaume I", "name:ca": "Jaume I", "network": "Metro de Barcelona", "operator": "Transports Metropolitans de Barcelona", "public_transport": "station", "railway": "station", "station": "subway", "subway": "yes", "wheelchair": "yes", "wikidata": "Q2041028", "wikipedia": "ca:Estaci\u00f3 de Jaume I"}}, {"type": "node", "id": 5313340298, "lat": 41.3821171, "lon": 2.1854822, "tags": {"emergency": "defibrillator", "indoor": "yes", "name": "Barceloneta", "name:ca": "Barceloneta", "network": "Metro de Barcelona", "operator": "Transports Metropolitans de Barcelona", "public_transport": "station", "railway": "station", "source": "geolocation taken from http://en.wikipedia.org/wiki/Barcelona_metro_line_4", "station": "subway", "subway": "yes", "wheelchair": "yes", "wikidata": "Q591874", "wikipedia": "ca:Estaci\u00f3 de Barceloneta"}}, {"type": "node", "id": 5313340299, "lat": 41.3866815, "lon": 2.1929661, "tags": {"defibrillator:access": "yes", "defibrillator:indoor": "yes", "defibrillator:location": "Andana direcci\u00f3 Trinitat Nova", "defibrillator:location:en": "Platform to Trinitat Nova", "emergency": "defibrillator", "emergency:fire_extinguisher": "yes", "name": "Ciutadella | Vila Ol\u00edmpica", "name:ca": "Ciutadella | Vila Ol\u00edmpica", "network": "Metro de Barcelona", "operator": "Transports Metropolitans de Barcelona", "public_transport": "station", "railway": "station", "source": "geolocation taken from http://en.wikipedia.org/wiki/Barcelona_metro_line_4", "station": "subway", "subway": "yes", "wheelchair": "no", "wikidata": "Q1094407", "wikipedia": "ca:Estaci\u00f3 de Ciutadella - Vila Ol\u00edmpica"}}, {"type": "node", "id": 5313340300, "lat": 41.3950987, "lon": 2.1920399, "tags": {"defibrillator:access": "yes", "defibrillator:location": "Andana direcci\u00f3 Trinitat Nova", "defibrillator:location:en": "Platform to Trinitat Nova", "emergency": "defibrillator", "emergency:fire_extinguisher": "yes", "indoor": "yes", "level": "-2", "name": "Bogatell", "name:ca": "Bogatell", "network": "Metro de Barcelona", "operator": "Transports Metropolitans de Barcelona", "panoramax": "923730c3-2803-4316-a8cc-808f34f2192f", "public_transport": "station", "railway": "station", "source": "geolocation taken from http://en.wikipedia.org/wiki/Barcelona_metro_line_4", "station": "subway", "subway": "yes", "survey:date": "2023-11-25", "train": "yes", "wheelchair": "yes", "wikidata": "Q890391", "wikipedia": "ca:Estaci\u00f3 de Bogatell"}}, {"type": "node", "id": 5313340301, "lat": 41.3993809, "lon": 2.197649, "tags": {"defibrillator:access": "yes", "defibrillator:location": "Andana direcci\u00f3 Trinitat Nova", "defibrillator:location:en": "Platform to Trinitat Nova", "defibrillator:wheelchair:access": "yes", "emergency": "defibrillator", "emergency:fire_extinguisher": "yes", "indoor": "yes", "level": "-2", "name": "Llacuna", "name:ca": "Llacuna", "network": "Metro de Barcelona", "operator": "Transports Metropolitans de Barcelona", "panoramax": "1c6f2d42-28fb-4949-8157-b8c1ab52df0b", "public_transport": "station", "railway": "station", "source": "geolocation taken from http://en.wikipedia.org/wiki/Barcelona_metro_line_4", "station": "subway", "subway": "yes", "survey:date": "2023-11-25", "wheelchair": "yes", "wikidata": "Q1374399", "wikipedia": "ca:Estaci\u00f3 de Llacuna"}}, {"type": "node", "id": 5313340302, "lat": 41.4036418, "lon": 2.2032751, "tags": {"defibrillator:access": "yes", "defibrillator:location:en": "platform to Trinitat Nova", "emergency": "defibrillator", "emergency:fire_extinguisher": "yes", "emergency:location": "Andana direcci\u00f3 Trinitat Nova", "emergency_access": "yes", "name": "Poblenou", "name:ca": "Poblenou", "network": "Metro de Barcelona", "operator": "Transports Metropolitans de Barcelona", "public_transport": "station", "railway": "station", "source": "geolocation taken from http://en.wikipedia.org/wiki/Barcelona_metro_line_4", "station": "subway", "subway": "yes", "wheelchair": "yes", "wikidata": "Q1716538", "wikipedia": "ca:Estaci\u00f3 de Poblenou"}}, {"type": "node", "id": 5313340303, "lat": 41.4080147, "lon": 2.2091094, "tags": {"defibrillator:access": "yes", "defibrillator:location:en": "platform to Trinitat Nova", "emergency": "defibrillator", "emergency:fire_extinguisher": "yes", "emergency:location": "Andana direcci\u00f3 Trinitat Nova", "name": "Selva de Mar", "name:ca": "Selva de Mar", "network": "Metro de Barcelona", "operator": "Transports Metropolitans de Barcelona", "public_transport": "station", "railway": "station", "station": "subway", "subway": "yes", "wheelchair": "yes", "wikidata": "Q1265322", "wikipedia": "ca:Estaci\u00f3 de Selva de Mar"}}, {"type": "node", "id": 5313340304, "lat": 41.4117753, "lon": 2.2166779, "tags": {"defibrillator:access": "yes", "defibrillator:location:en": "platform to Trinitat Nova", "emergency": "defibrillator", "emergency:fire_extinguisher": "yes", "emergency:location": "Andana direcci\u00f3 Trinitat Nova", "name": "El Maresme | F\u00f2rum", "name:ca": "El Maresme | F\u00f2rum", "network": "Metro de Barcelona", "operator": "Transports Metropolitans de Barcelona", "public_transport": "station", "railway": "station", "station": "subway", "subway": "yes", "wheelchair": "yes", "wikidata": "Q948393", "wikipedia": "ca:Estaci\u00f3 del Maresme - F\u00f2rum"}}, {"type": "node", "id": 5313340305, "lat": 41.4203693, "lon": 2.2097125, "tags": {"defibrillator:access": "yes", "defibrillator:location": "Andana direcci\u00f3 Trinitat Nova", "defibrillator:location:en": "platform to Trinitat Nova", "emergency": "defibrillator", "emergency:fire_extinguisher": "yes", "name": "Bes\u00f2s", "name:ca": "Bes\u00f2s", "network": "Metro de Barcelona", "operator": "Transports Metropolitans de Barcelona", "public_transport": "station", "railway": "station", "source": "geolocation taken from http://en.wikipedia.org/wiki/Barcelona_metro_line_4", "station": "subway", "subway": "yes", "wheelchair": "yes", "wikidata": "Q830779", "wikipedia": "ca:Estaci\u00f3 de Bes\u00f2s"}}, {"type": "node", "id": 5313340306, "lat": 41.4150936, "lon": 2.2160851, "tags": {"defibrillator:access": "yes", "defibrillator:location:en": "platform to Trinitat Nova", "emergency": "defibrillator", "emergency:fire_extinguisher": "yes", "emergency:location": "Andana direcci\u00f3 Trinitat Nova", "name": "Bes\u00f2s Mar", "name:ca": "Bes\u00f2s Mar", "network": "Metro de Barcelona", "operator": "Transports Metropolitans de Barcelona", "public_transport": "station", "railway": "station", "source": "geolocation taken from http://en.wikipedia.org/wiki/Barcelona_metro_line_4", "station": "subway", "subway": "yes", "wheelchair": "yes", "wikidata": "Q830777", "wikimedia_commons": "File:Estaci\u00f3 Bes\u00f2s Mar octubre 2023.jpg", "wikipedia": "ca:Estaci\u00f3 de Bes\u00f2s Mar"}}, {"type": "node", "id": 5313340852, "lat": 41.4190565, "lon": 2.2007307, "tags": {"defibrillator:access": "yes", "defibrillator:indoor": "yes", "defibrillator:location": "andana direcci\u00f3 Pompeu Fabra", "defibrillator:location:en": "platform to Pompeu Fabra", "defibrillator:wheelchair:access": "yes", "emergency": "defibrillator", "emergency:fire_extinguisher": "yes", "indoor": "yes", "name": "Sant Mart\u00ed", "name:ca": "Sant Mart\u00ed", "network": "Metro de Barcelona", "operator": "Transports Metropolitans de Barcelona", "public_transport": "station", "railway": "station", "source": "geolocation taken from http://en.wikipedia.org/wiki/Barcelona_metro_line_2", "station": "subway", "subway": "yes", "wheelchair": "yes", "wikidata": "Q2028238", "wikipedia": "ca:Estaci\u00f3 de Sant Mart\u00ed"}}, {"type": "node", "id": 5313434190, "lat": 41.4101394, "lon": 2.1869158, "tags": {"defibrillator:access": "yes", "defibrillator:indoor": "yes", "defibrillator:location": "Andana central", "defibrillator:location:en": "platform", "emergency": "defibrillator", "emergency:fire_extinguisher": "yes", "indoor": "yes", "level": "-2", "name": "el Clot", "name:ca": "el Clot", "network": "Metro de Barcelona", "operator": "Transports Metropolitans de Barcelona", "panoramax": "68d1fed4-3e80-4bda-a980-820a3fe2be21", "public_transport": "station", "railway": "station", "station": "subway", "subway": "yes", "survey:date": "2023-11-12", "wheelchair": "no", "wikidata": "Q2435438", "wikipedia": "ca:Estaci\u00f3 El Clot"}}, {"type": "node", "id": 5313447376, "lat": 41.3948216, "lon": 2.1755213, "tags": {"defibrillator:access": "yes", "defibrillator:indoor": "yes", "defibrillator:location": "andana direcci\u00f3 Pompeu Fabra", "defibrillator:location:en": "platform to Pompeu Fabra", "defibrillator:wheelchair:access": "yes", "emergency": "defibrillator", "emergency:fire_extinguisher": "yes", "name": "Tetuan", "name:ca": "Tetuan", "network": "Metro de Barcelona", "operator": "Transports Metropolitans de Barcelona", "public_transport": "station", "railway": "station", "source": "geolocation taken from http://en.wikipedia.org/wiki/Barcelona_metro_line_2", "station": "subway", "subway": "yes", "wheelchair": "yes", "wikidata": "Q2692167", "wikipedia": "ca:Estaci\u00f3 de Tetuan"}}, {"type": "node", "id": 5313819558, "lat": 41.3896372, "lon": 2.1745608, "tags": {"access": "yes", "defibrillator:location": "andana direcci\u00f3 Fondo", "defibrillator:location:en": "platform to Fondo", "emergency": "defibrillator", "emergency:fire_extinguisher": "yes", "name": "Urquinaona", "network": "Metro de Barcelona", "operator": "Transports Metropolitans de Barcelona", "public_transport": "station", "railway": "station", "source": "geolocation taken from http://en.wikipedia.org/wiki/Barcelona_metro_line_1", "station": "subway", "subway": "yes", "wheelchair": "no"}}, {"type": "node", "id": 5313865123, "lat": 41.3798895, "lon": 2.1403215, "tags": {"defibrillator:access": "yes", "defibrillator:location": "Andana direcci\u00f3 Vall d'Hebron", "defibrillator:location:en": "Platform to Vall d'Hebron", "defibrillator:survey:date": "2023-12-02", "emergency:fire_extinguisher": "yes", "name": "Sants Estaci\u00f3", "name:ca": "Sants Estaci\u00f3", "public_transport": "station", "railway": "station", "station": "subway", "subway": "yes"}}, {"type": "node", "id": 5313898364, "lat": 41.4238386, "lon": 2.1866792, "tags": {"defibrillator:location": "vest\u00edbol", "emergency": "defibrillator", "emergency:fire_extinguisher": "yes", "emergency_access": "yes", "indoor": "yes", "intercambiador": "La Sagrera", "name": "La Sagrera - Meridiana", "name:ca": "La Sagrera - Meridiana", "operator": "Adif", "public_transport": "station", "railway": "station", "source": "geolocation taken from http://en.wikipedia.org/wiki/Barcelona_metro_line_1", "train": "yes", "wheelchair": "yes", "wikidata": "Q2140013", "wikipedia": "ca:Estaci\u00f3 de la Sagrera"}}, {"type": "node", "id": 5314011844, "lat": 41.4013354, "lon": 2.1474414, "tags": {"name": "Pla\u00e7a Molina", "name:ca": "Pla\u00e7a Molina", "network": "FGC", "public_transport": "station", "railway": "station", "station": "subway", "subway": "yes", "wikidata": "Q640079", "wikipedia": "ca:Estaci\u00f3 de Pla\u00e7a Molina"}}, {"type": "node", "id": 5314011845, "lat": 41.403344, "lon": 2.1430732, "tags": {"name": "P\u00e0dua", "name:ca": "P\u00e0dua", "network": "FGC", "public_transport": "station", "railway": "station", "station": "subway", "subway": "yes", "wheelchair": "yes", "wikidata": "Q2205125", "wikipedia": "ca:Estaci\u00f3 de P\u00e0dua"}}, {"type": "node", "id": 5314011846, "lat": 41.4058141, "lon": 2.1391359, "tags": {"name": "el Putxet", "name:ca": "el Putxet", "network": "FGC", "public_transport": "station", "railway": "station", "station": "subway", "subway": "yes", "wikidata": "Q1869410", "wikipedia": "ca:Estaci\u00f3 del Putxet"}}, {"type": "node", "id": 5314011847, "lat": 41.4096598, "lon": 2.1371569, "tags": {"name": "Avinguda Tibidabo", "name:ca": "Avinguda Tibidabo", "network": "FGC", "public_transport": "station", "railway": "station", "station": "subway", "subway": "yes", "wheelchair": "yes", "wikidata": "Q3504674", "wikipedia": "ca:Estaci\u00f3 d'Avinguda Tibidabo", "wikipedia:es": "Estaci\u00f3n de Avenida Tibidabo"}}, {"type": "node", "id": 5314028225, "lat": 41.4256037, "lon": 2.1549579, "tags": {"defibrillator:access": "yes", "defibrillator:location": "andana", "defibrillator:location:en": "platform", "defibrillator:wheelchair:access": "yes", "emergency": "defibrillator", "emergency:fire_extinguisher": "yes", "name": "el Carmel", "name:ca": "el Carmel", "network": "Metro de Barcelona", "operator": "Transports Metropolitans de Barcelona", "public_transport": "station", "railway": "station", "station": "subway", "subway": "yes", "survey:date": "2023-12-24", "wheelchair": "yes", "wikidata": "Q1936465", "wikipedia": "ca:Estaci\u00f3 del Carmel"}}, {"type": "node", "id": 5314028226, "lat": 41.4231064, "lon": 2.1773979, "tags": {"defibrillator:access": "yes", "defibrillator:indoor": "yes", "defibrillator:location": "Andana direcci\u00f3 Trinitat Nova", "defibrillator:location:en": "Platform to Trinitat Nova", "emergency": "defibrillator", "emergency:fire_extinguisher": "yes", "name": "Maragall", "name:ca": "Maragall", "network": "Metro de Barcelona", "operator": "Transports Metropolitans de Barcelona", "public_transport": "station", "railway": "station", "source": "geolocation taken from http://en.wikipedia.org/wiki/Barcelona_metro_line_3", "station": "subway", "subway": "yes", "wheelchair": "yes", "wikidata": "Q2720055", "wikipedia": "ca:Estaci\u00f3 de Maragall"}}, {"type": "node", "id": 5314028227, "lat": 41.4107312, "lon": 2.175983, "tags": {"defibrillator:access": "yes", "defibrillator:location": "andana direcci\u00f3 Vall d'Hebron", "defibrillator:location:en": "platform to Vall d'Hebron", "defibrillator:wheelchair:access": "yes", "emergency": "defibrillator", "emergency:fire_extinguisher": "yes", "name": "Sant Pau | Dos de Maig", "name:ca": "Sant Pau | Dos de Maig", "network": "Metro de Barcelona", "operator": "TMB", "public_transport": "station", "railway": "station", "station": "subway", "subway": "yes", "wheelchair": "yes", "wikidata": "Q1882713", "wikipedia": "ca:Estaci\u00f3 de Sant Pau - Dos de Maig"}}, {"type": "node", "id": 5314613396, "lat": 41.4010671, "lon": 2.1470799, "tags": {"name": "Sant Gervasi", "name:ca": "Sant Gervasi", "public_transport": "station", "railway": "station", "station": "subway", "subway": "yes", "wikidata": "Q1841199", "wikipedia": "ca:Estaci\u00f3 de Sant Gervasi"}}, {"type": "node", "id": 5315505594, "lat": 41.3976108, "lon": 2.1311837, "tags": {"name": "les Tres Torres", "name:ca": "les Tres Torres", "network": "FGC", "public_transport": "station", "railway": "station", "station": "subway", "subway": "yes", "wikidata": "Q2133945", "wikipedia": "ca:Estaci\u00f3 de les Tres Torres"}}, {"type": "node", "id": 5315505595, "lat": 41.3977857, "lon": 2.1361547, "tags": {"name": "la Bonanova", "name:ca": "la Bonanova", "network": "FGC", "public_transport": "station", "railway": "station", "station": "subway", "subway": "yes", "wikidata": "Q2647730", "wikipedia": "ca:Estaci\u00f3 de la Bonanova"}}, {"type": "node", "id": 5315505597, "lat": 41.3986188, "lon": 2.1428749, "tags": {"name": "Muntaner", "name:ca": "Muntaner", "network": "FGC", "public_transport": "station", "railway": "station", "station": "subway", "subway": "yes", "train": "yes", "wheelchair": "yes", "wikidata": "Q2617870", "wikipedia": "ca:Estaci\u00f3 de Muntaner"}}, {"type": "node", "id": 5315505598, "lat": 41.4062666, "lon": 2.1631882, "tags": {"defibrillator:access": "yes", "defibrillator:indoor": "yes", "defibrillator:location": "Andana direcci\u00f3 Trinitat Nova", "defibrillator:location:en": "Platform to Trinitat Nova", "emergency": "defibrillator", "emergency:fire_extinguisher": "yes", "name": "Joanic", "name:ca": "Joanic", "network": "Metro de Barcelona", "operator": "Transports Metropolitans de Barcelona", "public_transport": "station", "railway": "station", "source": "geolocation taken from http://en.wikipedia.org/wiki/Barcelona_metro_line_4", "station": "subway", "subway": "yes", "wheelchair": "yes", "wikidata": "Q2719965", "wikipedia": "ca:Estaci\u00f3 de Joanic"}}, {"type": "node", "id": 5315505599, "lat": 41.4160751, "lon": 2.174074, "tags": {"defibrillator:access": "yes", "defibrillator:indoor": "yes", "defibrillator:location": "Andana direcci\u00f3 Trinitat Nova", "defibrillator:location:en": "Platform to Trinitat Nova", "emergency": "defibrillator", "emergency:fire_extinguisher": "yes", "name": "Guinard\u00f3 | Hospital de Sant Pau", "name:ca": "Guinard\u00f3 | Hospital de Sant Pau", "network": "Metro de Barcelona", "operator": "Transports Metropolitans de Barcelona", "public_transport": "station", "railway": "station", "source": "geolocation taken from http://en.wikipedia.org/wiki/Barcelona_metro_line_4", "station": "subway", "subway": "yes", "wheelchair": "yes", "wikidata": "Q2719931", "wikipedia": "ca:Estaci\u00f3 de Guinard\u00f3 - Hospital de Sant Pau"}}, {"type": "node", "id": 5315505602, "lat": 41.4121009, "lon": 2.1655057, "tags": {"defibrillator:access": "yes", "defibrillator:indoor": "yes", "defibrillator:location": "Andana direcci\u00f3 Trinitat Nova", "defibrillator:location:en": "Platform to Trinitat Nova", "emergency": "defibrillator", "emergency:fire_extinguisher": "yes", "indoor": "yes", "level": "-2", "name": "Alfons X", "name:ca": "Alfons X", "network": "Metro de Barcelona", "operator": "Transports Metropolitans de Barcelona", "panoramax": "dd6d392e-c8c5-40c7-835c-6f1285ba4861", "public_transport": "station", "railway": "station", "source": "geolocation taken from http://en.wikipedia.org/wiki/Barcelona_metro_line_4", "station": "subway", "subway": "yes", "survey:date": "2023-11-25", "wheelchair": "yes", "wikidata": "Q784989", "wikipedia": "ca:Estaci\u00f3 d'Alfons X"}}, {"type": "node", "id": 5318185973, "lat": 41.3824863, "lon": 2.1588888, "tags": {"access": "yes", "defibrillator:location": "andana direcci\u00f3 Fondo", "defibrillator:location:en": "platform to Fondo", "emergency": "defibrillator", "indoor": "yes", "level": "-2", "name": "Urgell", "name:ca": "Urgell", "public_transport": "station", "railway": "station", "source": "geolocation taken from http://en.wikipedia.org/wiki/Barcelona_metro_line_1", "station": "subway", "subway": "yes", "wheelchair": "yes", "wikidata": "Q2094288", "wikipedia": "ca:Estaci\u00f3 d'Urgell"}}, {"type": "node", "id": 5318792450, "lat": 41.3949958, "lon": 2.1862682, "tags": {"access": "yes", "defibrillator:location": "andana direcci\u00f3 Fondo", "defibrillator:location:en": "platform to Fondo", "emergency": "defibrillator", "name": "Marina", "name:ca": "Marina", "public_transport": "station", "railway": "station", "station": "subway", "subway": "yes", "wheelchair": "yes", "wikidata": "Q2251103", "wikipedia": "ca:Estaci\u00f3 de Marina"}}, {"type": "node", "id": 5318926007, "lat": 41.4022111, "lon": 2.1875183, "tags": {"defibrillator:access": "yes", "defibrillator:indoor": "yes", "defibrillator:location": "Andana central", "defibrillator:location:en": "Platform", "defibrillator:wheelchair:access": "yes", "emergency": "defibrillator", "emergency:fire_extinguisher": "yes", "level": "-2", "name": "Gl\u00f2ries", "name:ca": "Gl\u00f2ries", "network": "Metro de Barcelona", "operator": "TMB", "panoramax": "21d7ee6f-ca09-4cb9-8864-280daf39c678", "public_transport": "station", "railway": "station", "station": "subway", "subway": "yes", "survey:date": "2023-11-17", "wheelchair": "yes", "wikidata": "Q2547599", "wikipedia": "ca:Estaci\u00f3 de Gl\u00f2ries"}}, {"type": "node", "id": 5319133652, "lat": 41.4160445, "lon": 2.1869379, "tags": {"access": "yes", "defibrillator:access": "yes", "defibrillator:location": "Andana central", "defibrillator:location:en": "Platform", "emergency": "defibrillator", "indoor": "yes", "level": "-2", "name": "Navas", "name:ca": "Navas", "network": "Metro de Barcelona", "operator": "TMB", "public_transport": "station", "railway": "station", "source": "geolocation taken from http://en.wikipedia.org/wiki/Barcelona_metro_line_1", "station": "subway", "subway": "yes", "survey:date": "2023-11-12", "wheelchair": "yes", "wikidata": "Q2547614", "wikipedia": "ca:Estaci\u00f3 de Navas"}}, {"type": "node", "id": 5319185886, "lat": 41.3749142, "lon": 2.1693908, "tags": {"defibrillator:access": "yes", "defibrillator:location": "andana direcci\u00f3 Trinitat Nova", "defibrillator:location:en": "platform to Trinitat Nova", "defibrillator:wheelchair:access": "yes", "emergency": "defibrillator", "emergency:fire_extinguisher": "yes", "name": "Paral\u00b7lel", "network": "Metro de Barcelona", "operator": "Transports Metropolitans de Barcelona", "public_transport": "station", "railway": "station", "source": "geolocation taken from http://en.wikipedia.org/wiki/Barcelona_metro_line_2", "station": "subway", "subway": "yes", "wheelchair": "yes"}}, {"type": "node", "id": 5319186240, "lat": 41.375133, "lon": 2.1693278, "tags": {"access": "yes", "defibrillator:access": "yes", "defibrillator:indoor": "yes", "defibrillator:location": "andana direcci\u00f3 Pompeu Fabra", "defibrillator:location:en": "platform to Pompeu Fabra", "defibrillator:location:fr": "Vest\u00edbol, entrant a l'esquerra", "defibrillator:wheelchair:access": "yes", "emergency": "defibrillator", "emergency:fire_extinguisher": "yes", "indoor": "yes", "level": "0", "name": "Paral\u00b7lel", "network": "Metro de Barcelona", "operator": "Transports Metropolitans de Barcelona", "public_transport": "station", "railway": "station", "ref": "Hall", "source": "geolocation taken from http://en.wikipedia.org/wiki/Barcelona_metro_line_2", "station": "subway", "subway": "yes", "survey:date": "2024-01-24", "wheelchair": "yes"}}, {"type": "node", "id": 5319195828, "lat": 41.3848285, "lon": 2.1640533, "tags": {"defibrillator:access": "yes", "defibrillator:indoor": "yes", "defibrillator:location": "andana direcci\u00f3 Pompeu Fabra", "defibrillator:location:en": "platform to Pompeu Fabra", "defibrillator:wheelchair:access": "yes", "emergency": "defibrillator", "emergency:fire_extinguisher": "yes", "indoor": "yes", "level": "-2", "name": "Universitat", "name:ca": "Universitat", "network": "Metro de Barcelona", "operator": "Transports Metropolitans de Barcelona", "public_transport": "station", "railway": "station", "source": "geolocation taken from http://en.wikipedia.org/wiki/Barcelona_metro_line_1", "station": "subway", "subway": "yes", "survey:date": "2023-11-11", "wheelchair": "yes"}}, {"type": "node", "id": 5319230410, "lat": 41.4102828, "lon": 2.1867259, "tags": {"defibrillator:access": "yes", "defibrillator:indoor": "yes", "defibrillator:location": "andana direcci\u00f3 Pompeu Fabra", "defibrillator:location:en": "platform to Pompeu Fabra", "defibrillator:wheelchair:access": "yes", "emergency": "defibrillator", "emergency:fire_extinguisher": "yes", "name": "el Clot", "name:ca": "el Clot", "network": "Metro de Barcelona", "operator": "Transports Metropolitans de Barcelona", "panoramax": "c73d3a4b-d40f-4bea-babc-bd8c1cd84d08", "public_transport": "station", "railway": "station", "station": "subway", "subway": "yes", "survey:date": "2023-12-02", "wheelchair": "yes", "wikidata": "Q2435438", "wikipedia": "ca:Estaci\u00f3 El Clot"}}, {"type": "node", "id": 5319269956, "lat": 41.4236829, "lon": 2.2051956, "tags": {"defibrillator:access": "yes", "defibrillator:location": "Andana direcci\u00f3 Trinitat Nova", "defibrillator:location:en": "platform to Trinitat Nova", "emergency": "defibrillator", "emergency:fire_extinguisher": "yes", "name": "La Pau", "name:ca": "La Pau", "network": "Metro de Barcelona", "operator": "Transports Metropolitans de Barcelona", "public_transport": "station", "railway": "station", "station": "subway", "subway": "yes", "wheelchair": "yes", "wikidata": "Q1427150", "wikipedia": "ca:Estaci\u00f3 de la Pau"}}, {"type": "node", "id": 5331527848, "lat": 41.399772, "lon": 2.1681937, "tags": {"defibrillator:access": "yes", "defibrillator:indoor": "yes", "defibrillator:location": "Andana direcci\u00f3 Vall d'Hebron", "defibrillator:location:en": "Platform to Vall d'Hebron", "defibrillator:survey:date": "2023-12-02", "defibrillator:wheelchair:access": "yes", "emergency": "defibrillator", "emergency:fire_extinguisher": "yes", "indoor": "yes", "name": "Verdaguer", "name:ca": "Verdaguer", "network": "Metro de Barcelona", "operator": "TMB", "public_transport": "station", "railway": "station", "source": "geolocation taken from http://en.wikipedia.org/wiki/Barcelona_metro_line_4", "station": "subway", "subway": "yes", "wheelchair": "no", "wikidata": "Q2514293", "wikipedia": "ca:Estaci\u00f3 de Verdaguer"}}, {"type": "node", "id": 5331527849, "lat": 41.4249128, "lon": 2.1423965, "tags": {"defibrillator:access": "yes", "defibrillator:location": "Andana direcci\u00f3 Trinitat Nova", "defibrillator:location:en": "Platform to Trinitat Nova", "defibrillator:wheelchair:access": "yes", "emergency": "defibrillator", "emergency:fire_extinguisher": "yes", "image2": "https://i.imgur.com/RwpL77x.jpg", "indoor": "yes", "level": "-2", "name": "Vall d\u2019Hebron | Sant Gen\u00eds", "name:-2023": "Vall d'Hebron", "name:ca": "Vall d\u2019Hebron | Sant Gen\u00eds", "name:ca:-2023": "Vall d'Hebron", "network": "Metro de Barcelona", "operator": "Transports Metropolitans de Barcelona", "panoramax": "8a241d46-36be-43cd-955e-0c88a0ab9694", "public_transport": "station", "railway": "station", "station": "subway", "subway": "yes", "survey:date": "2023-12-24", "wheelchair": "yes", "wikidata": "Q2518479", "wikipedia": "ca:Estaci\u00f3 de Vall d'Hebron - Sant Gen\u00eds"}}, {"type": "node", "id": 5331527851, "lat": 41.3571111, "lon": 2.1251579, "tags": {"name": "Europa | Fira", "name:ca": "Europa | Fira", "network": "Metro del Baix Llobregat", "network:wikidata": "Q2381339", "operator": "Ferrocarrils de la Generalitat de Catalunya", "public_transport": "station", "railway": "station", "share_taxi": "no", "station": "subway", "wheelchair": "yes", "wikidata": "Q2430675", "wikipedia": "ca:Estaci\u00f3 d'Europa-Fira"}}, {"type": "node", "id": 5331527852, "lat": 41.3944431, "lon": 2.158857, "tags": {"defibrillator:access": "yes", "defibrillator:location": "Andana direcci\u00f3 Vall d'Hebron", "defibrillator:location:en": "Platform to Vall d'Hebron", "defibrillator:survey:date": "2023-12-02", "emergency": "defibrillator", "emergency:fire_extinguisher": "yes", "intercambiador": "Proven\u00e7a/Diagonal", "name": "Diagonal", "name:ca": "Diagonal", "network": "Metro de Barcelona", "operator": "Transports Metropolitans de Barcelona", "public_transport": "station", "railway": "station", "station": "subway", "subway": "yes", "train_station": "Proven\u00e7a/Diagonal", "wheelchair": "yes", "wikidata": "Q2472213", "wikipedia": "ca:Estaci\u00f3 de Diagonal-Proven\u00e7a"}}, {"type": "node", "id": 5359976948, "lat": 41.389989, "lon": 2.1679788}, {"type": "node", "id": 5359977062, "lat": 41.3899796, "lon": 2.1679895}, {"type": "node", "id": 5359978124, "lat": 41.3899093, "lon": 2.1678635}, {"type": "node", "id": 5361709998, "lat": 41.3899151, "lon": 2.1678571}, {"type": "node", "id": 5361709999, "lat": 41.3899185, "lon": 2.1678527}, {"type": "node", "id": 5362005773, "lat": 41.3874038, "lon": 2.1690172}, {"type": "node", "id": 5362005775, "lat": 41.3874779, "lon": 2.1690362}, {"type": "node", "id": 5362005777, "lat": 41.3874388, "lon": 2.1690624}, {"type": "node", "id": 5362005778, "lat": 41.3874849, "lon": 2.1690316}, {"type": "node", "id": 5362005779, "lat": 41.3873907, "lon": 2.1690284}, {"type": "node", "id": 5362005780, "lat": 41.3874646, "lon": 2.1689776}, {"type": "node", "id": 5362005790, "lat": 41.3874136, "lon": 2.1690792}, {"type": "node", "id": 5362005791, "lat": 41.38743, "lon": 2.1690683}, {"type": "node", "id": 5362838962, "lat": 41.3894431, "lon": 2.1682772, "tags": {"defibrillator:access": "yes", "defibrillator:indoor": "yes", "defibrillator:location": "andana direcci\u00f3 Pompeu Fabra", "defibrillator:location:en": "platform to Pompeu Fabra", "defibrillator:wheelchair:access": "yes", "emergency": "defibrillator", "emergency:fire_extinguisher": "yes", "location": "underground", "name": "Passeig de Gr\u00e0cia (L2)", "name:ca": "Passeig de Gr\u00e0cia (L2)", "network": "Metro de Barcelona", "operator": "TMB", "public_transport": "station", "railway": "station", "station": "subway", "subway": "yes", "wheelchair": "yes", "wikidata": "Q800446", "wikipedia": "ca:Estaci\u00f3 de Passeig de Gr\u00e0cia"}}, {"type": "node", "id": 5432237929, "lat": 41.3842865, "lon": 2.1854688, "tags": {"name": "Barcelona - Estaci\u00f3 de Fran\u00e7a", "name:ca": "Barcelona - Estaci\u00f3 de Fran\u00e7a", "name:de": "Bahnhof Barcelona-Fran\u00e7a", "name:es": "Barcelona-Estaci\u00f3n de Francia", "name:it": "Stazione di Barcellona-Francia", "official_name": "Barcelona - Estaci\u00f3 de Fran\u00e7a", "operator": "Adif", "public_transport": "station", "railway": "station", "wheelchair": "yes", "wikidata": "Q800449", "wikipedia": "ca:Estaci\u00f3 de Fran\u00e7a"}}, {"type": "node", "id": 5436098130, "lat": 41.3540138, "lon": 2.1154078, "tags": {"name": "Bellvitge-Gornal", "name:ca": "Bellvitge-Gornal", "network": "Rodalies", "operator": "Adif", "public_transport": "station", "railway": "station", "wheelchair": "yes", "wikidata": "Q3780396", "wikipedia": "ca:Estaci\u00f3 de Bellvitge-Gornal / Gornal"}}, {"type": "node", "id": 5891860142, "lat": 41.3558512, "lon": 2.1421622, "tags": {"defibrillator:indoor": "yes", "defibrillator:location": "Andana direcci\u00f3 Collblanc", "defibrillator:location:en": "Platform to Collblanc", "defibrillator:wheelchair:access": "yes", "emergency": "defibrillator", "emergency:fire_extinguisher": "yes", "name": "Foc", "name:ca": "Foc", "network": "Metro de Barcelona", "operator": "Transports Metropolitans de Barcelona", "panoramax": "226f2ab7-70e6-40a0-a3cf-5340532b1028", "panoramax:0": "226f2ab7-70e6-40a0-a3cf-5340532b1028", "public_transport": "station", "railway": "station", "station": "subway", "subway": "yes", "survey:date": "2024-03-16", "wheelchair": "yes", "wikidata": "Q4889365", "wikipedia": "ca:Estaci\u00f3 de Foc"}}, {"type": "node", "id": 5891864891, "lat": 41.3604566, "lon": 2.1386556, "tags": {"emergency": "defibrillator", "name": "Foneria", "name:ca": "Foneria", "network": "Metro de Barcelona", "operator": "Transports Metropolitans de Barcelona", "public_transport": "station", "railway": "station", "station": "subway", "subway": "yes", "wheelchair": "yes", "wikidata": "Q8779791", "wikipedia": "ca:Estaci\u00f3 de Foneria"}}, {"type": "node", "id": 6080247685, "lat": 41.4010983, "lon": 2.1468243}, {"type": "node", "id": 6080247686, "lat": 41.401189, "lon": 2.1468607}, {"type": "node", "id": 6080247687, "lat": 41.4011356, "lon": 2.1467812}, {"type": "node", "id": 6080247688, "lat": 41.4011521, "lon": 2.1469044}, {"type": "node", "id": 6312297622, "lat": 41.3613875, "lon": 2.1242931, "tags": {"emergency": "defibrillator", "name": "Proven\u00e7ana", "network": "Metro de Barcelona", "operator": "TMB", "public_transport": "station", "railway": "station", "station": "subway", "subway": "yes", "wheelchair": "yes", "wikidata": "Q8841545", "wikipedia": "ca:Estaci\u00f3 de Proven\u00e7ana"}}, {"type": "node", "id": 7005588443, "lat": 41.3632435, "lon": 2.1330085, "tags": {"emergency": "defibrillator", "indoor": "yes", "name": "Ciutat de la Just\u00edcia", "name:ca": "Ciutat de la Just\u00edcia", "network": "Metro de Barcelona", "operator": "TMB", "public_transport": "station", "railway": "station", "station": "subway", "subway": "yes", "wheelchair": "yes", "wikidata": "Q76747272", "wikipedia": "es:Estaci\u00f3n de Ciudad de la Justicia (Metro de Barcelona)"}}, {"type": "node", "id": 7201979114, "lat": 41.4090696, "lon": 2.1874108, "tags": {"access": "yes", "alt_name": "Barcelona-Clot-Arago", "defibrillator:access": "yes", "defibrillator:location": "Vest\u00edbul, passadis que comunica amb el metro", "defibrillator:location:en": "Hall", "defibrillator:survey:date": "2023-12-02", "defibrillator:wheelchair:access": "yes", "emergency": "defibrillator", "emergency:fire_extinguisher": "yes", "indoor": "yes", "level": "-1", "name": "El Clot", "name:ca": "El Clot", "operator": "Adif", "panoramax": "4b15f30f-b2f6-496d-85de-374e633fb512", "public_transport": "station", "railway": "station", "source": "https://github.com/trainline-eu/stations", "survey:date": "2024-01-15", "uic_ref": "7179009", "wheelchair": "yes", "wikidata": "Q2435438", "wikipedia": "ca:Estaci\u00f3 El Clot"}}, {"type": "node", "id": 8075332007, "lat": 41.3917373, "lon": 2.1650763}, {"type": "node", "id": 8075332008, "lat": 41.3918154, "lon": 2.1651872}, {"type": "node", "id": 8075346137, "lat": 41.3917788, "lon": 2.1652323}, {"type": "node", "id": 8075346142, "lat": 41.3917013, "lon": 2.165121}, {"type": "node", "id": 8075346218, "lat": 41.3919539, "lon": 2.1650164}, {"type": "node", "id": 8075346219, "lat": 41.3913291, "lon": 2.1657865}, {"type": "node", "id": 8075346220, "lat": 41.3913075, "lon": 2.1657584}, {"type": "node", "id": 8075346222, "lat": 41.3919361, "lon": 2.1649899}, {"type": "node", "id": 8075346223, "lat": 41.3914046, "lon": 2.1654814}, {"type": "node", "id": 8075346224, "lat": 41.3913653, "lon": 2.1655302}, {"type": "node", "id": 8075346225, "lat": 41.3914075, "lon": 2.1654855}, {"type": "node", "id": 8075346226, "lat": 41.3918765, "lon": 2.1649036}, {"type": "node", "id": 8075346227, "lat": 41.3913695, "lon": 2.1655361}, {"type": "node", "id": 8075346228, "lat": 41.3913457, "lon": 2.1655655}, {"type": "node", "id": 8075346229, "lat": 41.3913308, "lon": 2.1655441}, {"type": "node", "id": 8075346230, "lat": 41.3913145, "lon": 2.1655643}, {"type": "node", "id": 8075346231, "lat": 41.3913277, "lon": 2.1655832}, {"type": "node", "id": 8075346232, "lat": 41.3912852, "lon": 2.1656359}, {"type": "node", "id": 8075346233, "lat": 41.3912923, "lon": 2.1656461}, {"type": "node", "id": 8075346234, "lat": 41.3912596, "lon": 2.1656867}, {"type": "node", "id": 8075346235, "lat": 41.391271, "lon": 2.165703}, {"type": "node", "id": 8075346236, "lat": 41.3918945, "lon": 2.1649294}, {"type": "node", "id": 9870988448, "lat": 41.355039, "lon": 2.1153256}, {"type": "node", "id": 9870988449, "lat": 41.3550168, "lon": 2.115955}, {"type": "node", "id": 9870988450, "lat": 41.3548712, "lon": 2.115923}, {"type": "node", "id": 9870988451, "lat": 41.3549021, "lon": 2.1153309}, {"type": "node", "id": 9870988452, "lat": 41.3548148, "lon": 2.1153239}, {"type": "node", "id": 9870988453, "lat": 41.3548189, "lon": 2.1152439}, {"type": "node", "id": 9870988454, "lat": 41.3549737, "lon": 2.1152558}, {"type": "node", "id": 9870988455, "lat": 41.3549708, "lon": 2.1153204}, {"type": "node", "id": 9870988456, "lat": 41.3550038, "lon": 2.1161959}, {"type": "node", "id": 9870988457, "lat": 41.3549467, "lon": 2.116192}, {"type": "node", "id": 9870988458, "lat": 41.3549597, "lon": 2.1159307}, {"type": "node", "id": 9870988461, "lat": 41.3549447, "lon": 2.1159294}, {"type": "node", "id": 9872417144, "lat": 41.3550155, "lon": 2.1159793}, {"type": "node", "id": 10793541452, "lat": 41.4011723, "lon": 2.1468359}, {"type": "node", "id": 10921169514, "lat": 41.416459, "lon": 2.1311043, "tags": {"name": "Funicular Pla\u00e7a Doctor Andreu", "operator": "RATP", "public_transport": "station", "railway": "station", "station": "funicular", "wheelchair": "yes"}}, {"type": "node", "id": 10921169515, "lat": 41.4213823, "lon": 2.1194967, "tags": {"funicular": "yes", "name": "Funicular Parc d'atraccions Tibidabo", "name:ca": "Funicular Parc d'atraccions Tibidabo", "operator": "RATP", "public_transport": "station", "railway": "station", "station": "funicular", "wheelchair": "yes"}}, {"type": "node", "id": 10922876096, "lat": 41.3984729, "lon": 2.1674685, "tags": {"name": "Verdaguer", "network": "Tramvia de Barcelona", "operator": "Tram", "public_transport": "stop_position", "railway": "tram_stop", "tram": "yes", "wheelchair": "yes", "wikidata": "Q2514293", "wikimedia_commons": "Category:Verdaguer metrostation", "wikipedia": "ca:Estaci\u00f3 de Verdaguer"}}, {"type": "node", "id": 10922876097, "lat": 41.3985003, "lon": 2.1674532, "tags": {"name": "Verdaguer", "network": "Tramvia de Barcelona", "operator": "Tram", "public_transport": "stop_position", "railway": "tram_stop", "tram": "yes", "wheelchair": "yes", "wikidata": "Q2514293", "wikimedia_commons": "Category:Verdaguer metrostation", "wikipedia": "ca:Estaci\u00f3 de Verdaguer"}}, {"type": "node", "id": 10922876098, "lat": 41.4018372, "lon": 2.1810883, "tags": {"name": "Monumental", "network": "Tramvia de Barcelona", "operator": "Tram", "public_transport": "stop_position", "railway": "tram_stop", "tram": "yes", "wheelchair": "yes", "wikidata": "Q1877541", "wikimedia_commons": "Category:Monumental metrostation", "wikipedia": "ca:Estaci\u00f3 de Monumental"}}, {"type": "node", "id": 10922876099, "lat": 41.4020205, "lon": 2.1810122, "tags": {"name": "Monumental", "network": "Tramvia de Barcelona", "operator": "Tram", "public_transport": "stop_position", "railway": "tram_stop", "tram": "yes", "wheelchair": "yes", "wikidata": "Q1877541", "wikimedia_commons": "Category:Monumental metrostation", "wikipedia": "ca:Estaci\u00f3 de Monumental"}}, {"type": "node", "id": 10922876100, "lat": 41.4001601, "lon": 2.1741715, "tags": {"name": "Sic\u00edlia", "network": "Tramvia de Barcelona", "operator": "Tram", "public_transport": "stop_position", "railway": "tram_stop", "tram": "yes", "wheelchair": "yes", "wikidata": "Q97198939", "wikipedia": "ca:Estaci\u00f3 de Sic\u00edlia"}}, {"type": "node", "id": 10922876101, "lat": 41.4001836, "lon": 2.1741631, "tags": {"name": "Sic\u00edlia", "network": "Tramvia de Barcelona", "operator": "Tram", "public_transport": "stop_position", "railway": "tram_stop", "tram": "yes", "wheelchair": "yes", "wikidata": "Q97198939", "wikipedia": "ca:Estaci\u00f3 de Sic\u00edlia"}}, {"type": "node", "id": 11031989215, "lat": 41.4026102, "lon": 2.1873819, "tags": {"name": "Gl\u00f2ries", "network": "Tramvia del Bes\u00f2s", "operator": "Tram", "public_transport": "stop_position", "railway": "tram_stop", "tram": "yes", "wheelchair": "yes"}}, {"type": "node", "id": 11436011991, "lat": 41.3727946, "lon": 2.1333313, "tags": {"access": "yes", "indoor": "yes", "level": "-1", "name": "Mercat Nou", "name:ca": "Mercat Nou", "name:es": "Mercat Nou", "public_transport": "station", "railway": "station", "station": "subway", "subway": "yes", "wheelchair": "yes", "wikidata": "Q2547776", "wikipedia": "ca:Estaci\u00f3 de Mercat Nou"}}, {"type": "node", "id": 11438164378, "lat": 41.37563, "lon": 2.1353228, "tags": {"name": "Pla\u00e7a de Sants", "name:ca": "Pla\u00e7a de Sants", "network": "Metro de Barcelona", "operator": "TMB", "public_transport": "station", "railway": "station", "source": "geolocation taken from http://en.wikipedia.org/wiki/Barcelona_metro_line_1", "station": "subway", "subway": "yes", "wheelchair": "no", "wikidata": "Q2054359", "wikipedia": "ca:Estaci\u00f3 de Pla\u00e7a de Sants"}}, {"type": "node", "id": 11883124918, "lat": 41.3680166, "lon": 2.1156299, "tags": {"defibrillator:access": "yes", "defibrillator:indoor": "yes", "defibrillator:location": "Andana via 1", "defibrillator:location:en": "Platform 1", "defibrillator:survey:date": "2023-11-29", "emergency": "defibrillator", "emergency:fire_extinguisher": "yes", "indoor": "yes", "level": "-3", "name": "Torrassa", "name:ca": "Torrassa", "network": "Metro de Barcelona", "operator": "Transports Metropolitans de Barcelona", "panoramax": "ed65c3a5-b1fa-4135-984e-37446997c7a6", "public_transport": "station", "railway": "station", "source": "rough manual transfer from http://www.tmb.net/img/genplano.pdf", "station": "subway", "subway": "yes", "survey:date": "2023-11-29", "wheelchair": "yes", "wikidata": "Q2003013", "wikipedia": "ca:Estaci\u00f3 de Torrassa"}}, {"type": "node", "id": 11890892883, "lat": 41.4025629, "lon": 2.1874397, "tags": {"name": "Gl\u00f2ries", "network": "Tramvia del Bes\u00f2s", "operator": "Tram", "public_transport": "stop_position", "railway": "tram_stop", "tram": "yes", "wheelchair": "yes"}}, {"type": "node", "id": 11890892884, "lat": 41.4025812, "lon": 2.1872925, "tags": {"name": "Gl\u00f2ries", "network": "Tramvia del Bes\u00f2s", "operator": "Tram", "public_transport": "stop_position", "railway": "tram_stop", "tram": "yes", "wheelchair": "yes"}}, {"type": "way", "id": 182285396, "nodes": [1708943506, 1926250991, 1926251159, 1926251044, 1708943506], "tags": {"building": "yes", "layer": "1", "name": "Zona Franca", "name:ca": "Zona Franca", "network": "Metro de Barcelona", "opening_date": "2020-02-01", "operator": "TMB", "platforms": "2", "public_transport": "station", "railway": "station", "station": "subway", "subway": "yes", "wheelchair": "yes", "wikidata": "Q5395656", "wikipedia": "ca:Estaci\u00f3 de Zona Franca"}}, {"type": "way", "id": 555575476, "nodes": [5361709999, 5361709998, 5359978124, 5359977062, 5359976948, 5361709999], "tags": {"area": "yes", "indoor": "room", "level": "-1", "location": "underground", "name": "Passeig de Gr\u00e0cia (L4)", "name:ca": "Passeig de Gr\u00e0cia (L4)", "network": "Metro de Barcelona", "operator": "Transports Metropolitans de Barcelona", "public_transport": "station", "railway": "station", "source": "geolocation taken from http://en.wikipedia.org/wiki/Barcelona_metro_line_2", "station": "subway", "subway": "yes", "wheelchair": "yes", "wikidata": "Q800446", "wikipedia": "ca:Estaci\u00f3 de Passeig de Gr\u00e0cia"}}, {"type": "way", "id": 555575481, "nodes": [8075346226, 8075346236, 8075346222, 8075346218, 8075332008, 8075346137, 8075346219, 8075346220, 8075346235, 8075346234, 8075346233, 8075346232, 8075346231, 8075346230, 8075346229, 8075346228, 8075346227, 8075346224, 8075346223, 8075346225, 8075346142, 8075332007, 8075346226], "tags": {"area": "yes", "defibrillator:access": "yes", "defibrillator:location": "andana direcci\u00f3 Trinitat Nova", "defibrillator:location:en": "platform to Trinitat Nova", "emergency": "defibrillator", "indoor": "room", "level": "-1", "location": "underground", "name": "Passeig de Gr\u00e0cia (L3)", "name:ca": "Passeig de Gr\u00e0cia (L3)", "network": "Metro de Barcelona", "operator": "Transports Metropolitans de Barcelona", "public_transport": "station", "railway": "station", "source": "geolocation taken from http://en.wikipedia.org/wiki/Barcelona_metro_line_2", "station": "subway", "wheelchair": "no", "wikidata": "Q800446", "wikipedia": "ca:Estaci\u00f3 de Passeig de Gr\u00e0cia"}}, {"type": "way", "id": 555806662, "nodes": [5362005780, 5362005773, 5362005779, 5362005790, 5362005791, 5362005777, 5362005775, 5362005778, 5362005780], "tags": {"area": "yes", "indoor": "room", "level": "-1", "name": "Catalunya", "name:ca": "Pla\u00e7a Catalunya", "public_transport": "station", "railway": "station", "station": "subway", "subway": "yes", "wheelchair": "yes", "wikidata": "Q800447", "wikipedia": "ca:Estaci\u00f3 de Pla\u00e7a de Catalunya"}}, {"type": "way", "id": 647441285, "nodes": [6080247686, 6080247688, 6080247685, 6080247687, 10793541452, 6080247686], "tags": {"addr:postcode": "08006", "addr:street": "Pla\u00e7a de Molina", "building": "service", "building:levels": "0", "name": "FGC - Sant Gervasi", "operator": "FGC", "public_transport": "station", "railway": "station", "station": "subway", "subway": "yes"}}, {"type": "way", "id": 1076416258, "nodes": [9870988448, 9870988449, 9872417144, 9870988456, 9870988457, 9870988458, 9870988461, 9870988450, 9870988451, 9870988452, 2972006273, 9870988453, 9870988454, 9870988455, 9870988448], "tags": {"layer": "-1", "level": "-1", "name": "Bellvitge-Gornal", "name:ca": "Bellvitge-Gornal", "network": "Rodalies", "operator": "RENFE / Adif", "public_transport": "station", "railway": "station", "train": "yes", "wheelchair": "yes"}}]}