{"version": 0.6, "generator": "Overpass API 0.7.62.5 1bd436f1", "osm3s": {"timestamp_osm_base": "2025-03-23T23:07:14Z", "copyright": "The data included in this document is from www.openstreetmap.org. The data is made available under ODbL."}, "elements": [{"type": "node", "id": 672631671, "lat": 41.3861855, "lon": 2.1768556, "tags": {"amenity": "arts_centre", "name": "Casa dels Entremesos", "website": "https://lacasadelsentremesos.cat/", "wikidata": "Q19367784", "wikimedia_commons": "File:509 Casa dels Entremesos, Palau Bassols, pl. Beates 2 (Barcelona).jpg", "wikipedia": "ca:Casa dels Entremesos"}}, {"type": "node", "id": 2293702701, "lat": 41.4088309, "lon": 2.1775838}, {"type": "node", "id": 2293702702, "lat": 41.4088311, "lon": 2.1778118}, {"type": "node", "id": 2293702719, "lat": 41.4089152, "lon": 2.1777008}, {"type": "node", "id": 2293702723, "lat": 41.4089769, "lon": 2.1780124}, {"type": "node", "id": 2293702728, "lat": 41.4090057, "lon": 2.1775838}, {"type": "node", "id": 2293702739, "lat": 41.4090619, "lon": 2.1779026}, {"type": "node", "id": 2293702769, "lat": 41.4091772, "lon": 2.1779174}, {"type": "node", "id": 2293702782, "lat": 41.4092138, "lon": 2.1778701}, {"type": "node", "id": 2293702786, "lat": 41.4092261, "lon": 2.1783345}, {"type": "node", "id": 2293702811, "lat": 41.4093103, "lon": 2.1781005}, {"type": "node", "id": 2293702819, "lat": 41.4093459, "lon": 2.1780545}, {"type": "node", "id": 2293702830, "lat": 41.4093751, "lon": 2.1768567}, {"type": "node", "id": 2293702832, "lat": 41.4093843, "lon": 2.1785522}, {"type": "node", "id": 2293702834, "lat": 41.4093928, "lon": 2.1781191}, {"type": "node", "id": 2293702846, "lat": 41.4095583, "lon": 2.1768611}, {"type": "node", "id": 2293702847, "lat": 41.4095683, "lon": 2.178559}, {"type": "node", "id": 2293702924, "lat": 41.4101127, "lon": 2.1778331}, {"type": "node", "id": 2293702930, "lat": 41.4101158, "lon": 2.1776007}, {"type": "node", "id": 2294792948, "lat": 41.3726656, "lon": 2.1611421, "tags": {"addr:city": "Barcelona", "addr:housenumber": "54", "addr:postcode": "08004", "addr:street": "Carrer de Magalhaes", "amenity": "arts_centre", "description": "audiovisual open creative community", "name": "Telenoika", "name:ca": "Telenoika", "name:en": "Telenoika", "website": "https://telenoika.net/", "wikidata": "Q11951112", "wikipedia": "ca:Telenoika"}}, {"type": "node", "id": 2890537431, "lat": 41.383579, "lon": 2.1649782, "tags": {"amenity": "arts_centre", "name": "Moraima"}}, {"type": "node", "id": 3128253761, "lat": 41.3777589, "lon": 2.1688338, "tags": {"addr:housenumber": "31", "addr:street": "Carrer de la Riereta", "amenity": "arts_centre", "name": "Sala F\u00e8nix", "phone": "+34 93 441 3467", "website": "https://www.salafenix.com/"}}, {"type": "node", "id": 3231263390, "lat": 41.4042616, "lon": 2.2105165}, {"type": "node", "id": 3231263393, "lat": 41.4043247, "lon": 2.2104068}, {"type": "node", "id": 3231263395, "lat": 41.4043507, "lon": 2.210603}, {"type": "node", "id": 3231263396, "lat": 41.4044261, "lon": 2.2105078}, {"type": "node", "id": 3456079392, "lat": 41.3769751, "lon": 2.1756833}, {"type": "node", "id": 3456085497, "lat": 41.3771092, "lon": 2.175542}, {"type": "node", "id": 3456085500, "lat": 41.3771283, "lon": 2.1754292}, {"type": "node", "id": 3456085504, "lat": 41.3771719, "lon": 2.1759919}, {"type": "node", "id": 3456085505, "lat": 41.3771623, "lon": 2.1754875}, {"type": "node", "id": 3456085507, "lat": 41.3771915, "lon": 2.1753539}, {"type": "node", "id": 3456085509, "lat": 41.3772043, "lon": 2.1759816}, {"type": "node", "id": 3456085510, "lat": 41.3772326, "lon": 2.1754219}, {"type": "node", "id": 3456085514, "lat": 41.3774309, "lon": 2.1757395}, {"type": "node", "id": 3612301708, "lat": 41.4032348, "lon": 2.1312576}, {"type": "node", "id": 3612301713, "lat": 41.4033421, "lon": 2.1311773}, {"type": "node", "id": 3612301715, "lat": 41.4033651, "lon": 2.1315437}, {"type": "node", "id": 3612301723, "lat": 41.4034675, "lon": 2.1314608}, {"type": "node", "id": 3863310058, "lat": 41.3616209, "lon": 2.1358486}, {"type": "node", "id": 3863310061, "lat": 41.3613761, "lon": 2.1360278}, {"type": "node", "id": 3864211970, "lat": 41.3774267, "lon": 2.175744}, {"type": "node", "id": 3975749858, "lat": 41.4071788, "lon": 2.1553476, "tags": {"addr:city": "Barcelona", "addr:postcode": "08024", "addr:street": "Pla\u00e7a del Nord", "amenity": "arts_centre", "name": "Llu\u00efsos de Gr\u00e0cia - Teatre", "wheelchair": "yes"}}, {"type": "node", "id": 4283188866, "lat": 41.4345407, "lon": 2.2173849, "tags": {"amenity": "arts_centre", "name": "Escuela de danza y teatro Tempo"}}, {"type": "node", "id": 4334559552, "lat": 41.4199056, "lon": 2.1901172}, {"type": "node", "id": 4334559555, "lat": 41.41994, "lon": 2.1899944}, {"type": "node", "id": 4334559558, "lat": 41.4199235, "lon": 2.1900447}, {"type": "node", "id": 4334559563, "lat": 41.4201836, "lon": 2.1901036}, {"type": "node", "id": 4334559568, "lat": 41.4201532, "lon": 2.1902257}, {"type": "node", "id": 4402381289, "lat": 41.378155, "lon": 2.1330056, "tags": {"addr:city": "Barcelona", "addr:housenumber": "29", "addr:postcode": "08028", "addr:street": "Carrer de Papin", "amenity": "arts_centre", "name": "Met\u00e0fora", "phone": "+34 93 330 0089", "website": "https://metafora.org/"}}, {"type": "node", "id": 4412734192, "lat": 41.4227222, "lon": 2.2089872, "tags": {"addr:housenumber": "313", "addr:street": "Concili de Trento", "amenity": "arts_centre", "name": "Piramid\u00f3n", "wikidata": "Q18696722", "wikimedia_commons": "Category:Piramid\u00f3n", "wikipedia": "ca:Piramid\u00f3n"}}, {"type": "node", "id": 4881704709, "lat": 41.4041081, "lon": 2.1999141, "tags": {"amenity": "arts_centre", "name": "Espai Subirachs", "name:ca": "Espai Subirachs", "source": "knowledge"}}, {"type": "node", "id": 4901539342, "lat": 41.4042763, "lon": 2.2105322}, {"type": "node", "id": 4970046032, "lat": 41.420029, "lon": 2.1901709}, {"type": "node", "id": 4983764973, "lat": 41.4412484, "lon": 2.2222476, "tags": {"amenity": "arts_centre", "name": "l'Atelier des artistes", "wheelchair": "no"}}, {"type": "node", "id": 4996667747, "lat": 41.3975092, "lon": 2.2030946}, {"type": "node", "id": 4996667748, "lat": 41.3973999, "lon": 2.2029511}, {"type": "node", "id": 5007545158, "lat": 41.4089176, "lon": 2.1992337}, {"type": "node", "id": 5007546275, "lat": 41.4087598, "lon": 2.1990268}, {"type": "node", "id": 5007546276, "lat": 41.4083719, "lon": 2.1996736}, {"type": "node", "id": 5174310399, "lat": 41.3895547, "lon": 2.177809, "tags": {"addr:city": "Barcelona", "addr:housenumber": "7", "addr:postcode": "08003", "addr:street": "Carrer de M\u00e9ndez N\u00fa\u00f1ez", "amenity": "arts_centre", "name": "Mutuo", "website": "http://mutuo.cat/"}}, {"type": "node", "id": 5454342545, "lat": 41.4331289, "lon": 2.19107, "tags": {"amenity": "arts_centre", "name": "Centre d'Art Contemporani Fabra i Coats", "website": "https://ajuntament.barcelona.cat/centredart/ca/"}}, {"type": "node", "id": 5454347100, "lat": 41.4329607, "lon": 2.1910536, "tags": {"amenity": "arts_centre", "name": "Fabra i Coats F\u00e0brica de Creaci\u00f3", "website": "https://ajuntament.barcelona.cat/fabraicoats/"}}, {"type": "node", "id": 5525112860, "lat": 41.3834672, "lon": 2.1717672, "tags": {"amenity": "arts_centre", "name": "Tourist Information", "toilets:wheelchair": "yes", "wheelchair": "yes"}}, {"type": "node", "id": 6055106142, "lat": 41.4088873, "lon": 2.1992821}, {"type": "node", "id": 6055106156, "lat": 41.4085954, "lon": 2.1997553}, {"type": "node", "id": 6055106173, "lat": 41.4085378, "lon": 2.1998485}, {"type": "node", "id": 6055106294, "lat": 41.4089212, "lon": 2.1992108}, {"type": "node", "id": 6055106395, "lat": 41.4089118, "lon": 2.1992259}, {"type": "node", "id": 6055106515, "lat": 41.4088687, "lon": 2.1993117}, {"type": "node", "id": 6055106540, "lat": 41.4088394, "lon": 2.1993584}, {"type": "node", "id": 6080649166, "lat": 41.3617246, "lon": 2.1361029}, {"type": "node", "id": 6080649167, "lat": 41.3614766, "lon": 2.1362724}, {"type": "node", "id": 6085794323, "lat": 41.3810627, "lon": 2.1781569, "tags": {"addr:housenumber": "6", "addr:postcode": "08002", "addr:street": "Carrer de Palau", "amenity": "arts_centre", "name": "Base Elements"}}, {"type": "node", "id": 6103044290, "lat": 41.3886518, "lon": 2.1770897, "tags": {"addr:city": "Barcelona", "addr:housenumber": "48", "addr:postcode": "08003", "addr:street": "Carrer de Sant Pere M\u00e9s Alt", "addr:unit": "bajos", "amenity": "arts_centre", "description": "Atelier de arteteterapia, pintura para ni\u00f1os, expociciones", "email": "info@el-atelier.org", "name": "Cora Egger El Atelier", "website": "https://el-atelier.org/es/main/home/", "wheelchair": "yes"}}, {"type": "node", "id": 6111374222, "lat": 41.3978147, "lon": 2.2026102, "tags": {"addr:housenumber": "198", "addr:postcode": "08005", "addr:street": "Carrer del Doctor Trueta", "entrance": "main"}}, {"type": "node", "id": 6111374223, "lat": 41.397767, "lon": 2.2025464, "tags": {"addr:housenumber": "196", "addr:postcode": "08005", "addr:street": "Carrer del Doctor Trueta", "entrance": "main"}}, {"type": "node", "id": 6111374229, "lat": 41.3974555, "lon": 2.2031426, "tags": {"addr:housenumber": "53", "addr:postcode": "08005", "addr:street": "Carrer del Taulat", "entrance": "yes"}}, {"type": "node", "id": 6111374230, "lat": 41.3973609, "lon": 2.203028, "tags": {"addr:housenumber": "51", "addr:postcode": "08005", "addr:street": "Carrer del Taulat", "entrance": "yes"}}, {"type": "node", "id": 6111374234, "lat": 41.3975462, "lon": 2.2031432}, {"type": "node", "id": 6111374237, "lat": 41.3975765, "lon": 2.2031033}, {"type": "node", "id": 6111374240, "lat": 41.3975254, "lon": 2.2031706}, {"type": "node", "id": 6111374260, "lat": 41.3975225, "lon": 2.2031745}, {"type": "node", "id": 6111374385, "lat": 41.3975745, "lon": 2.2026303}, {"type": "node", "id": 6111374390, "lat": 41.3977655, "lon": 2.2028544}, {"type": "node", "id": 6111374403, "lat": 41.3976459, "lon": 2.2030119}, {"type": "node", "id": 6111374404, "lat": 41.3977849, "lon": 2.2028287}, {"type": "node", "id": 6111374405, "lat": 41.3976094, "lon": 2.2030598}, {"type": "node", "id": 6111374406, "lat": 41.3973136, "lon": 2.2029706}, {"type": "node", "id": 6111374426, "lat": 41.3977038, "lon": 2.202462}, {"type": "node", "id": 6111374428, "lat": 41.3978823, "lon": 2.2027005}, {"type": "node", "id": 6111374433, "lat": 41.397364, "lon": 2.2029047}, {"type": "node", "id": 6111374434, "lat": 41.3974886, "lon": 2.2031227}, {"type": "node", "id": 6111374442, "lat": 41.3975078, "lon": 2.2027172}, {"type": "node", "id": 6111374443, "lat": 41.397343, "lon": 2.2029321}, {"type": "node", "id": 6111374472, "lat": 41.3973796, "lon": 2.2029789}, {"type": "node", "id": 6111374479, "lat": 41.397503, "lon": 2.2032002}, {"type": "node", "id": 6123277782, "lat": 41.3976232, "lon": 2.1946745, "tags": {"addr:housenumber": "78", "addr:postcode": "08005", "addr:street": "Carrer d'\u00c0vila", "entrance": "yes"}}, {"type": "node", "id": 6123277783, "lat": 41.3976576, "lon": 2.1948177}, {"type": "node", "id": 6123277784, "lat": 41.3976846, "lon": 2.1948535}, {"type": "node", "id": 6123277885, "lat": 41.3976092, "lon": 2.194693}, {"type": "node", "id": 6123277895, "lat": 41.3975641, "lon": 2.1947527}, {"type": "node", "id": 6123277907, "lat": 41.3977346, "lon": 2.1947871}, {"type": "node", "id": 6123277914, "lat": 41.397606, "lon": 2.1948094}, {"type": "node", "id": 6123277949, "lat": 41.3976346, "lon": 2.1948482}, {"type": "node", "id": 6123277959, "lat": 41.3976376, "lon": 2.1946555}, {"type": "node", "id": 6138906568, "lat": 41.3988803, "lon": 2.1943753, "tags": {"addr:housenumber": "99", "addr:postcode": "08018", "addr:street": "Carrer de Pere IV", "entrance": "yes"}}, {"type": "node", "id": 6138906797, "lat": 41.3989844, "lon": 2.1941087}, {"type": "node", "id": 6138906820, "lat": 41.3990493, "lon": 2.1941638}, {"type": "node", "id": 6138906827, "lat": 41.3990072, "lon": 2.194252}, {"type": "node", "id": 6138906833, "lat": 41.3990379, "lon": 2.1941876}, {"type": "node", "id": 6138906834, "lat": 41.3990224, "lon": 2.1942202}, {"type": "node", "id": 6138906835, "lat": 41.3989804, "lon": 2.1943079}, {"type": "node", "id": 6138906881, "lat": 41.3988611, "lon": 2.1943598}, {"type": "node", "id": 6138906883, "lat": 41.3989288, "lon": 2.1944148}, {"type": "node", "id": 6138906886, "lat": 41.3989723, "lon": 2.1941337}, {"type": "node", "id": 6174638255, "lat": 41.3845322, "lon": 2.1745111, "tags": {"addr:city": "Barcelona", "addr:housenumber": "5", "addr:postcode": "08002", "addr:street": "Carrer dels Arcs", "amenity": "arts_centre", "name": "Reial Cercle Art\u00edstic de Barcelona", "name:ca": "Reial Cercle Art\u00edstic de Barcelona"}}, {"type": "node", "id": 7058390068, "lat": 41.3986688, "lon": 2.1839845, "tags": {"amenity": "arts_centre", "name": "La Casa de Carlota", "website": "https://www.lacasadecarlotaandfriends.com/barcelona"}}, {"type": "node", "id": 7115213213, "lat": 41.4005208, "lon": 2.1998516, "tags": {"addr:housenumber": "50-52", "addr:postcode": "08005", "addr:street": "Carrer de la Llacuna", "amenity": "arts_centre", "check_date": "2024-05-11", "name": "Artidi"}}, {"type": "node", "id": 7276640057, "lat": 41.4114532, "lon": 2.2273837, "tags": {"addr:city": "Sant Adri\u00e0 de Bes\u00f2s", "addr:housenumber": "2", "addr:postcode": "08930", "addr:street": "Moll de la Vela", "amenity": "arts_centre", "check_date": "2024-09-17", "name": "La Central del Circ", "panoramax": "2cc8bc81-3e5e-4dd6-bf05-a2cd4f662c53", "website": "https://www.lacentraldelcirc.cat/", "wikidata": "Q118382748"}}, {"type": "node", "id": 7760747498, "lat": 41.372461, "lon": 2.1295938, "tags": {"addr:city": "Barcelona", "addr:housenumber": "78", "addr:postcode": "08028", "addr:street": "Carrer de Sugranyes", "addr:unit": "local 3", "amenity": "arts_centre", "name": "Col\u00b7lec", "phone": "+34930118840", "website": "http://thisiscollec.com"}}, {"type": "node", "id": 8617150528, "lat": 41.3958517, "lon": 2.153838, "tags": {"addr:housenumber": "171", "addr:street": "Carrer de Balmes", "amenity": "arts_centre", "contact:email": "lospazio.lab@gmail.com", "contact:website": "https://lospazio.es/inicio/", "name": "Lo Spazio", "wheelchair": "yes"}}, {"type": "node", "id": 8726460402, "lat": 41.3805552, "lon": 2.1705316, "tags": {"amenity": "arts_centre", "check_date": "2023-04-27", "fee": "no", "name": "La Capella", "name:ca": "La Capella"}}, {"type": "node", "id": 8731176616, "lat": 41.3668825, "lon": 2.1156969, "tags": {"amenity": "arts_centre", "name": "Centre d'Art Tecla Sala"}}, {"type": "node", "id": 8846116817, "lat": 41.3671173, "lon": 2.1154251, "tags": {"amenity": "arts_centre", "name": "Fundacio Arranz-Bravo", "wikidata": "Q3816465", "wikipedia": "ca:Fundaci\u00f3 Arranz-Bravo"}}, {"type": "node", "id": 8846116917, "lat": 41.3670049, "lon": 2.1152294, "tags": {"amenity": "arts_centre", "name": "TPK centre d'art i pensament contemporani", "wikidata": "Q118382937"}}, {"type": "node", "id": 9284370477, "lat": 41.4068943, "lon": 2.1864675, "tags": {"amenity": "arts_centre", "name": "Orfe\u00f3 Martinenc", "name:ca": "Orfe\u00f3 Martinenc", "website": "http://orfeomartinenc.cat/ca/"}}, {"type": "node", "id": 10228084020, "lat": 41.3902377, "lon": 2.1589181, "tags": {"amenity": "arts_centre", "check_date": "2024-12-13", "name": "Galeria Jordi Pascual"}}, {"type": "node", "id": 11011688007, "lat": 41.4024924, "lon": 2.1545139, "tags": {"amenity": "arts_centre", "name": "Centre Cultural L'Artes\u00e0 Tradicionarius"}}, {"type": "node", "id": 11178843633, "lat": 41.3953869, "lon": 2.1589318, "tags": {"amenity": "arts_centre", "name": "Sala Cotxeres", "operator": "Generalitat de Catalunya", "wheelchair": "yes"}}, {"type": "node", "id": 11267626463, "lat": 41.4045969, "lon": 2.1604437, "tags": {"addr:housenumber": "19,21", "addr:street": "Carrer de Bruniquer", "amenity": "arts_centre", "check_date": "2023-10-16", "name": "Colet"}}, {"type": "node", "id": 11346926712, "lat": 41.4013013, "lon": 2.163112, "tags": {"addr:housenumber": "19", "addr:street": "Carrer de Monistrol", "amenity": "arts_centre", "check_date": "2023-11-13", "name": "Casa R\u00edo"}}, {"type": "node", "id": 11346939001, "lat": 41.4011319, "lon": 2.1631183, "tags": {"addr:city": "Barcelona", "addr:housenumber": "14", "addr:postcode": "08012", "addr:street": "Carrer de Monistrol", "amenity": "arts_centre", "name": "Escola d'Art Joaquim Santal\u00f3", "survey:date": "2023-11-13", "website": "https://joaquimsantalo.com/"}}, {"type": "node", "id": 11346962542, "lat": 41.4013687, "lon": 2.1624961, "tags": {"addr:housenumber": "4", "addr:street": "Carrer d'Igualada", "amenity": "arts_centre", "check_date": "2023-11-13", "contact:instagram": "https://www.instagram.com/academialagracia", "contact:whatsapp": "+34661849650", "email": "info@academialagracia.com", "name": "Acad\u00e8mia d'Art La Gr\u00e0cia", "phone": "+34 610 08 85 91", "website": "https://www.academialagracia.com"}}, {"type": "node", "id": 11349096944, "lat": 41.3730394, "lon": 2.1482535, "tags": {"amenity": "arts_centre", "check_date": "2023-11-14", "name": "Alalim\u00f3n"}}, {"type": "node", "id": 11360097219, "lat": 41.4051974, "lon": 2.1881584, "tags": {"addr:housenumber": "837", "addr:street": "Gran Via de les Corts Catalanes", "amenity": "arts_centre", "check_date": "2024-04-06", "contact:instagram": "https://www.instagram.com/@farineradelclot", "contact:twitter": "https://twitter.com/@farinera", "internet_access": "wlan", "internet_access:fee": "no", "name": "Centre Cultural la Farinera del Clot", "opening_hours": "Mo-Fr 09:00-22:00; Sa 10:00-14:00,16:00-20:00", "operator:type": "public", "phone": "+34 932 91 80 80", "website": "https://www.farinera.org", "wheelchair": "yes"}}, {"type": "node", "id": 11443286442, "lat": 41.3859865, "lon": 2.1768862, "tags": {"addr:city": "Barcelona", "addr:street": "Carrer de Mercaders", "amenity": "arts_centre", "name": "Centre Artistic Sant Lluc", "website": "https://www.santlluc.cat/", "wikimedia_commons": "File:507 Cercle Art\u00edstic de Sant Lluc, Palau Bassols, c. Mercaders 42 (Barcelona).jpg"}}, {"type": "way", "id": 220149029, "nodes": [6138906886, 6138906797, 6138906820, 6138906833, 6138906834, 6138906827, 6138906835, 6138906883, 6138906568, 6138906881, 6138906886], "tags": {"amenity": "arts_centre", "building": "industrial", "building:levels": "2", "leisure": "sports_centre", "name": "onair", "note": "PRIMER CENTRO DE DANZA A\u00c9REA DE BARCELONA.", "phone": "+34 634 04 50 42", "sport": "gymnastics", "website": "https://onairbarcelona.com/"}}, {"type": "way", "id": 220240437, "nodes": [2293702702, 2293702723, 2293702739, 2293702719, 2293702728, 2293702782, 2293702769, 2293702811, 2293702819, 2293702834, 2293702786, 2293702832, 2293702847, 2293702924, 2293702930, 2293702846, 2293702830, 2293702701, 2293702702], "tags": {"amenity": "arts_centre", "building": "industrial", "name": "Antiga F\u00e0brica Damm", "name:ca": "Antiga F\u00e0brica Damm", "wheelchair": "limited", "wikidata": "Q20108077", "wikimedia_commons": "Category:Estrella Damm old brewery", "wikipedia": "ca:F\u00e0brica Damm"}}, {"type": "way", "id": 316936734, "nodes": [3231263395, 3231263396, 3231263393, 3231263390, 4901539342]}, {"type": "way", "id": 338522965, "nodes": [3456079392, 3456085504, 3456085509, 3864211970, 3456085514, 3456085510, 3456085507, 3456085500, 3456085505, 3456085497, 3456079392], "tags": {"amenity": "arts_centre", "building": "apartments", "internet_access": "wlan", "internet_access:password": "digital4c2014", "internet_access:ssid": "ARTSSANTAMONICA", "name": "Centre d'Art Santa M\u00f2nica", "name:ca": "Centre d'Art Santa M\u00f2nica", "wikidata": "Q3781326", "wikimedia_commons": "Category:Arts Santa M\u00f2nica", "wikipedia": "ca:Centre d'Arts Santa M\u00f2nica"}}, {"type": "way", "id": 355650474, "nodes": [3612301713, 3612301708, 3612301715, 3612301723, 3612301713], "tags": {"amenity": "arts_centre", "building": "church", "name": "Espai Cultural Prre Pruna", "operator": "Ajuntament de Barcelona", "religion": "christian"}}, {"type": "way", "id": 383124154, "nodes": [3863310058, 6080649166, 6080649167, 3863310061, 3863310058], "tags": {"amenity": "arts_centre", "name": "El Graner", "name:ca": "El Graner", "wheelchair": "limited"}}, {"type": "way", "id": 435547709, "nodes": [4334559563, 4334559555, 4334559558, 4334559552, 4970046032, 4334559568, 4334559563], "tags": {"amenity": "arts_centre", "building:levels": "1", "building:part": "yes", "name": "Espai Guillot", "name:ca": "Espai Guillot", "roof:orientation": "along", "roof:shape": "gabled"}}, {"type": "way", "id": 498818656, "nodes": [4901539342, 3231263395]}, {"type": "way", "id": 510718894, "nodes": [6111374428, 6111374404, 6111374390, 6111374403, 6111374405, 6111374237, 6111374234, 4996667747, 6111374434, 6111374240, 6111374260, 6111374479, 6111374229, 6111374230, 6111374406, 6111374443, 6111374472, 4996667748, 6111374433, 6111374442, 6111374385, 6111374426, 6111374223, 6111374222, 6111374428], "tags": {"amenity": "arts_centre", "building": "yes", "building:levels": "1", "end_date": "2014", "name": "Ideal. Centre D'arts Digital", "website": "https://idealbarcelona.com/"}}, {"type": "way", "id": 512071908, "nodes": [6055106156, 6055106173, 5007546276, 5007546275, 6055106294, 6055106395, 5007545158, 6055106142, 6055106515, 6055106540, 6055106156], "tags": {"amenity": "arts_centre", "building": "industrial", "building:levels": "2", "check_date:opening_hours": "2021-01-18", "description": "Hangar \u00e9s un centre obert per a la recerca i la producci\u00f3 art\u00edstica que d\u00f3na suport a creadors i artistes.", "name": "Hangar", "name:ca": "Hangar", "opening_hours": "Mo-Fr 10:00-19:30", "operator": "Fundaci\u00f3 d'Artistes Visuals de Catalunya", "website": "https://hangar.org/", "wikidata": "Q11925190", "wikimedia_commons": "Category:Hangar Barcelona", "wikipedia": "ca:Hangar (Centre de Producci\u00f3 d'Arts Visuals)"}}, {"type": "way", "id": 653361659, "nodes": [6123277949, 6123277914, 6123277895, 6123277885, 6123277782, 6123277959, 6123277907, 6123277784, 6123277783, 6123277949], "tags": {"amenity": "arts_centre", "building": "industrial", "building:levels": "2", "name": "estudi78"}}, {"type": "relation", "id": 7317313, "members": [{"type": "way", "ref": 316936734, "role": "outer"}, {"type": "way", "ref": 498818656, "role": "outer"}], "tags": {"amenity": "arts_centre", "building": "yes", "name": "Palo Alto Market", "type": "multipolygon", "website": "https://palomarketfest.com/"}}]}