{"version": 0.6, "generator": "Overpass API 0.7.62.5 1bd436f1", "osm3s": {"timestamp_osm_base": "2025-03-23T23:16:31Z", "copyright": "The data included in this document is from www.openstreetmap.org. The data is made available under ODbL."}, "elements": [{"type": "node", "id": 216330105, "lat": 41.3857962, "lon": 2.1748362, "tags": {"amenity": "bar", "name": "Cala del Vermouth"}}, {"type": "node", "id": 648459390, "lat": 41.3830486, "lon": 2.178292, "tags": {"addr:housenumber": "20", "addr:postcode": "08002", "addr:street": "Carrer de la Dagueria", "amenity": "bar", "name": "Zim", "opening_hours": "Mo-Su 18:00-23:00"}}, {"type": "node", "id": 672763035, "lat": 41.3846643, "lon": 2.1702706, "tags": {"amenity": "bar", "name": "Boadas"}}, {"type": "node", "id": 775644927, "lat": 41.380488, "lon": 2.1647648, "tags": {"addr:city": "Barcelona", "addr:country": "ES", "addr:housenumber": "40", "addr:postcode": "08001", "addr:street": "Carrer de la Riera Alta", "amenity": "bar", "name": "La Pen\u00faltima"}}, {"type": "node", "id": 818891229, "lat": 41.381599, "lon": 2.1744854, "tags": {"addr:housenumber": "27", "addr:street": "Carrer de la Boqueria", "amenity": "bar", "internet_access": "wlan", "internet_access:access": "customers", "internet_access:fee": "no", "name": "Travel Bar"}}, {"type": "node", "id": 824465388, "lat": 41.3754806, "lon": 2.1678977, "tags": {"amenity": "bar", "name": "La Confiteria", "website": "http://confiteria.cat/", "wikidata": "Q47170821", "wikimedia_commons": "Category:La Confiteria (Barcelona)", "wikipedia": "ca:La Confiteria (Barcelona)"}}, {"type": "node", "id": 827585077, "lat": 41.3830229, "lon": 2.1706642, "tags": {"addr:city": "Barcelona", "addr:housenumber": "7", "addr:postcode": "08001", "addr:street": "Carrer d'en Xucl\u00e0", "amenity": "bar", "drink:club-mate": "yes", "name": "Bar Mirinda"}}, {"type": "node", "id": 1082354548, "lat": 41.3798943, "lon": 2.17677, "tags": {"amenity": "bar", "name": "Cerveceria El Tequila"}}, {"type": "node", "id": 1264178428, "lat": 41.3798228, "lon": 2.1641449, "tags": {"addr:housenumber": "2", "addr:street": "Requesens", "amenity": "bar", "name": "Jazz S\u00ed Club", "website": "https://tallerdemusics.com/jazzsi-club/"}}, {"type": "node", "id": 1314943380, "lat": 41.3870865, "lon": 2.1803497, "tags": {"addr:city": "Barcelona", "addr:housenumber": "35", "addr:postcode": "08003", "addr:street": "Carrer dels Carders", "air_conditioning": "no", "alt_name": "Espai Mescladis", "amenity": "bar", "brewery": "yes", "check_date": "2023-10-29", "contact:facebook": "espaimescladis", "contact:instagram": "https://www.instagram.com/espaismescladis", "drink:club-mate": "served", "email": "info@mescladis.org", "internet_access": "wlan", "internet_access:fee": "no", "internet_access:ssid": "Mescladis", "name": "Mesclad\u00eds del Pou", "opening_hours": "Mo-Fr 13:00-21:00; Sa,Su 11:00-21:00", "outdoor_seating": "yes", "payment:cash": "yes", "payment:mastercard": "yes", "payment:visa": "yes", "phone": "+34 933198732", "website": "https://www.mescladis.org/", "wheelchair": "yes"}}, {"type": "node", "id": 1445598554, "lat": 41.3954743, "lon": 2.1819512, "tags": {"amenity": "bar", "name": "Bar Lugo", "source": "Trabajo de campo"}}, {"type": "node", "id": 1445598556, "lat": 41.3955442, "lon": 2.1810719, "tags": {"amenity": "bar", "name": "Bar Territori", "source": "Trabajo de campo"}}, {"type": "node", "id": 1445598561, "lat": 41.3955456, "lon": 2.181968, "tags": {"addr:housenumber": "35", "addr:postcode": "08013", "addr:street": "Carrer de Ribes", "amenity": "bar", "check_date": "2024-11-11", "email": "info@contracorrentbar.com", "name": "Contracorrent", "opening_hours": "Mo,Th 17:30-23:00; Fr-Su 12:30-16:30,19:00-23:00", "outdoor_seating": "yes", "phone": "+34 608865917", "website": "https://contracorrentbar.com/"}}, {"type": "node", "id": 1497569346, "lat": 41.3890209, "lon": 2.1865838}, {"type": "node", "id": 1497569348, "lat": 41.3890338, "lon": 2.1866325}, {"type": "node", "id": 1497569350, "lat": 41.3890433, "lon": 2.1866683}, {"type": "node", "id": 1497569360, "lat": 41.3890624, "lon": 2.1865643}, {"type": "node", "id": 1497569361, "lat": 41.3890848, "lon": 2.1866488}, {"type": "node", "id": 1497595784, "lat": 41.3857384, "lon": 2.1736392, "tags": {"addr:city": "Barcelona", "addr:housenumber": "3", "addr:postcode": "08002", "addr:street": "Carrer de Montsi\u00f3", "amenity": "bar", "email": "4gats@4gats.com", "name": "4Gats", "name:ca": "Els Quatre Gats", "name:en": "Els Quatre Gats", "name:ru": "\u041a\u0430\u0444\u0435 4 \u043a\u043e\u0442\u0430", "name:zh": "\u56db\u96bb\u8c93 \u5496\u5561\u9928", "old_name": "Els Quatre Gats", "opening_hours": "Tu 11:00-17:00; We-Fr 11:00-24:00; Sa 12:00-00:00; Su 12:00-17:00", "phone": "+34 933024140", "toilets:wheelchair": "no", "website": "https://www.4gats.com/", "wheelchair": "limited", "wikidata": "Q1333395", "wikimedia_commons": "Category:Els Quatre Gats", "wikipedia": "ca:Els Quatre Gats"}}, {"type": "node", "id": 1526164858, "lat": 41.3819082, "lon": 2.1653476, "tags": {"addr:city": "Barcelona", "addr:housenumber": "24", "addr:street": "Carrer de Ferlandina", "amenity": "bar", "internet_access": "wlan", "internet_access:fee": "no", "name": "Bar Fidel", "website": "http://bar-fidel.com/"}}, {"type": "node", "id": 1867973794, "lat": 41.3875681, "lon": 2.1811672, "tags": {"amenity": "bar", "name": "Bar del Convent"}}, {"type": "node", "id": 2178210108, "lat": 41.3823021, "lon": 2.1659029, "tags": {"amenity": "bar", "name": "Casa Amirall"}}, {"type": "node", "id": 2247741140, "lat": 41.3819109, "lon": 2.1767686, "tags": {"addr:housenumber": "2", "addr:postcode": "08002", "addr:street": "Carrer del Pas de l'Ensenyan\u00e7a", "amenity": "bar", "name": "El Paraigua", "source": "+34 933 02 11 31", "website": "https://www.elparaigua.com/"}}, {"type": "node", "id": 2247759627, "lat": 41.3869859, "lon": 2.183849, "tags": {"addr:housenumber": "26", "addr:street": "Passeig de Picasso", "amenity": "bar", "name": "Colombo", "source": "93 310 75 50"}}, {"type": "node", "id": 2247764339, "lat": 41.3823214, "lon": 2.1730348, "tags": {"addr:housenumber": "14", "addr:street": "Carrer Roca", "amenity": "bar", "name": "Blondie Bar", "source": "+34 636 81 55 81"}}, {"type": "node", "id": 2247768611, "lat": 41.3774595, "lon": 2.1735544, "tags": {"addr:housenumber": "11", "addr:street": "Carrer de l'Est", "amenity": "bar", "cuisine": "tapas", "name": "Cassette Bar", "opening_hours": "Fr-Sa 19:00-03:00; Mo-Th 19:00-02:30", "source": "+34 933 02 85 09", "website": "https://myspace.com/cassettebarbarcelona"}}, {"type": "node", "id": 2437938859, "lat": 41.3806763, "lon": 2.177069, "tags": {"addr:housenumber": "5", "addr:street": "Carrer de n'Arai", "amenity": "bar", "name": "Oviso", "wheelchair": "yes"}}, {"type": "node", "id": 2457866964, "lat": 41.3797385, "lon": 2.1751538, "tags": {"amenity": "bar", "harassment_prevention": "No Callem", "name": "Los Tarantos", "sexual_antiharassment_policy": "yes", "sexual_antiharassment_policy:name": "NoCallem"}}, {"type": "node", "id": 2465712772, "lat": 41.3806481, "lon": 2.1789874, "tags": {"addr:housenumber": "5", "addr:postcode": "08002", "addr:street": "Carrer de Milans", "amenity": "bar", "name": "Manchester"}}, {"type": "node", "id": 2479390681, "lat": 41.3801499, "lon": 2.1768532, "tags": {"addr:city": "Barcelona", "addr:housenumber": "49", "addr:postcode": "08002", "addr:street": "Carrer dels Escudellers", "amenity": "bar", "name": "Marula Caf\u00e8", "phone": "+34 933 18 76 90", "website": "https://marulacafe.com/", "wheelchair": "yes"}}, {"type": "node", "id": 2498389548, "lat": 41.3866293, "lon": 2.1622576, "tags": {"amenity": "bar", "lgbtq": "welcome", "name": "Belladona", "name:ca": "Belladona"}}, {"type": "node", "id": 2560086461, "lat": 41.3837461, "lon": 2.1630556, "tags": {"amenity": "bar", "name": "Mundo Casero", "name:es": "Mundo Casero", "wheelchair": "no"}}, {"type": "node", "id": 2628206294, "lat": 41.377316, "lon": 2.1750649, "tags": {"amenity": "bar", "name": "Pastis"}}, {"type": "node", "id": 2650437195, "lat": 41.3860376, "lon": 2.1674444, "tags": {"addr:city": "Barcelona", "addr:housenumber": "3", "addr:postcode": "08002", "addr:street": "Carrer de Bergara", "amenity": "bar", "name": "Belushi's", "website": "https://www.belushis.com/bars/barcelona"}}, {"type": "node", "id": 2652014534, "lat": 41.3895384, "lon": 2.1729617, "tags": {"addr:city": "Barcelona", "addr:country": "ES", "addr:housenumber": "5", "addr:postcode": "08010", "addr:street": "Pla\u00e7a d'Urquinaona", "amenity": "bar", "contact:website": "http://www.thegeorgepayne.com/", "name": "The George Payne", "opening_hours": "Mo-We 13:00-02:00; Th, Su 13:00-02:30; Fr, Sa 13:00-03:00", "wheelchair": "yes"}}, {"type": "node", "id": 2721077740, "lat": 41.3848861, "lon": 2.1667078, "tags": {"amenity": "bar", "indoor_seating": "yes", "name": "Bar Veni", "old_name": "Mucci's", "outdoor_seating": "yes"}}, {"type": "node", "id": 2821566629, "lat": 41.3813306, "lon": 2.1801063, "tags": {"addr:housenumber": "21", "addr:postcode": "08002", "addr:street": "Carrer d'en Gign\u00e0s", "amenity": "bar", "contact:website": "http://milkbarcelona.com/", "cuisine": "spanish", "internet_access": "wlan", "name": "Milk", "name:en": "Milk Bar & Bistro"}}, {"type": "node", "id": 2848210517, "lat": 41.3842949, "lon": 2.1827139, "tags": {"addr:city": "Barcelona", "addr:housenumber": "12", "addr:postcode": "08003", "addr:street": "Passeig del Born", "amenity": "bar", "check_date": "2024-07-20", "cuisine": "french", "email": "crepsalbornbcn@gmail.com", "internet_access": "wlan", "name": "Creps al Born", "name:ca": "Creps al Born", "opening_hours": "Mo-Th 17:30-02:30; Fr 17:30-03:00; Sa 12:00-03:00; Su 12:00-02:30", "phone": "+34 932690325", "website": "https://www.crepsalbornbcn.com/"}}, {"type": "node", "id": 2880793689, "lat": 41.3833249, "lon": 2.1650876, "tags": {"amenity": "bar", "name": "Betty Ford's"}}, {"type": "node", "id": 2885926951, "lat": 41.3770984, "lon": 2.1680653, "tags": {"amenity": "bar", "name": "Makinavaja bar"}}, {"type": "node", "id": 2886033126, "lat": 41.3773354, "lon": 2.1670705, "tags": {"amenity": "bar", "name": "Freedonia"}}, {"type": "node", "id": 2886036696, "lat": 41.3773659, "lon": 2.1674358, "tags": {"amenity": "bar", "name": "Bar Lupita"}}, {"type": "node", "id": 2890108535, "lat": 41.3828225, "lon": 2.1683796, "tags": {"amenity": "bar", "name": "Raval bar", "name:ca": "Raval bar"}}, {"type": "node", "id": 2890111608, "lat": 41.3770172, "lon": 2.168176, "tags": {"amenity": "bar", "name": "La casa de la pradera"}}, {"type": "node", "id": 2890111610, "lat": 41.3844766, "lon": 2.180301, "tags": {"amenity": "bar", "name": "Arena bar"}}, {"type": "node", "id": 2890111611, "lat": 41.3845612, "lon": 2.1799122, "tags": {"amenity": "bar", "name": "Lilipep"}}, {"type": "node", "id": 2890111956, "lat": 41.3828689, "lon": 2.1642557, "tags": {"amenity": "bar", "name": "Sid bar"}}, {"type": "node", "id": 2892028392, "lat": 41.3825502, "lon": 2.16647, "tags": {"addr:housenumber": "27", "addr:street": "Pla\u00e7a dels \u00c0ngels", "amenity": "bar", "name": "Do\u00f1a Rosa", "opening_hours": "Mo-Th 10:30-00:00; Fr 10:30-01:00; Sa 10:00-01:00; Su 10:00-00:00"}}, {"type": "node", "id": 2892028393, "lat": 41.3825992, "lon": 2.1665452, "tags": {"amenity": "bar", "name": "Kino", "smoking": "separated"}}, {"type": "node", "id": 2892037991, "lat": 41.3777666, "lon": 2.1707826, "tags": {"amenity": "bar", "name": "\u00c1mbar", "phone": "+34 628087401", "toilets:wheelchair": "yes", "wheelchair": "yes"}}, {"type": "node", "id": 2892037992, "lat": 41.3779709, "lon": 2.1707303, "tags": {"amenity": "bar", "name": "La Paciencia", "toilets:wheelchair": "no", "wheelchair": "limited"}}, {"type": "node", "id": 2892037993, "lat": 41.3782418, "lon": 2.1712432, "tags": {"addr:city": "Barcelona", "addr:housenumber": "65", "addr:postcode": "08001", "addr:street": "Carrer de Sant Pau", "amenity": "bar", "contact:phone": "+34 934 42 72 63", "name": "Bar Marsella"}}, {"type": "node", "id": 3074796331, "lat": 41.3801259, "lon": 2.1746721, "tags": {"addr:floor": "1st", "addr:housenumber": "3", "addr:street": "Pla\u00e7a Reial", "amenity": "bar", "name": "Barcelona Pipa Club", "opening_hours": "Mo-Su 23:00-04:00", "wikidata": "Q116871788"}}, {"type": "node", "id": 3101487170, "lat": 41.3806296, "lon": 2.167222, "tags": {"addr:city": "Barcelona", "addr:housenumber": "4-6", "addr:postcode": "08001", "addr:street": "Carrer de la Riera Alta", "amenity": "bar", "name": "Marmalade"}}, {"type": "node", "id": 3101523329, "lat": 41.3797882, "lon": 2.1662643, "tags": {"addr:city": "Barcelona", "addr:housenumber": "116", "addr:postcode": "08001", "addr:street": "Carrer del Carme", "amenity": "bar", "name": "Zelig"}}, {"type": "node", "id": 3106031830, "lat": 41.3758411, "lon": 2.1660642, "tags": {"amenity": "bar", "contact:email": "barolimpiabarcelona@gmail.com", "cuisine": "tapas", "name": "Bar Olimpia", "smoking": "no", "source": "survey", "wheelchair": "limited"}}, {"type": "node", "id": 3106121029, "lat": 41.3757556, "lon": 2.1659373, "tags": {"amenity": "bar", "diet:vegan": "yes", "diet:vegetarian": "yes", "name": "Jonny Aldana", "source": "survey", "website": "https://www.jonnyaldana.com/"}}, {"type": "node", "id": 3113655119, "lat": 41.3847826, "lon": 2.1592727, "tags": {"amenity": "bar", "lgbtq": "primary", "min_age": "18", "name": "Boxer Bar", "wheelchair": "yes"}}, {"type": "node", "id": 3115377554, "lat": 41.3912898, "lon": 2.1666197}, {"type": "node", "id": 3115377555, "lat": 41.3913362, "lon": 2.1665546}, {"type": "node", "id": 3115377557, "lat": 41.3913481, "lon": 2.1666995}, {"type": "node", "id": 3115377558, "lat": 41.3913967, "lon": 2.1666327}, {"type": "node", "id": 3231375761, "lat": 41.3847242, "lon": 2.1829681, "tags": {"addr:city": "Barcelona", "addr:housenumber": "26", "addr:street": "Passeig del Born", "amenity": "bar", "check_date": "2023-10-29", "name": "el Born", "name:ca": "el Born", "phone": "+34933195333", "website": "https://www.elbornbar.com/"}}, {"type": "node", "id": 3353656154, "lat": 41.3819598, "lon": 2.1687235, "tags": {"amenity": "bar", "name": "Silenus"}}, {"type": "node", "id": 3491476947, "lat": 41.3856036, "lon": 2.1800221, "tags": {"addr:city": "Barcelona", "addr:housenumber": "2", "addr:street": "Carrer de Montcada", "amenity": "bar", "atm": "no", "cuisine": "tapas", "description": "Tapas a bar", "food": "yes", "internet_access": "wlan", "name": "Bar del Pla", "opening_hours": "Mo-Th 12:00-23:00; Fr-Sa 12:00-00:00", "outdoor_seating": "yes", "smoking": "outside", "source": "Local knowledge", "website": "https://www.bardelpla.cat/", "wheelchair": "limited"}}, {"type": "node", "id": 3718061014, "lat": 41.3764788, "lon": 2.1623937, "tags": {"addr:housenumber": "25", "addr:street": "Carrer del Parlament", "amenity": "bar", "check_date": "2024-11-02", "name": "Bar Calders", "outdoor_seating": "yes", "wheelchair": "no"}}, {"type": "node", "id": 3797542358, "lat": 41.379361, "lon": 2.1757821, "tags": {"addr:city": "Barcelona", "addr:housename": "Nou de Zurbano 8", "addr:housenumber": "7", "addr:postcode": "08002", "addr:street": "Nou de Zurbano", "amenity": "bar", "designation": "Cocktail bar and Social Club", "int_name": "Raimon Social Club", "internet_access": "wlan", "internet_access:fee": "no", "name": "Raimon Social Club", "name:ca": "Raimon Social Club", "source": "http://barcelona-guide.info", "website": "http://raimonclub.com"}}, {"type": "node", "id": 3964809730, "lat": 41.3761574, "lon": 2.1617615, "tags": {"addr:housenumber": "23", "addr:street": "Carrer de Viladomat", "amenity": "bar", "name": "Tarann\u00e0", "phone": "+34 931061193", "website": "https://tarannacafe.com/", "wheelchair": "no"}}, {"type": "node", "id": 3966887004, "lat": 41.3899349, "lon": 2.1599331, "tags": {"amenity": "bar", "name": "Bar Cleries"}}, {"type": "node", "id": 3987217352, "lat": 41.382757, "lon": 2.1785313, "tags": {"addr:city": "Barcelona", "addr:housenumber": "1", "addr:postcode": "08002", "addr:street": "Carrer de la Palma de Sant Just", "amenity": "bar", "name": "Ginger", "opening_hours": "Tu-Sa 19:30-02:30", "phone": "+34 93 310 53 09", "website": "http://ginger.cat/GINGER_BARCELONA/welcome_to_Ginger_Barcelona.html"}}, {"type": "node", "id": 4029816789, "lat": 41.3845299, "lon": 2.1805557, "tags": {"addr:housenumber": "6", "addr:street": "Carrer dels Banys Vells", "amenity": "bar", "cuisine": "arab;argentinian", "entrance": "yes", "name": "Rubi Bar", "phone": "+34-647737707", "toilets:wheelchair": "no", "wheelchair": "limited"}}, {"type": "node", "id": 4130741098, "lat": 41.3850373, "lon": 2.1662783, "tags": {"addr:housenumber": "70", "addr:street": "Carrer dels Tallers", "amenity": "bar", "name": "Cerveceria La Surena"}}, {"type": "node", "id": 4137545690, "lat": 41.3886077, "lon": 2.1801454, "tags": {"addr:housenumber": "10", "addr:street": "Carrer de les Basses de Sant Pere", "amenity": "bar", "name": "Paspartu"}}, {"type": "node", "id": 4148553589, "lat": 41.3787719, "lon": 2.1724896, "tags": {"addr:street": "Carrer del Marqu\u00e8s de Barber\u00e0", "amenity": "bar", "name": "Shenanigans Irish Pub"}}, {"type": "node", "id": 4172561990, "lat": 41.3809266, "lon": 2.1754554, "tags": {"addr:housenumber": "9", "addr:street": "Carrer d'en Rauric", "amenity": "bar", "name": "First bar"}}, {"type": "node", "id": 4190446294, "lat": 41.380071, "lon": 2.1801819, "tags": {"addr:housenumber": "13", "addr:postcode": "08002", "addr:street": "Carrer de la Merc\u00e8", "amenity": "bar", "internet_access": "wlan", "name": "El Bomb\u00f3n"}}, {"type": "node", "id": 4190964190, "lat": 41.3886068, "lon": 2.1801679, "tags": {"addr:housenumber": "10", "addr:street": "Carrer de les Basses de Sant Pere", "amenity": "bar", "name": "Ale&Hop", "opening_hours": "Mo-We 17:00-01:30; Th 17:00-02:30; Fr 17:00-03:00; Sa 13:00-03:00; Su 13:00-01:30"}}, {"type": "node", "id": 4192258489, "lat": 41.3849952, "lon": 2.182803, "tags": {"amenity": "bar", "name": "nose", "toilets:wheelchair": "no", "wheelchair": "yes"}}, {"type": "node", "id": 4199273996, "lat": 41.3850625, "lon": 2.1661014, "tags": {"amenity": "bar", "name": "The Shamrock"}}, {"type": "node", "id": 4254071889, "lat": 41.392924, "lon": 2.175234, "tags": {"amenity": "bar", "name": "Noumades", "old_name": "Bar centro"}}, {"type": "node", "id": 4254675492, "lat": 41.387328, "lon": 2.1679739, "tags": {"addr:housenumber": "37", "addr:postcode": "08007", "addr:street": "Ronda de la Universitat", "amenity": "bar", "cuisine": "burger", "email": "latavernadebarcelona@hotmail.com", "name": "La tavern de barcelona", "name:ca": "La Taverna de Barcelona", "name:es": "La Taverna de Barcelona", "phone": "+34 933 01 76 53"}}, {"type": "node", "id": 4254709544, "lat": 41.3936112, "lon": 2.1747834, "tags": {"addr:housenumber": "43", "addr:street": "Carrer de Bail\u00e8n", "amenity": "bar", "check_date": "2024-10-19", "level": "0", "name": "Checkpoint Arcade"}}, {"type": "node", "id": 4321293689, "lat": 41.3848364, "lon": 2.1830531, "tags": {"addr:housenumber": "30", "addr:postcode": "08003", "addr:street": "Passeig del Born", "amenity": "bar", "name": "Cactus Bar"}}, {"type": "node", "id": 4321334889, "lat": 41.3945664, "lon": 2.1598744, "tags": {"addr:postcode": "08008", "amenity": "bar", "name": "Boca Grande"}}, {"type": "node", "id": 4321334989, "lat": 41.3955828, "lon": 2.1676294, "tags": {"addr:housenumber": "97", "addr:postcode": "08009", "addr:street": "Carrer del Bruc", "amenity": "bar", "name": "Bar Cugat", "name:ca": "Bar Cugat", "name:es": "Bar Cugat", "opening_hours": "Mo-Th 09:00-00:30; Fr 09:00-02:30; Sa 11:00-02:30", "phone": "+34 93 1398194", "website": "http://barcugat.com"}}, {"type": "node", "id": 4321668169, "lat": 41.3780728, "lon": 2.1750758, "tags": {"addr:housenumber": "3", "addr:postcode": "08001", "addr:street": "Carrer de l'Arc del Teatre", "amenity": "bar", "harassment_prevention": "No Callem", "name": "Moog", "sexual_antiharassment_policy": "yes", "sexual_antiharassment_policy:name": "NoCallem"}}, {"type": "node", "id": 4326986691, "lat": 41.3820911, "lon": 2.1685814, "tags": {"amenity": "bar", "name": "Bar Victoria"}}, {"type": "node", "id": 4349886673, "lat": 41.38047, "lon": 2.1770302, "tags": {"addr:housenumber": "3", "addr:street": "Carrer de n'Arai", "amenity": "bar", "name": "Dionisos", "wheelchair": "yes"}}, {"type": "node", "id": 4349888455, "lat": 41.3805356, "lon": 2.1770355, "tags": {"addr:housenumber": "3", "addr:street": "Carrer de n'Arai", "amenity": "bar", "name": "Bar Lisa"}}, {"type": "node", "id": 4387192496, "lat": 41.385131, "lon": 2.1778655, "tags": {"addr:city": "Barcelona", "addr:floor": "8", "addr:housenumber": "30", "addr:postcode": "08003", "addr:street": "Via Laietana", "amenity": "bar", "bar": "yes", "brewery": "various", "check_date": "2024-08-29", "cuisine": "regional;mediterranean", "description": "En el octavo piso de nuestro hotel, sobre las animadas calles del Barrio G\u00f3tico, La Terraza del Central te invita a disfrutar de cocina mediterr\u00e1nea al fresco, exquisitos c\u00f3cteles y vistas impresionantes. Con un ambiente relajado, es el lugar perfecto par", "email": "laterraza@grandhotelcentral.com", "image": "https://www.grandhotelcentral.com/data/webp/white.png-e2293a1c670abc191fcc4f21b53287e6.webp", "name": "La Terraza del Central", "opening_hours": "Mo-Su 09:00-24:00", "opening_hours:kitchen": "Cocina mediterr\u00e1nea al fresco, exquisitos c\u00f3cteles", "payment:cash": "yes", "payment:contactless": "yes", "payment:credit_cards": "yes", "payment:debit_cards": "yes", "payment:mastercard": "yes", "payment:visa": "yes", "phone": "+34 932 957 900", "reservation": "recommended", "website": "https://www.grandhotelcentral.com/es/rooftop-barcelona/", "website:menu": "https://www.grandhotelcentral.com/downloads/laterrazadelcentralmenu.pdf"}}, {"type": "node", "id": 4406319999, "lat": 41.3841403, "lon": 2.1829077, "tags": {"addr:housenumber": "9", "addr:street": "Carrer de la Vidrieria", "amenity": "bar", "name": "n\u00famero nueve", "name:es": "n\u00famero nueve"}}, {"type": "node", "id": 4409361092, "lat": 41.3804417, "lon": 2.1809918, "tags": {"addr:housenumber": "7", "addr:postcode": "08002", "addr:street": "Passeig de Colom", "amenity": "bar", "name": "Kulas"}}, {"type": "node", "id": 4426366390, "lat": 41.3838486, "lon": 2.1629162, "tags": {"amenity": "bar", "name": "Barcelona beer company", "name:es": "Barcelona beer company", "wheelchair": "yes"}}, {"type": "node", "id": 4442168589, "lat": 41.3839256, "lon": 2.1774566, "tags": {"addr:housenumber": "13", "addr:street": "Carrer del Veguer", "amenity": "bar", "name": "L'Antiquari", "name:ca": "L'Antiquari", "name:es": "L'Antiquari"}}, {"type": "node", "id": 4449149161, "lat": 41.3845748, "lon": 2.1608385, "tags": {"amenity": "bar", "name": "Versailles Lounge Bar"}}, {"type": "node", "id": 4449149162, "lat": 41.3842857, "lon": 2.1591274, "tags": {"addr:city": "Barcelona", "addr:housenumber": "174", "addr:postcode": "08011", "addr:street": "Carrer de la Diputaci\u00f3", "amenity": "bar", "lgbtq": "primary", "lgbtq:men": "only", "name": "Boys Bar BCN", "opening_hours": "Tu-Sa 21:30-03:00", "phone": "+34 651 680 643", "website": "https://www.boysbarbcn.com"}}, {"type": "node", "id": 4449149167, "lat": 41.3852769, "lon": 2.1591432, "tags": {"amenity": "bar", "lgbtq": "primary", "name": "Bacon Bear Bar"}}, {"type": "node", "id": 4449149168, "lat": 41.386746, "lon": 2.1590623, "tags": {"amenity": "bar", "name": "La Chapelle"}}, {"type": "node", "id": 4449149169, "lat": 41.3866794, "lon": 2.1591527, "tags": {"addr:housenumber": "65", "addr:postcode": "08007", "addr:street": "Carrer de Muntaner", "amenity": "bar", "harassment_prevention": "No Callem", "name": "Punto BCN", "opening_hours": "Tu-Su 18:00-02:30", "phone": "+34934875140", "sexual_antiharassment_policy": "yes", "sexual_antiharassment_policy:name": "NoCallem", "website": "https://grupoarena.com"}}, {"type": "node", "id": 4449149170, "lat": 41.3868645, "lon": 2.1599115, "tags": {"addr:city": "Barcelona", "addr:housenumber": "257", "addr:postcode": "08011", "addr:street": "Carrer del Consell de Cent", "amenity": "bar", "lgbtq": "primary", "name": "Dmen's"}}, {"type": "node", "id": 4449149171, "lat": 41.3862444, "lon": 2.1618234, "tags": {"amenity": "bar", "name": "Mont Bar", "wheelchair": "limited"}}, {"type": "node", "id": 4548292694, "lat": 41.3772748, "lon": 2.1749382, "tags": {"addr:housenumber": "8", "addr:street": "Carrer de Santa M\u00f2nica", "amenity": "bar", "name:en": "El cangrejo"}}, {"type": "node", "id": 4553979391, "lat": 41.3834799, "lon": 2.1625678, "tags": {"amenity": "bar", "name": "Bodega Sep\u00falveda", "name:ca": "Bodega Sep\u00falveda"}}, {"type": "node", "id": 4568388190, "lat": 41.3760257, "lon": 2.164045, "tags": {"amenity": "bar", "name": "La G\u00f3ndola", "name:es": "La G\u00f3ndola"}}, {"type": "node", "id": 4571972390, "lat": 41.3789958, "lon": 2.174867, "tags": {"amenity": "bar", "name": "tablao flamenco", "name:es": "tablao flamenco"}}, {"type": "node", "id": 4646610690, "lat": 41.3869809, "lon": 2.1802947, "tags": {"addr:housenumber": "31", "addr:street": "Carrer dels Carders", "amenity": "bar", "name": "Space Cowboy"}}, {"type": "node", "id": 4646610691, "lat": 41.3803151, "lon": 2.1808841, "tags": {"addr:housenumber": "8", "addr:postcode": "08002", "addr:street": "Passeig de Colom", "amenity": "bar", "name": "Espit Chupitos"}}, {"type": "node", "id": 4653437490, "lat": 41.3754753, "lon": 2.1677448, "tags": {"amenity": "bar", "name": "Los Cachitos", "name:es": "Los Cachitos"}}, {"type": "node", "id": 4653496889, "lat": 41.3778187, "lon": 2.1639598, "tags": {"amenity": "bar", "wheelchair": "limited"}}, {"type": "node", "id": 4653497089, "lat": 41.3775938, "lon": 2.1648996, "tags": {"amenity": "bar", "name": "Kabab Ghar", "name:es": "Kabab Ghar", "wheelchair": "limited"}}, {"type": "node", "id": 4657957289, "lat": 41.3751709, "lon": 2.1693835, "tags": {"amenity": "bar", "name": "Espanyol", "name:ca": "Espanyol"}}, {"type": "node", "id": 4659798495, "lat": 41.3765945, "lon": 2.1653366, "tags": {"amenity": "bar", "name": "Sant Pau", "name:ca": "Sant Pau", "wheelchair": "yes"}}, {"type": "node", "id": 4659811590, "lat": 41.3775036, "lon": 2.165, "tags": {"amenity": "bar", "name": "Diamante", "name:es": "Diamante"}}, {"type": "node", "id": 4661083190, "lat": 41.375471, "lon": 2.1670448, "tags": {"amenity": "bar", "name": "D\u00edas De Norte", "name:es": "D\u00edas De Norte"}}, {"type": "node", "id": 4668690289, "lat": 41.3762, "lon": 2.1640309, "tags": {"amenity": "bar", "check_date": "2023-04-27", "name": "Amable", "name:es": "Amable", "opening_hours": "Mo-Sa 07:30-24:00; Su 09:00-24:00"}}, {"type": "node", "id": 4668716290, "lat": 41.3759225, "lon": 2.1601557, "tags": {"amenity": "bar", "name": "La Barra de la d'Or", "name:ca": "La Barra de la d'Or"}}, {"type": "node", "id": 4668717189, "lat": 41.3761676, "lon": 2.1594654, "tags": {"amenity": "bar", "name": "Entre Tapes", "name:ca": "Entre Tapes", "wheelchair": "yes"}}, {"type": "node", "id": 4668742390, "lat": 41.3745998, "lon": 2.1618768, "tags": {"amenity": "bar", "name": "Mai Tanca", "name:ca": "Mai Tanca"}}, {"type": "node", "id": 4676116589, "lat": 41.3861736, "lon": 2.1646996, "tags": {"addr:postcode": "08007", "amenity": "bar", "check_date:opening_hours": "2024-11-20", "internet_access": "wlan", "name": "Cerveseria Universitat", "name:ca": "Cerveseria Universitat", "opening_hours": "Mo-Su 09:00-01:00"}}, {"type": "node", "id": 4703636561, "lat": 41.3818238, "lon": 2.1797544, "tags": {"addr:housenumber": "6", "addr:postcode": "08002", "addr:street": "Baixada de Viladecols", "amenity": "bar", "name": "Carlos and Mathilda"}}, {"type": "node", "id": 4725031991, "lat": 41.3746057, "lon": 2.1678056, "tags": {"amenity": "bar", "name": "La Cantonada", "name:ca": "La Cantonada"}}, {"type": "node", "id": 4725658095, "lat": 41.3754989, "lon": 2.1629173, "tags": {"amenity": "bar", "name": "Benidorm", "name:ca": "Benidorm"}}, {"type": "node", "id": 4725692890, "lat": 41.3747846, "lon": 2.1635935, "tags": {"amenity": "bar"}}, {"type": "node", "id": 4725706889, "lat": 41.3751878, "lon": 2.1645189, "tags": {"addr:street": "Avinguda del Paral\u00b7lel", "amenity": "bar", "name": "IMPRFCTO maison surrealist"}}, {"type": "node", "id": 4726582797, "lat": 41.3892191, "lon": 2.1783959, "tags": {"amenity": "bar", "name": "Andorra", "name:es": "Andorra"}}, {"type": "node", "id": 4726582799, "lat": 41.3872998, "lon": 2.1792771, "tags": {"amenity": "bar", "name": "Bodega Jan\u00e9", "name:es": "Bodega Jan\u00e9"}}, {"type": "node", "id": 4726583197, "lat": 41.3895056, "lon": 2.1779383, "tags": {"amenity": "bar", "name": "Obrador", "name:ca": "Obrador"}}, {"type": "node", "id": 4726583198, "lat": 41.3879295, "lon": 2.1794342, "tags": {"amenity": "bar"}}, {"type": "node", "id": 4726613692, "lat": 41.3803273, "lon": 2.1643441, "tags": {"addr:housenumber": "59", "addr:street": "Carrer de la Riera Alta", "amenity": "bar", "email": "wearefoxy@gmail.com", "internet_access": "wlan", "name": "Foxy Bar", "name:es": "Foxy Bar", "opening_hours": "Su-Th 16:00-02:00; Fr-Sa 17:00-03:00", "phone": "+34 931 806 004", "website": "https://wearefoxy.wordpress.com"}}, {"type": "node", "id": 4729342999, "lat": 41.3743998, "lon": 2.1677116, "tags": {"air_conditioning": "yes", "amenity": "bar", "name": "Porto Col\u00f3n"}}, {"type": "node", "id": 4729343192, "lat": 41.3752214, "lon": 2.1663889, "tags": {"addr:postcode": "08001", "amenity": "bar", "name": "Paddock", "name:en": "Paddock", "opening_hours": "Tu-Sa 18:30-23:00; Su 12:00-23:00"}}, {"type": "node", "id": 4729343193, "lat": 41.3746194, "lon": 2.1669636, "tags": {"amenity": "bar", "indoor_seating": "yes", "name": "Cervecer\u00eda Frankfurt El Molino", "outdoor_seating": "yes"}}, {"type": "node", "id": 4729348090, "lat": 41.3751877, "lon": 2.165879, "tags": {"amenity": "bar"}}, {"type": "node", "id": 4730749622, "lat": 41.3793301, "lon": 2.1787723, "tags": {"addr:housenumber": "29", "addr:street": "Carrer dels C\u00f2dols", "amenity": "bar", "email": "polaroidbar@gmail.com", "name": "Polaroid bar", "phone": "+34 931866669"}}, {"type": "node", "id": 4734318123, "lat": 41.3779098, "lon": 2.1783933, "tags": {"addr:housenumber": "6", "addr:postcode": "08002", "addr:street": "Carrer de Josep Anselm Clav\u00e9", "amenity": "bar", "name": "Margarita Blue", "name:ca": "Margarita Blue", "name:en": "Margarita Blue", "name:es": "Margarita Blue", "phone": "+34 934125489", "toilets:wheelchair": "yes", "website": "https://www.margaritablue.com/", "wheelchair": "limited"}}, {"type": "node", "id": 4745636221, "lat": 41.3886394, "lon": 2.1739797, "tags": {"amenity": "bar", "cuisine": "burger;sandwich;breakfast;tapas;coffee_shop", "name": "Bar tim\u00f3n", "name:es": "Bar tim\u00f3n"}}, {"type": "node", "id": 4755496722, "lat": 41.3845759, "lon": 2.1695206, "tags": {"amenity": "bar", "name": "Drapaire", "name:es": "Drapaire"}}, {"type": "node", "id": 4762854028, "lat": 41.3942127, "lon": 2.1739835, "tags": {"amenity": "bar", "check_date": "2023-10-03", "name": "Len's Comic Cafe", "name:es": "Len's Comic Cafe"}}, {"type": "node", "id": 4787898099, "lat": 41.3812476, "lon": 2.1668432, "tags": {"addr:city": "Barcelona", "addr:housenumber": "1", "addr:postcode": "08001", "addr:street": "Pla\u00e7a Emili Vendrell", "amenity": "bar", "name": "Two Schmuks", "name:en": "Two Schmucks"}}, {"type": "node", "id": 4851287027, "lat": 41.3871699, "lon": 2.1760883, "tags": {"amenity": "bar", "name": "Bar L'antic Teatre", "name:ca": "Bar L'antic Teatre"}}, {"type": "node", "id": 5028957224, "lat": 41.3872515, "lon": 2.1676245, "tags": {"addr:housenumber": "35", "addr:street": "Ronda de la Universitat", "amenity": "bar", "name": "Milano", "name:es": "Milano"}}, {"type": "node", "id": 5028969022, "lat": 41.3850929, "lon": 2.1836594, "tags": {"addr:city": "Barcelona", "addr:housenumber": "10", "addr:postcode": "08003", "addr:street": "Pla\u00e7a Comercial", "air_conditioning": "yes", "alt_name": "Sal\u00f3n Negroni", "amenity": "bar", "brewery": "yes", "check_date": "2024-02-14", "contact:instagram": "guzzobcn", "contact:whatsapp": "+34600798288", "contact:youtube": "https://www.youtube.com/channel/UC7gCN08li5UWM3h81E3rhyg", "internet_access": "wlan", "internet_access:fee": "customers", "live_music": "yes", "name": "Guzzo", "name:es": "Guzzo", "opening_hours": "Mo-We 18:00-01:00; Th 18:00-01:30; Fr 18:00-02:00; Sa 13:00-02:00; Su 13:00-01:00", "opening_hours:kitchen": "Mo-Th 19:00-23:00; Fr 19:00-23:30; Sa 13:00-16:00, 19:00-23:30; Su 13:00-16:00, 19:00-23:00", "outdoor_seating": "yes", "payment:cash": "yes", "payment:credit_cards": "yes", "payment:debit_cards": "yes", "phone": "+34936670036", "reservation:website": "https://guzzobcn.es/reservas/", "source": "survey", "website": "https://guzzobcn.es/", "website:menu": "https://guzzobcn.es/menu/"}}, {"type": "node", "id": 5046907261, "lat": 41.3765157, "lon": 2.1751425, "tags": {"addr:city": "Barcelona", "addr:housenumber": "6-8", "addr:street": "Avinguda de les Drassanes", "amenity": "bar", "cocktails": "yes", "level": "23", "name": "Marea Baja", "toilets": "yes", "website": "http://restaurantemareaalta.com"}}, {"type": "node", "id": 5062286421, "lat": 41.3821981, "lon": 2.1758384, "tags": {"addr:housenumber": "11", "addr:postcode": "08002", "addr:street": "Carrer del Call", "amenity": "bar", "name": "Rey del Mojito"}}, {"type": "node", "id": 5082607261, "lat": 41.3872947, "lon": 2.1804299, "tags": {"addr:housenumber": "43", "addr:street": "Carrer dels Carders", "amenity": "bar", "cuisine": "italian", "description": "Cocktails und kleine Happen zu essen, Craft Beer Auswahl", "name": "Ina", "opening_hours": "Mo, We-Fr 09:30-16:00, 19:00-01:30; Sa 09:30-01:30; Su 09:30-23:00", "phone": "+34663476017"}}, {"type": "node", "id": 5085619781, "lat": 41.381186, "lon": 2.1742004, "tags": {"amenity": "bar"}}, {"type": "node", "id": 5102737522, "lat": 41.3891883, "lon": 2.1636797, "tags": {"amenity": "bar", "name": "Red58", "name:en": "Red 58 Night Club Venue"}}, {"type": "node", "id": 5108433921, "lat": 41.378394, "lon": 2.165371, "tags": {"addr:housenumber": "32", "addr:street": "Carrer de la Cera", "amenity": "bar", "name:en": "Pesca Salada"}}, {"type": "node", "id": 5108595622, "lat": 41.3792438, "lon": 2.165785, "tags": {"addr:housenumber": "2", "addr:street": "Carrer d'En Botella", "amenity": "bar", "name:en": "Chulapio"}}, {"type": "node", "id": 5155671352, "lat": 41.3846098, "lon": 2.1772919, "tags": {"addr:housenumber": "8", "addr:postcode": "08002", "addr:street": "Carrer de la Tapineria", "amenity": "bar", "check_date": "2024-07-20", "name": "Spritz", "wheelchair": "limited"}}, {"type": "node", "id": 5156647123, "lat": 41.3805889, "lon": 2.1626471, "tags": {"amenity": "bar", "name": "Frankfurt Villarroel", "name:ca": "Frankfurt Villarroel"}}, {"type": "node", "id": 5156647127, "lat": 41.3847262, "lon": 2.1789496, "tags": {"addr:street": "Carrer de la B\u00f2ria", "amenity": "bar", "name": "Boria", "name:ca": "Boria", "wheelchair": "no"}}, {"type": "node", "id": 5156690623, "lat": 41.3849827, "lon": 2.1791939, "tags": {"addr:street": "Pla\u00e7a de la Llana", "amenity": "bar", "name": "Tower bar", "name:ca": "Tower bar", "wheelchair": "limited"}}, {"type": "node", "id": 5163798722, "lat": 41.3814266, "lon": 2.182686, "tags": {"addr:housenumber": "4", "addr:street": "Passeig d'Isabel II", "amenity": "bar", "name:en": "The Mint", "phone": "+34651144365"}}, {"type": "node", "id": 5167181223, "lat": 41.3825733, "lon": 2.165664, "tags": {"addr:housenumber": "39", "addr:postcode": "08001", "addr:street": "Carrer de Ferlandina", "amenity": "bar", "name": "Bodega Berlanga", "name:ca": "Bodega Berlanga", "opening_hours": "Mo-Sa 18:00-02:30"}}, {"type": "node", "id": 5167183038, "lat": 41.3812731, "lon": 2.1638047, "tags": {"amenity": "bar", "contact:facebook": "https://m.facebook.com/Absenta-DEL-RAVAL-458730810885596/timeline", "name": "Absenta del Raval", "name:ca": "Absenta del Raval"}}, {"type": "node", "id": 5167183039, "lat": 41.3799488, "lon": 2.1648622, "tags": {"amenity": "bar", "name": "Bodega Armando", "name:ca": "Bodega Armando"}}, {"type": "node", "id": 5168232325, "lat": 41.3832429, "lon": 2.1775174, "tags": {"addr:housenumber": "16", "addr:postcode": "08002", "addr:street": "Carrer de la Llibreteria", "amenity": "bar", "check_date": "2023-04-28", "name": "Mes\u00f3n del Caf\u00e9"}}, {"type": "node", "id": 5168232523, "lat": 41.3834934, "lon": 2.1776063, "tags": {"addr:housenumber": "23", "addr:postcode": "08002", "addr:street": "Carrer de la Llibreteria", "amenity": "bar", "name": "Bar Brusi"}}, {"type": "node", "id": 5192060622, "lat": 41.3785755, "lon": 2.1605915, "tags": {"amenity": "bar", "name": "Brasilia", "toilets:wheelchair": "no", "wheelchair": "limited"}}, {"type": "node", "id": 5192085421, "lat": 41.3812805, "lon": 2.1618108, "tags": {"air_conditioning": "yes", "amenity": "bar", "indoor_seating": "yes", "name": "Esterri", "outdoor_seating": "yes", "smoking": "outside"}}, {"type": "node", "id": 5197616824, "lat": 41.3779157, "lon": 2.1777037, "tags": {"amenity": "bar", "name": "nn"}}, {"type": "node", "id": 5197617623, "lat": 41.3780666, "lon": 2.1614839, "tags": {"addr:housenumber": "69", "addr:postcode": "08015", "addr:street": "Carrer del Comte Borrell", "amenity": "bar", "name": "Bar Cafeteria Borrell", "name:ca": "Bar Cafeteria Borrell", "name:en": "Bar Cafeteria Borrell", "opening_hours": "Mo-Th 09:00-23:00; Fr-Sa 10:00-23:30; Su 12:00-22:30", "wheelchair": "limited"}}, {"type": "node", "id": 5198200924, "lat": 41.3937883, "lon": 2.1727144, "tags": {"amenity": "bar", "check_date": "2024-10-20", "name": "Sidreria el Furaco", "name:ca": "Sidreria el Furaco"}}, {"type": "node", "id": 5199743028, "lat": 41.3898868, "lon": 2.1622344, "tags": {"amenity": "bar", "indoor_seating": "yes", "name": "seven7seven", "outdoor_seating": "yes"}}, {"type": "node", "id": 5203956426, "lat": 41.3852001, "lon": 2.1649244, "tags": {"amenity": "bar", "name": "Tallers 76", "name:ca": "Tallers 76"}}, {"type": "node", "id": 5207046926, "lat": 41.3863093, "lon": 2.1646356, "tags": {"amenity": "bar", "check_date": "2025-02-19", "name": "Estudiantil", "name:ca": "Estudiantil", "opening_hours": "Mo-Su 09:00-23:00", "phone": "+34 933 02 31 25", "website": "http://barestudiantil.net"}}, {"type": "node", "id": 5207065724, "lat": 41.3850886, "lon": 2.1629716, "tags": {"amenity": "bar", "name": "Brew Dog Point", "name:ca": "Brew Dog Point"}}, {"type": "node", "id": 5208223425, "lat": 41.3793184, "lon": 2.1598257, "tags": {"addr:housenumber": "91", "addr:street": "Carrer de Floridablanca", "amenity": "bar", "name": "Bar Ma\u00f1e Caf\u00e9", "toilets:wheelchair": "no", "wheelchair": "limited"}}, {"type": "node", "id": 5208710142, "lat": 41.3828913, "lon": 2.175531, "tags": {"addr:housenumber": "14", "addr:postcode": "08002", "addr:street": "Carrer de Sant Dom\u00e8nec del Call", "amenity": "bar", "name": "La Alcoba Azul"}}, {"type": "node", "id": 5210862781, "lat": 41.3781483, "lon": 2.1641011, "tags": {"addr:street": "Ronda de Sant Pau", "amenity": "bar", "name": "Porto Bello", "wheelchair": "limited"}}, {"type": "node", "id": 5210881000, "lat": 41.3810509, "lon": 2.1805139, "tags": {"addr:city": "Barcelona", "addr:housenumber": "46", "addr:postcode": "08002", "addr:street": "Carrer Ample", "alt_name": "The Bollocks", "amenity": "bar", "description": "Rock, Coctails, Pinballs i Burgers", "email": "bollocksbcn@gmail.com", "happy_hours": "Mo-Su 19:00-22:00", "name": "Bollocks", "opening_hours": "Mo-Th,Su 19:00-02:30; Fr-Sa 19:00-03:00", "phone": "+34 663710095", "website": "https://www.bollocksbar.com/"}}, {"type": "node", "id": 5210881001, "lat": 41.3777211, "lon": 2.1727671, "tags": {"amenity": "bar", "name": "Bar Tino"}}, {"type": "node", "id": 5210881002, "lat": 41.3746019, "lon": 2.1698284, "tags": {"addr:housenumber": "109", "addr:postcode": "08004", "addr:street": "Carrer Nou de la Rambla", "amenity": "bar", "name": "Frankfurt Jazz Band", "phone": "+34 934414002"}}, {"type": "node", "id": 5210884651, "lat": 41.3758579, "lon": 2.1749702, "tags": {"amenity": "bar", "name": "Bar Maritimo"}}, {"type": "node", "id": 5235655122, "lat": 41.3816361, "lon": 2.1828064, "tags": {"amenity": "bar", "name": "Bodega Vidrios y cristales", "name:ca": "Bodega Vidrios y cristales", "wheelchair": "yes"}}, {"type": "node", "id": 5241133621, "lat": 41.3802566, "lon": 2.1725439, "tags": {"amenity": "bar", "name": "Bodega Montse", "name:ca": "Bodega Montse"}}, {"type": "node", "id": 5247173823, "lat": 41.3833212, "lon": 2.1616932, "tags": {"addr:city": "Barcelona", "addr:housenumber": "30", "addr:postcode": "08011", "addr:street": "Carrer de Casanova", "air_conditioning": "no", "amenity": "bar", "email": "management@monacoloungebcn.com", "min_age": "18", "name": "Monaco Shisha Lounge", "opening_hours": "19:00-01:00; We,Th off; Fr,Sa 18:00-03:00", "phone": "+34610872243", "website": "https://www.monacoshishalounge.com"}}, {"type": "node", "id": 5271977223, "lat": 41.3797222, "lon": 2.1752424, "tags": {"addr:housenumber": "18", "addr:postcode": "08002", "addr:street": "Pla\u00e7a Reial", "amenity": "bar", "check_date": "2024-07-20", "fixme": "quitar el duplicado m\u00e1s antiguo y fusionar", "harassment_prevention": "No Callem", "name": "Jamboree Jazz & Dance Club", "name:ca": "Jamboree Jazz & Dance Club", "name:en": "Jamboree Jazz & Dance Club", "name:es": "Jamboree Jazz & Dance Club", "phone": "+34 933041210", "sexual_antiharassment_policy": "yes", "sexual_antiharassment_policy:name": "NoCallem", "website": "https://jamboreejazz.com"}}, {"type": "node", "id": 5272756221, "lat": 41.3755883, "lon": 2.1703543, "tags": {"amenity": "bar", "name": "Macera Taller Bar"}}, {"type": "node", "id": 5274307823, "lat": 41.3811106, "lon": 2.1674275, "tags": {"amenity": "bar", "name": "33/45"}}, {"type": "node", "id": 5298169481, "lat": 41.3835729, "lon": 2.1591619, "tags": {"addr:housenumber": "60", "addr:street": "Carrer de Villarroel", "amenity": "bar", "name": "Belchica", "phone": "+34 625814001", "website": "http://belchica.be"}}, {"type": "node", "id": 5312370356, "lat": 41.3855156, "lon": 2.1751627, "tags": {"amenity": "bar", "name": "Gala den Vermut", "name:ca": "Cala del Vermut", "name:es": "Cala del Vermut"}}, {"type": "node", "id": 5312370811, "lat": 41.3859393, "lon": 2.1747648, "tags": {"amenity": "bar", "name": "Cala del Vermut 2", "name:ca": "Bodega del Vermut", "name:en": "Bodega del Vermut", "name:es": "Bodega del Vermut"}}, {"type": "node", "id": 5353633553, "lat": 41.3836737, "lon": 2.1837007, "tags": {"addr:housenumber": "4", "addr:postcode": "08003", "addr:street": "Carrer de Rere Palau", "amenity": "bar", "name": "Paradiso", "opening_hours": "Mo-Su 17:00-02:30"}}, {"type": "node", "id": 5380437122, "lat": 41.3841796, "lon": 2.1806721, "tags": {"amenity": "bar", "name": "Dr Stravinsky"}}, {"type": "node", "id": 5468395621, "lat": 41.3843361, "lon": 2.1800667, "tags": {"addr:housenumber": "13", "addr:postcode": "08003", "addr:street": "Carrer dels Vigatans", "amenity": "bar", "internet_access": "wlan", "name": "Dux Gin & Cocktail Bar Barcelona", "opening_hours": "Su-Th 18:30-02:00; Fr-Sa 18:30-02:30", "website": "https://duxborne.com"}}, {"type": "node", "id": 5518705738, "lat": 41.3832809, "lon": 2.1683982, "tags": {"amenity": "bar", "name": "La central"}}, {"type": "node", "id": 5522181089, "lat": 41.3858755, "lon": 2.1850392, "tags": {"amenity": "bar", "name": "Magic", "name:hu": "M\u00e1gick"}}, {"type": "node", "id": 5525927436, "lat": 41.3880755, "lon": 2.1763052, "tags": {"addr:city": "Barcelona", "addr:housenumber": "28", "addr:postcode": "08003", "addr:street": "Carrer de Sant Pere M\u00e9s Alt", "amenity": "bar", "name": "B\u00e4r Sant Pere", "toilets:wheelchair": "yes", "wheelchair": "yes"}}, {"type": "node", "id": 5606506169, "lat": 41.3803881, "lon": 2.1789886, "tags": {"addr:city": "Barcelona", "addr:housenumber": "35", "addr:postcode": "08002", "addr:street": "Carrer d'Aviny\u00f3", "amenity": "bar", "indoor_seating": "yes", "name": "Sincopa", "outdoor_seating": "no", "phone": "+34 932 68 75 60"}}, {"type": "node", "id": 5639625957, "lat": 41.3756057, "lon": 2.1613045, "tags": {"addr:city": "Barcelona", "addr:housenumber": "7", "addr:postcode": "08015", "addr:street": "Carrer del Parlament", "amenity": "bar", "description": "Tienda de conservas gourmet del mundo, vermouth, cervezas artesanas The world's gourmet canning store, vermouth, craft beers ", "email": "hola@entrelatas-bcn.com", "name": "Entre Latas", "phone": "+34930154725", "website": "https://www.entrelatas-bcn.com/"}}, {"type": "node", "id": 5718757792, "lat": 41.3790957, "lon": 2.1696433, "tags": {"addr:city": "Barcelona", "addr:housenumber": "17-21", "addr:postcode": "08001", "addr:street": "Rambla del Raval", "amenity": "bar", "level": "11", "location": "rooftop", "name": "360\u00b0", "opening_hours": "11:00-01:00", "outdoor_seating": "yes", "phone": "+34933201490", "smoking": "yes", "website": "https://www.terrazeo.com/terraza/terraza-del-hotel-barcelo-raval/"}}, {"type": "node", "id": 5785061644, "lat": 41.3834738, "lon": 2.1664261, "tags": {"amenity": "bar", "name": "cafeteria Octubre"}}, {"type": "node", "id": 5786821866, "lat": 41.3951876, "lon": 2.1593834, "tags": {"amenity": "bar", "name": "Gallery Space"}}, {"type": "node", "id": 5902468191, "lat": 41.3831249, "lon": 2.1652703, "tags": {"addr:street": "Carrer de Joaqu\u00edn Costa", "amenity": "bar", "name": "Two Schmucks"}}, {"type": "node", "id": 5914744897, "lat": 41.3843726, "lon": 2.1626087, "tags": {"amenity": "bar", "cuisine": "tapas", "name": "Par\u00eds", "name:ca": "Par\u00eds"}}, {"type": "node", "id": 5916216006, "lat": 41.3843987, "lon": 2.1696272, "tags": {"addr:street": "Carrer de les Sitges", "amenity": "bar", "name": "Caribbean Club Cocktail Bar"}}, {"type": "node", "id": 5923825649, "lat": 41.3849901, "lon": 2.1833885, "tags": {"addr:city": "Barcelona", "addr:housenumber": "3", "addr:postcode": "08003", "addr:street": "Carrer Antic de Sant Joan", "amenity": "bar", "email": "info@eldiset.com", "name": "Eldiset", "phone": "+34 932681987", "website": "https://eldiset.com/"}}, {"type": "node", "id": 5923825650, "lat": 41.386519, "lon": 2.1832457, "tags": {"addr:city": "Barcelona", "addr:housenumber": "7", "addr:postcode": "08003", "addr:street": "Carrer de la Fusina", "amenity": "bar", "email": "INFO@CAFEKAFKA.ES", "name": "Cafe Kafka", "phone": "+34.933 151 776", "website": "http://www.cafekafka.es"}}, {"type": "node", "id": 5923835987, "lat": 41.3898967, "lon": 2.1789978, "tags": {"amenity": "bar", "name": "en apart\u00e9"}}, {"type": "node", "id": 5927815186, "lat": 41.3796837, "lon": 2.1780016, "tags": {"addr:housenumber": "14", "addr:postcode": "08002", "addr:street": "Carrer dels C\u00f2dols", "amenity": "bar", "name": "Mariatchi"}}, {"type": "node", "id": 5994481785, "lat": 41.3794753, "lon": 2.1595594, "tags": {"amenity": "bar", "name": "Unic"}}, {"type": "node", "id": 6001163586, "lat": 41.3775132, "lon": 2.1755775, "tags": {"addr:housenumber": "2", "addr:street": "Carrer de Santa M\u00f2nica", "amenity": "bar", "name:en": "The Wild Rover Irish Pub"}}, {"type": "node", "id": 6020170185, "lat": 41.3828611, "lon": 2.1740498, "tags": {"amenity": "bar", "name:ru": "ENRIQUE TOMAS. Pernileria-Jamineria"}}, {"type": "node", "id": 6033605286, "lat": 41.3744951, "lon": 2.1667538, "tags": {"addr:housenumber": "3", "addr:street": "Carrer de Salv\u00e0", "amenity": "bar", "name": "La Federica", "name:es": "La Federica"}}, {"type": "node", "id": 6051590892, "lat": 41.3829022, "lon": 2.1654809, "tags": {"amenity": "bar", "name": "Negroni", "name:es": "Negroni Cocktail Bar"}}, {"type": "node", "id": 6052329485, "lat": 41.3832428, "lon": 2.1781566, "tags": {"addr:housenumber": "7", "addr:postcode": "08002", "addr:street": "Carrer de la Dagueria", "amenity": "bar", "name": "Bar O'Ceo"}}, {"type": "node", "id": 6064402762, "lat": 41.3814694, "lon": 2.1767447, "tags": {"addr:housenumber": "6", "addr:postcode": "08002", "addr:street": "Baixada de Sant Miquel", "amenity": "bar", "entrance": "yes", "name": "Enkel"}}, {"type": "node", "id": 6119950185, "lat": 41.3828393, "lon": 2.1845117, "tags": {"amenity": "bar", "check_date": "2023-11-17", "name": "Mr Robinson", "name:en": "Mr. Robinson"}}, {"type": "node", "id": 6177292185, "lat": 41.3923555, "lon": 2.1678143, "tags": {"amenity": "bar", "internet_access": "wlan", "name": "Cinemateca"}}, {"type": "node", "id": 6211350417, "lat": 41.3813072, "lon": 2.18053, "tags": {"addr:housenumber": "53", "addr:postcode": "08002", "addr:street": "Carrer Ample", "amenity": "bar", "name": "Granja Bar Los Amigos"}}, {"type": "node", "id": 6261637185, "lat": 41.3756955, "lon": 2.173991, "tags": {"addr:street": "Carrer de la Mina", "amenity": "bar", "name": "Bar Restaurant Touareq"}}, {"type": "node", "id": 6268475414, "lat": 41.3743554, "lon": 2.1673863, "tags": {"addr:housenumber": "3", "addr:street": "Carrer del Roser", "amenity": "bar", "name": "La Pi\u00f1a Bar"}}, {"type": "node", "id": 6281806886, "lat": 41.3818444, "lon": 2.170849, "tags": {"amenity": "bar", "name": "L\u2018OW Boqueria"}}, {"type": "node", "id": 6281807588, "lat": 41.3829971, "lon": 2.170653, "tags": {"addr:housenumber": "7", "addr:postcode": "08001", "addr:street": "Carrer d'en Xucl\u00e0", "amenity": "bar", "name": "Gats", "phone": "+34931440044"}}, {"type": "node", "id": 6281807591, "lat": 41.3805982, "lon": 2.1665211, "tags": {"amenity": "bar", "name": "La Ravala", "name:es": "La Ravela"}}, {"type": "node", "id": 6281810285, "lat": 41.3781255, "lon": 2.1652096, "tags": {"amenity": "bar", "name": "Cuatro viento"}}, {"type": "node", "id": 6284037385, "lat": 41.3798131, "lon": 2.1685175, "tags": {"addr:housenumber": "1", "addr:street": "Rambla del Raval", "amenity": "bar", "name": "Bar 1800", "phone": "+34 934424435"}}, {"type": "node", "id": 6286303537, "lat": 41.3913483, "lon": 2.1665706}, {"type": "node", "id": 6286303568, "lat": 41.3913652, "lon": 2.1665924}, {"type": "node", "id": 6286563786, "lat": 41.3773955, "lon": 2.170194, "tags": {"amenity": "bar", "name": "Bar Granja Charly"}}, {"type": "node", "id": 6357834156, "lat": 41.3936947, "lon": 2.1648505, "tags": {"addr:housenumber": "286", "addr:postcode": "08007", "addr:street": "Carrer de Val\u00e8ncia", "amenity": "bar", "name": "Les gens que j'aime bar"}}, {"type": "node", "id": 6371994364, "lat": 41.3744865, "lon": 2.1630723, "tags": {"addr:housenumber": "8", "addr:street": "Carrer de Blasco de Garay", "amenity": "bar", "name": "Giraluna"}}, {"type": "node", "id": 6423279564, "lat": 41.3895378, "lon": 2.1604524, "tags": {"addr:housenumber": "24", "addr:street": "Pla\u00e7a del Doctor Letamendi", "amenity": "bar", "name": "Bar B\u00e1goa"}}, {"type": "node", "id": 6486643797, "lat": 41.385028, "lon": 2.1663563, "tags": {"amenity": "bar", "name": "BURGERBAR", "name:en": "Nevermind Bar"}}, {"type": "node", "id": 6516250453, "lat": 41.3838121, "lon": 2.1673102, "tags": {"amenity": "bar"}}, {"type": "node", "id": 6538194375, "lat": 41.3761815, "lon": 2.1601126, "tags": {"amenity": "bar", "name": "Mr. White"}}, {"type": "node", "id": 6563538085, "lat": 41.3853284, "lon": 2.160525, "tags": {"addr:housenumber": "188-196", "addr:street": "Carrer de la Diputaci\u00f3", "amenity": "bar", "internet_access": "wlan", "name": "Nook bcn"}}, {"type": "node", "id": 6574143485, "lat": 41.3837757, "lon": 2.1816336, "tags": {"amenity": "bar", "name": "el chigre 1769"}}, {"type": "node", "id": 6574151685, "lat": 41.3938207, "lon": 2.1633655, "tags": {"amenity": "bar", "check_date": "2023-07-14", "name": "la vinoteca terassa"}}, {"type": "node", "id": 6651539988, "lat": 41.3806023, "lon": 2.1760057, "tags": {"amenity": "bar", "internet_access": "wlan", "name": "nevermind"}}, {"type": "node", "id": 6665384785, "lat": 41.3856178, "lon": 2.162618, "tags": {"amenity": "bar", "contact:phone": "+34 938 48 81 77", "name": "Kahiki"}}, {"type": "node", "id": 6728731685, "lat": 41.3898929, "lon": 2.1706612, "tags": {"amenity": "bar", "name": "Bobby's Free"}}, {"type": "node", "id": 6743181085, "lat": 41.3866999, "lon": 2.1838431, "tags": {"amenity": "bar", "cuisine": "mexican", "name": "San Pedrito"}}, {"type": "node", "id": 6786006487, "lat": 41.3788574, "lon": 2.1639024, "tags": {"amenity": "bar", "internet_access": "wlan", "name": "La Iglesia"}}, {"type": "node", "id": 6913157187, "lat": 41.3827431, "lon": 2.1759968, "tags": {"addr:housenumber": "3", "addr:street": "Carrer de la Fruita", "amenity": "bar", "name": "Anduri\u00f1a"}}, {"type": "node", "id": 6914132390, "lat": 41.3817315, "lon": 2.1876268, "tags": {"addr:housenumber": "5", "addr:postcode": "08003", "addr:street": "Carrer de Carbonell", "amenity": "bar", "cuisine": "tapas", "name": "El Nou Ramonet"}}, {"type": "node", "id": 6983227455, "lat": 41.3921561, "lon": 2.1703663, "tags": {"addr:housenumber": "42", "addr:street": "Carrer de Roger de Ll\u00faria", "amenity": "bar", "internet_access": "wlan", "name": "SNOOKER - Cocteles y Billarea", "name:ca": "SNOOKER - C\u00f2ctels i Billars", "name:es": "SNOOKER - Cocteles y Billares", "outdoor_seating": "no", "website:menu": "https://snookerbarcelona.com/cocteleria/"}}, {"type": "node", "id": 7003296919, "lat": 41.3756878, "lon": 2.1708412, "tags": {"amenity": "bar", "name": "Bosforo"}}, {"type": "node", "id": 7003296923, "lat": 41.3747448, "lon": 2.1609868, "tags": {"amenity": "bar", "check_date": "2023-04-26", "indoor_seating": "yes", "name": "Triple Sec", "outdoor_seating": "no"}}, {"type": "node", "id": 7003432533, "lat": 41.3868181, "lon": 2.1598447, "tags": {"amenity": "bar", "name": "Ikatz"}}, {"type": "node", "id": 7006835685, "lat": 41.3805215, "lon": 2.1781997, "tags": {"amenity": "bar", "name": "la burnessa"}}, {"type": "node", "id": 7040898590, "lat": 41.3799725, "lon": 2.1801437, "tags": {"amenity": "bar", "name": "bar Celia pulperia"}}, {"type": "node", "id": 7040898592, "lat": 41.3813764, "lon": 2.1796144, "tags": {"amenity": "bar", "name": "la maison"}}, {"type": "node", "id": 7239581485, "lat": 41.3906484, "lon": 2.1603919, "tags": {"addr:housenumber": "215", "addr:street": "Carrer de Val\u00e8ncia", "amenity": "bar", "cuisine": "local", "name": "San Ferm\u00edn", "opening_hours": "Mo-Fr 07:10-19:00; Su 09:15-16:00", "phone": "+34934537586"}}, {"type": "node", "id": 7572733712, "lat": 41.3957533, "lon": 2.1819773, "tags": {"amenity": "bar", "name": "las 4Estaciones"}}, {"type": "node", "id": 7847211885, "lat": 41.3927616, "lon": 2.1659528, "tags": {"amenity": "bar", "name": "CocoVail - WINGS"}}, {"type": "node", "id": 7997561910, "lat": 41.3765747, "lon": 2.1625262, "tags": {"amenity": "bar", "check_date": "2024-11-02", "name": "Bodega Vinito"}}, {"type": "node", "id": 7999446187, "lat": 41.3824905, "lon": 2.1657495, "tags": {"addr:housenumber": "37", "addr:postcode": "08001", "addr:street": "Carrer de Joaqu\u00edn Costa", "amenity": "bar", "name": "Santa Maria", "opening_hours": "Mo-Su 18:00-02:00"}}, {"type": "node", "id": 8257528854, "lat": 41.3837436, "lon": 2.1826835, "tags": {"amenity": "bar", "check_date": "2023-10-29", "description": "Milano Cocktail", "name": "Etniko", "opening_hours": "Fr,Sa 18:00-03:00; Su-Th 18:00-02:30"}}, {"type": "node", "id": 8418732865, "lat": 41.3894776, "lon": 2.1633571, "tags": {"addr:housenumber": "319", "addr:street": "Carrer del Consell de Cent", "amenity": "bar", "name": "Verdis.co"}}, {"type": "node", "id": 8433021718, "lat": 41.380344, "lon": 2.1794211, "tags": {"amenity": "bar", "name": "Las Cuevas de Los Rajahs", "opening_hours": "19:00-03:00"}}, {"type": "node", "id": 8765272511, "lat": 41.3832276, "lon": 2.1683303, "tags": {"addr:city": "Barcelona", "addr:housenumber": "16", "addr:postcode": "08001", "addr:street": "Carrer d'Elisabets", "amenity": "bar", "cuisine": "tapas", "name": "Bar La Masia", "opening_hours": "Mo-Sa 11:00-23:00", "phone": "+34931279618"}}, {"type": "node", "id": 8820822619, "lat": 41.383759, "lon": 2.1831303, "tags": {"addr:housenumber": "4", "addr:street": "Pla\u00e7a de les Olles", "amenity": "bar", "name": "Mariposa Negra Bar"}}, {"type": "node", "id": 8852227417, "lat": 41.395171, "lon": 2.1590514, "tags": {"amenity": "bar", "name": "Sintonia"}}, {"type": "node", "id": 8969115338, "lat": 41.3815531, "lon": 2.1669188, "tags": {"addr:housenumber": "12", "addr:street": "Carrer de Joaqu\u00edn Costa", "amenity": "bar", "name": "Carnal"}}, {"type": "node", "id": 8999571617, "lat": 41.3852677, "lon": 2.1805362, "tags": {"addr:housenumber": "14", "addr:postcode": "08003", "addr:street": "Carrer de la Princesa", "amenity": "bar", "name": "Bar Brutal", "opening_hours": "Mo, We-Th 19:00-00:30; Fr-Su 13:00-00:30"}}, {"type": "node", "id": 9084455138, "lat": 41.3848268, "lon": 2.1826899, "tags": {"amenity": "bar", "cocktails": "yes", "name": "El Copet\u00edn"}}, {"type": "node", "id": 9097644801, "lat": 41.3842445, "lon": 2.1697428, "tags": {"addr:city": "Barcelona", "addr:housenumber": "3", "addr:street": "Carrer de les Sitges", "amenity": "bar", "description": "Whisky & Cocktails in Barcelona Since 1969", "name": "La Whiskeria", "outdoor_seating": "no", "website": "http://lawhiskeria.es/"}}, {"type": "node", "id": 9135044518, "lat": 41.3792566, "lon": 2.169167, "tags": {"amenity": "bar", "name": "Atlanta Club Social"}}, {"type": "node", "id": 9194445315, "lat": 41.38264, "lon": 2.1656158, "tags": {"addr:street": "Carrer de Joaqu\u00edn Costa", "amenity": "bar", "name": "Pantera Mambo"}}, {"type": "node", "id": 9230750652, "lat": 41.3936062, "lon": 2.1766939, "tags": {"amenity": "bar", "name": "local"}}, {"type": "node", "id": 9230934874, "lat": 41.3905009, "lon": 2.1801937, "tags": {"amenity": "bar", "check_date": "2023-10-10", "name": "Rec Comtal", "name:ca": "Rec Comtal"}}, {"type": "node", "id": 9230934875, "lat": 41.3897936, "lon": 2.1806881, "tags": {"amenity": "bar", "name": "65 Degrees"}}, {"type": "node", "id": 9233143096, "lat": 41.3760082, "lon": 2.1828893, "tags": {"amenity": "bar", "name": "rebeld"}}, {"type": "node", "id": 9233214239, "lat": 41.3812693, "lon": 2.1825324, "tags": {"amenity": "bar", "check_date": "2023-10-14", "name": "Porch"}}, {"type": "node", "id": 9233337805, "lat": 41.3869718, "lon": 2.1810871, "tags": {"amenity": "bar", "name": "La Cholita Del Born", "website": "https://cholitadelborn.blogspot.com"}}, {"type": "node", "id": 9236150781, "lat": 41.3886595, "lon": 2.1806213, "tags": {"amenity": "bar", "check_date": "2024-09-21", "name": "Festin"}}, {"type": "node", "id": 9237835818, "lat": 41.3808319, "lon": 2.1635876, "tags": {"amenity": "bar", "check_date": "2025-03-17", "check_date:opening_hours": "2025-03-17", "name": "Via Galicia", "opening_hours": "Mo-Su 08:00-02:30"}}, {"type": "node", "id": 9241570026, "lat": 41.3864298, "lon": 2.1825466, "tags": {"amenity": "bar", "name": "M1"}}, {"type": "node", "id": 9576304317, "lat": 41.3781355, "lon": 2.1755733, "tags": {"addr:housenumber": "19", "addr:street": "La Rambla", "amenity": "bar", "name": "Maison close"}}, {"type": "node", "id": 9576316617, "lat": 41.3819102, "lon": 2.1633582, "tags": {"addr:housenumber": "59", "addr:street": "Carrer de Casanova", "amenity": "bar", "name": "Bar bordel"}}, {"type": "node", "id": 9588489317, "lat": 41.3778943, "lon": 2.1718041, "tags": {"addr:housenumber": "33", "addr:street": "Carrer del Marqu\u00e8s de Barber\u00e0", "amenity": "bar", "name": "Las Marinas"}}, {"type": "node", "id": 9796948717, "lat": 41.3820819, "lon": 2.1875157, "tags": {"amenity": "bar", "name": "Bar Fanny"}}, {"type": "node", "id": 10008275818, "lat": 41.3808865, "lon": 2.1791969, "tags": {"amenity": "bar", "name:en": "bar 18"}}, {"type": "node", "id": 10118537517, "lat": 41.3939461, "lon": 2.1787407, "tags": {"amenity": "bar", "name": "Bescuit"}}, {"type": "node", "id": 10169352800, "lat": 41.3891366, "lon": 2.1796504, "tags": {"addr:city": "Barcelona", "addr:housenumber": "2", "addr:postcode": "08003", "addr:street": "Carrer del Rec Comtal", "amenity": "bar", "cuisine": "spanish", "name": "Quillo", "opening_hours": "12:00-01:00", "phone": "+34 931 383 130", "website": "https://quillo-bar.com", "wheelchair": "limited"}}, {"type": "node", "id": 10171074275, "lat": 41.3898237, "lon": 2.1805681, "tags": {"amenity": "bar", "name": "Torres", "name:ca": "Torres"}}, {"type": "node", "id": 10171120677, "lat": 41.3842331, "lon": 2.1840596, "tags": {"amenity": "bar", "name": "Bronzo"}}, {"type": "node", "id": 10174431691, "lat": 41.3870993, "lon": 2.1799242, "tags": {"amenity": "bar", "cuisine": "italian", "name": "Zero Nove Cinque"}}, {"type": "node", "id": 10176586129, "lat": 41.3824601, "lon": 2.1743591, "tags": {"amenity": "bar", "name": "Bar Mono"}}, {"type": "node", "id": 10177244834, "lat": 41.3861463, "lon": 2.1799556, "tags": {"amenity": "bar", "name": "Piel de Gallina"}}, {"type": "node", "id": 10178145293, "lat": 41.3828093, "lon": 2.1664756, "tags": {"amenity": "bar", "indoor_seating": "yes", "name": "MACBA", "name:ca": "MACBA", "outdoor_seating": "yes", "wheelchair": "no"}}, {"type": "node", "id": 10181211974, "lat": 41.3908805, "lon": 2.1783965, "tags": {"amenity": "bar", "name": "Mariona"}}, {"type": "node", "id": 10181211975, "lat": 41.3908292, "lon": 2.1782443, "tags": {"amenity": "bar", "name": "Baozi Bar"}}, {"type": "node", "id": 10225441781, "lat": 41.3743758, "lon": 2.1673941, "tags": {"addr:city": "Barcelona", "addr:housenumber": "3", "addr:postcode": "08004", "addr:street": "Carrer del Roser", "amenity": "bar", "check_date:currency:XBT": "2022-11-29", "currency:XBT": "yes", "email": "Radionossafam@gmail.com", "name": "Radio Nossa", "payment:lightning": "yes", "payment:lightning_contactless": "no", "payment:onchain": "no", "phone": "+34 675 103 073", "website": "https://radionossa.com"}}, {"type": "node", "id": 10243372710, "lat": 41.379207, "lon": 2.1729736, "tags": {"amenity": "bar", "name": "Bodega Valls"}}, {"type": "node", "id": 10287678246, "lat": 41.3831319, "lon": 2.1808369, "tags": {"amenity": "bar", "name": "Teranga"}}, {"type": "node", "id": 10557306810, "lat": 41.3824953, "lon": 2.1659078, "tags": {"addr:housenumber": "36", "addr:street": "Carrer de Joaqu\u00edn Costa", "amenity": "bar", "name": "Lucky Schmuck"}}, {"type": "node", "id": 10712915305, "lat": 41.386245, "lon": 2.1590499, "tags": {"addr:postcode": "08011", "amenity": "bar", "name": "La Sastrer\u00eda Caf\u00e9", "opening_hours": "Mo-We 17:00-02:00; Th-Fr 17:00-03:00; Sa 16:00-03:00; Su 15:00-03:00"}}, {"type": "node", "id": 10721064807, "lat": 41.3893117, "lon": 2.1708667, "tags": {"addr:housenumber": "22", "addr:street": "Carrer de Casp", "amenity": "bar", "contact:facebook": "bonavidabar", "cuisine": "coffee_shop;tapas", "email": "info@bonavidabcn.com", "name": "Bonavida", "outdoor_seating": "yes", "phone": "+34 605 55 73 23", "toilets": "yes", "website": "https://www.bonavidabcn.com/"}}, {"type": "node", "id": 10725900581, "lat": 41.3879388, "lon": 2.1617272, "tags": {"amenity": "bar", "name": "Espit Chupitos", "website": "https://www.espitchupitos.com"}}, {"type": "node", "id": 10785206630, "lat": 41.3947399, "lon": 2.1816521, "tags": {"amenity": "bar", "name": "La Llesca"}}, {"type": "node", "id": 10785247110, "lat": 41.3936986, "lon": 2.1789779, "tags": {"amenity": "bar", "name": "Bescuit"}}, {"type": "node", "id": 10805454505, "lat": 41.3781187, "lon": 2.1731479, "tags": {"addr:housenumber": "34", "addr:postcode": "08001", "addr:street": "Carrer Nou de la Rambla", "amenity": "bar", "contact:instagram": "londonbarbcn", "name:en": "London Bar", "opening_hours": "Su-Th 19:00-02:30; Fr-Sa 19:00-03:00", "phone": "938 08 21 87", "website": "https://londonbar-bar.negocio.site/", "wikidata": "Q24341148", "wikimedia_commons": "Category:London Bar", "wikipedia": "ca:London Bar"}}, {"type": "node", "id": 10834224105, "lat": 41.388072, "lon": 2.1672595, "tags": {"addr:housenumber": "15", "addr:street": "Rambla de Catalunya", "amenity": "bar", "name": "Belbo dos besos", "opening_hours": "Mo-Su 13:00-23:00"}}, {"type": "node", "id": 10855981515, "lat": 41.3925304, "lon": 2.1701036, "tags": {"addr:housenumber": "286", "addr:postcode": "08009", "addr:street": "Carrer de la Diputaci\u00f3", "amenity": "bar", "contact:facebook": "borobarbcn", "contact:instagram": "borobarbcn", "email": "info@borobar.es", "name": "Boro Bar", "phone": "+34 933 17 57 05", "website": "https://www.borobar.es/"}}, {"type": "node", "id": 10858536757, "lat": 41.3909785, "lon": 2.1602158, "tags": {"addr:city": "Barcelona", "addr:street": "Carrer de Balmes", "amenity": "bar", "live_music": "yes", "name": "New Fizz"}}, {"type": "node", "id": 11032312992, "lat": 41.3751894, "lon": 2.1645755, "tags": {"addr:street": "Avinguda del Paral\u00b7lel", "amenity": "bar", "name": "La nuit cocteler\u00eda"}}, {"type": "node", "id": 11052567962, "lat": 41.378057, "lon": 2.1789373, "tags": {"amenity": "bar", "name": "Gran Torino", "opening_hours": "Mo, Tu 09:00-17:00; We 09:00-00:00; Th 09:00-01:00; Fr, Sa 09:00-02:00"}}, {"type": "node", "id": 11089452500, "lat": 41.3836071, "lon": 2.1690886, "tags": {"amenity": "bar", "name": "Manoda"}}, {"type": "node", "id": 11100962505, "lat": 41.3955024, "lon": 2.1677449, "tags": {"addr:housenumber": "97", "addr:street": "Carrer del Bruc", "amenity": "bar", "name:en": "Bar Dow Jones", "website": "http://Dowjonesbar.com"}}, {"type": "node", "id": 11210192009, "lat": 41.3821716, "lon": 2.1640706, "tags": {"addr:housenumber": "31", "addr:street": "Carrer del Tigre", "amenity": "bar", "contact:instagram": "https://instagram.com/barelpollo", "description": "Cocina tradicional Vasca con influencias de la Pen\u00ednsula Ib\u00e9rica", "name": "El Pollo", "opening_hours": "We, Th 18:30-01:00; Fr-Su 12:30-02:00", "phone": "+34611166276"}}, {"type": "node", "id": 11262978005, "lat": 41.38129, "lon": 2.1831964, "tags": {"amenity": "bar", "check_date": "2023-10-14", "name": "La Cala"}}, {"type": "node", "id": 11301059521, "lat": 41.3797952, "lon": 2.1669738, "tags": {"amenity": "bar", "name": "Big Bang Bar"}}, {"type": "node", "id": 11341627793, "lat": 41.3852192, "lon": 2.1592787, "tags": {"addr:postcode": "08011", "amenity": "bar", "name": "Conese Beer Barcelona", "name:ca": "Conesa Beer Barcelona", "name:en": "Conesa Beer Barcelona", "name:es": "Conesa Beer Barcelona", "website": "https://conesabeerbarcelona.com/"}}, {"type": "node", "id": 11352239769, "lat": 41.3800163, "lon": 2.180179, "tags": {"addr:housenumber": "13", "addr:street": "Carrer de la Merc\u00e8", "amenity": "bar", "name": "Casa del Molinero"}}, {"type": "node", "id": 11358114297, "lat": 41.3932964, "lon": 2.1705787, "tags": {"amenity": "bar", "name": "Adlivitum", "opening_hours": "Mo-Fr 09:30-23:00"}}, {"type": "node", "id": 11358377944, "lat": 41.3937062, "lon": 2.1693831, "tags": {"amenity": "bar", "check_date": "2024-05-04", "name": "Animar"}}, {"type": "node", "id": 11359049486, "lat": 41.3844527, "lon": 2.1833081, "tags": {"amenity": "bar", "name": "Lying"}}, {"type": "node", "id": 11425756169, "lat": 41.3858798, "lon": 2.1792822, "tags": {"amenity": "bar"}}, {"type": "node", "id": 11480713288, "lat": 41.3744178, "lon": 2.1624159, "tags": {"addr:housenumber": "53", "addr:street": "Carrer de Blai", "amenity": "bar", "name": "Denassus", "opening_hours": "Fr, Sa 13:00-00:00; Tu-Th, Su 13:00-23:00", "website": "https://www.denassus.com/"}}, {"type": "node", "id": 11525759569, "lat": 41.383295, "lon": 2.1813087, "tags": {"amenity": "bar", "name": "Flip\u00e1 Gin", "name:es": "Flip\u00e1 Gin"}}, {"type": "node", "id": 11555082324, "lat": 41.3789569, "lon": 2.1750386, "tags": {"amenity": "bar", "name": "The Old Irish Pub"}}, {"type": "node", "id": 11684957082, "lat": 41.3893009, "lon": 2.1630481, "tags": {"amenity": "bar", "check_date": "2025-02-07", "name": "Bar Stop"}}, {"type": "node", "id": 11684957083, "lat": 41.3893019, "lon": 2.162955, "tags": {"amenity": "bar", "check_date": "2025-02-07", "name": "Pink Corner"}}, {"type": "node", "id": 11881557269, "lat": 41.3917652, "lon": 2.1737085, "tags": {"amenity": "bar", "name": "La Whiskeria"}}, {"type": "node", "id": 11940248363, "lat": 41.385687, "lon": 2.1816538, "tags": {"amenity": "bar", "name": "Bubita Sangria Bar", "opening_hours": "Su-Th 10:00-23:00, Fr,Sa 10:00-24:00"}}, {"type": "node", "id": 11945518362, "lat": 41.3902648, "lon": 2.1611361, "tags": {"addr:housenumber": "69", "addr:street": "Carrer de Balmes", "amenity": "bar", "check_date": "2024-05-30", "name": "Carita Bonita"}}, {"type": "node", "id": 11964992970, "lat": 41.3842823, "lon": 2.1800016, "tags": {"addr:housenumber": "8", "addr:postcode": "08003", "addr:street": "Carrer dels Vigatans", "amenity": "bar", "name": "Animal del Vi"}}, {"type": "node", "id": 11978457507, "lat": 41.3877438, "lon": 2.1610458, "tags": {"amenity": "bar", "name": "El Classic"}}, {"type": "node", "id": 11978457509, "lat": 41.3876718, "lon": 2.1609609, "tags": {"amenity": "bar", "name": "Priscilla Caf\u00e8"}}, {"type": "node", "id": 12031405360, "lat": 41.3858082, "lon": 2.1815212, "tags": {"amenity": "bar", "name": "Bar Bodega Flassaders"}}, {"type": "node", "id": 12064891611, "lat": 41.3845406, "lon": 2.1824839, "tags": {"addr:housenumber": "13", "addr:street": "Passeig del Born", "alt_name": "Club Sauvage", "amenity": "bar", "capacity": "75", "check_date": "2024-07-20", "email": "bs@barsauvage.com", "name": "Bar Sauvage", "opening_hours": "Mo-Th,Su 20:00-03:00; Fr-Sa 19:00-03:30", "phone": "+34 938 32 51 84", "website": "https://www.barsauvage.com"}}, {"type": "node", "id": 12069703462, "lat": 41.3854345, "lon": 2.1786214, "tags": {"addr:city": "Barcelona", "addr:housenumber": "2", "addr:postcode": "08003", "addr:street": "Pla\u00e7a de Santa Caterina", "amenity": "bar", "cuisine": "mediterranean;local", "name": "Lupara", "opening_hours": "Tu-Sa 10:00-01:00, Sun 12:00-18:00"}}, {"type": "node", "id": 12069715583, "lat": 41.3854153, "lon": 2.1787973, "tags": {"addr:city": "Barcelona", "addr:housenumber": "1", "addr:postcode": "08003", "addr:street": "Pla\u00e7a de Santa Caterina", "air_conditioning": "yes", "amenity": "bar", "cuisine": "mediterranean;local", "description": "Cocktail bar with authentic food in the heart of Barcelona. We blend the art of mixology with the warmth of friendly, but top-tier service, ensuring every visit is memorable. Our menu is not your usual tapas - more elaborate and with our twist.", "email": "mail@magma.barcelona", "internet_access": "wlan", "name": "Magma Bar", "opening_hours": "Tu-Sa 18:00-02:30", "phone": "+34645960430", "website": "https://magma.barcelona/"}}, {"type": "node", "id": 12118365701, "lat": 41.3757857, "lon": 2.1622698, "tags": {"addr:housenumber": "17", "addr:street": "Carrer de Viladomat", "amenity": "bar", "name": "Bitter"}}, {"type": "node", "id": 12118391602, "lat": 41.3825553, "lon": 2.1815383, "tags": {"addr:housenumber": "4", "addr:street": "Carrer dels Consellers", "amenity": "bar", "name": "Collage Cocktail Bar"}}, {"type": "node", "id": 12200399501, "lat": 41.3749476, "lon": 2.1819379, "tags": {"amenity": "bar", "name": "Paradiso - Time Out Market"}}, {"type": "node", "id": 12373326001, "lat": 41.3766244, "lon": 2.1630259, "tags": {"amenity": "bar", "contact:city": "Barcelona", "contact:housenumber": "36", "contact:phone": "+34 911 67 09 05", "contact:postcode": "8015", "contact:street": "Carrer Del Parlament", "name": "Cristis Cocktail Bar", "website": "https://www.privateaser.es/local/51142-Cristis-cocktail-bar"}}, {"type": "node", "id": 12373442124, "lat": 41.3774478, "lon": 2.1753125, "tags": {"amenity": "bar", "contact:city": "Barcelona", "contact:housenumber": "2", "contact:phone": "+34 910 78 06 65", "contact:postcode": "8001", "contact:street": "Calle de Santa M\u00f3nica", "name": "WILD ROVER", "website": "https://www.privateaser.es/local/50062-wild-rover-bar"}}, {"type": "way", "id": 136527051, "nodes": [1497569360, 1497569361, 1497569350, 1497569348, 1497569346, 1497569360], "tags": {"amenity": "bar", "building": "yes", "name": "Quiosc-bar Ciutadella Cascades", "name:ca": "Quiosc-bar Ciutadella Cascades"}}, {"type": "way", "id": 306577676, "nodes": [3115377555, 6286303537, 6286303568, 3115377558, 3115377557, 3115377554, 3115377555], "tags": {"amenity": "bar", "name": "Banker's Bar", "operator": "Mandarin Oriental", "source": "Survey of 2014-08-01"}}]}