{"version": 0.6, "generator": "Overpass API 0.7.62.5 1bd436f1", "osm3s": {"timestamp_osm_base": "2025-03-24T01:20:57Z", "copyright": "The data included in this document is from www.openstreetmap.org. The data is made available under ODbL."}, "elements": [{"type": "node", "id": 216330105, "lat": 41.3857962, "lon": 2.1748362, "tags": {"amenity": "bar", "name": "Cala del Vermouth"}}, {"type": "node", "id": 588002549, "lat": 41.4018928, "lon": 2.1619419, "tags": {"amenity": "bar", "check_date": "2024-07-03", "name": "La Cigale"}}, {"type": "node", "id": 588012926, "lat": 41.4019257, "lon": 2.1616543, "tags": {"addr:postcode": "08012", "addr:street": "Carrer de Mil\u00e0 i Fontanals", "amenity": "bar", "check_date": "2024-10-22", "contact:instagram": "lafourmibarcelona", "level": "0", "name": "La Fourmi", "payment:cash": "yes", "payment:credit_cards": "yes", "payment:debit_cards": "yes", "wheelchair": "yes"}}, {"type": "node", "id": 648459390, "lat": 41.3830486, "lon": 2.178292, "tags": {"addr:housenumber": "20", "addr:postcode": "08002", "addr:street": "Carrer de la Dagueria", "amenity": "bar", "name": "Zim", "opening_hours": "Mo-Su 18:00-23:00"}}, {"type": "node", "id": 672763035, "lat": 41.3846643, "lon": 2.1702706, "tags": {"amenity": "bar", "name": "Boadas"}}, {"type": "node", "id": 775644927, "lat": 41.380488, "lon": 2.1647648, "tags": {"addr:city": "Barcelona", "addr:country": "ES", "addr:housenumber": "40", "addr:postcode": "08001", "addr:street": "Carrer de la Riera Alta", "amenity": "bar", "name": "La Pen\u00faltima"}}, {"type": "node", "id": 818891229, "lat": 41.381599, "lon": 2.1744854, "tags": {"addr:housenumber": "27", "addr:street": "Carrer de la Boqueria", "amenity": "bar", "internet_access": "wlan", "internet_access:access": "customers", "internet_access:fee": "no", "name": "Travel Bar"}}, {"type": "node", "id": 824465388, "lat": 41.3754806, "lon": 2.1678977, "tags": {"amenity": "bar", "name": "La Confiteria", "website": "http://confiteria.cat/", "wikidata": "Q47170821", "wikimedia_commons": "Category:La Confiteria (Barcelona)", "wikipedia": "ca:La Confiteria (Barcelona)"}}, {"type": "node", "id": 827585077, "lat": 41.3830229, "lon": 2.1706642, "tags": {"addr:city": "Barcelona", "addr:housenumber": "7", "addr:postcode": "08001", "addr:street": "Carrer d'en Xucl\u00e0", "amenity": "bar", "drink:club-mate": "yes", "name": "Bar Mirinda"}}, {"type": "node", "id": 1050141036, "lat": 41.4037112, "lon": 2.1620046, "tags": {"addr:city": "Barcelona", "addr:housenumber": "244", "addr:postcode": "08037", "addr:street": "Carrer de Bailen", "amenity": "bar", "cuisine": "tapas", "email": "pinneos1935@telefonica.net", "name": "Pirineus 1935 Bar & Cuina", "name:ca": "Pirineus 1935 Bar & Cuina", "opening_hours": "Mo-Su 07:00-02:30", "source": "survey"}}, {"type": "node", "id": 1050141054, "lat": 41.402144, "lon": 2.1579689, "tags": {"addr:city": "Barcelona", "addr:housenumber": "12", "addr:street": "Carrer de Ram\u00f3n y Cajal", "amenity": "bar", "name": "La llavor dels origens"}}, {"type": "node", "id": 1082354548, "lat": 41.3798943, "lon": 2.17677, "tags": {"amenity": "bar", "name": "Cerveceria El Tequila"}}, {"type": "node", "id": 1264178428, "lat": 41.3798228, "lon": 2.1641449, "tags": {"addr:housenumber": "2", "addr:street": "Requesens", "amenity": "bar", "name": "Jazz S\u00ed Club", "website": "https://tallerdemusics.com/jazzsi-club/"}}, {"type": "node", "id": 1305366218, "lat": 41.393729, "lon": 2.149521, "tags": {"addr:street": "Diagonal", "amenity": "bar", "name": "Bar Teo", "outdoor_seating": "yes", "toilets:wheelchair": "no", "wheelchair": "no"}}, {"type": "node", "id": 1314941021, "lat": 41.4027501, "lon": 2.1564138, "tags": {"addr:housenumber": "121", "addr:postcode": "08012", "addr:street": "Carrer del Torrent de l'Olla", "amenity": "bar", "drink:club-mate": "served", "name": "la Clotxa"}}, {"type": "node", "id": 1314943380, "lat": 41.3870865, "lon": 2.1803497, "tags": {"addr:city": "Barcelona", "addr:housenumber": "35", "addr:postcode": "08003", "addr:street": "Carrer dels Carders", "air_conditioning": "no", "alt_name": "Espai Mescladis", "amenity": "bar", "brewery": "yes", "check_date": "2023-10-29", "contact:facebook": "espaimescladis", "contact:instagram": "https://www.instagram.com/espaismescladis", "drink:club-mate": "served", "email": "info@mescladis.org", "internet_access": "wlan", "internet_access:fee": "no", "internet_access:ssid": "Mescladis", "name": "Mesclad\u00eds del Pou", "opening_hours": "Mo-Fr 13:00-21:00; Sa,Su 11:00-21:00", "outdoor_seating": "yes", "payment:cash": "yes", "payment:mastercard": "yes", "payment:visa": "yes", "phone": "+34 933198732", "website": "https://www.mescladis.org/", "wheelchair": "yes"}}, {"type": "node", "id": 1357211198, "lat": 41.4036871, "lon": 2.1577264, "tags": {"amenity": "bar", "name": "Ikastola", "toilets:wheelchair": "no", "wheelchair": "limited"}}, {"type": "node", "id": 1368518046, "lat": 41.4043193, "lon": 2.1602354, "tags": {"amenity": "bar", "check_date": "2024-11-05", "name": "L'Oficina II", "wheelchair": "limited"}}, {"type": "node", "id": 1368518225, "lat": 41.4006626, "lon": 2.1591814, "tags": {"addr:housenumber": "74", "addr:street": "Carrer del Torrent de l'Olla", "amenity": "bar", "check_date": "2024-02-22", "name": "Bar Gracia's", "name:en": "Bar Gracia's", "name:es": "Bar Gracia's", "smoking": "outside", "wheelchair": "no"}}, {"type": "node", "id": 1368518960, "lat": 41.4014685, "lon": 2.1578742, "tags": {"amenity": "bar", "check_date": "2024-02-22", "name": "El Otro Bar", "wheelchair": "no"}}, {"type": "node", "id": 1377225928, "lat": 41.4055038, "lon": 2.160265, "tags": {"addr:housenumber": "47", "addr:street": "Carrer de Sant Llu\u00eds", "amenity": "bar", "check_date": "2023-10-16", "contact:facebook": "https://m.facebook.com/GatoNegro.BCN/?locale2=es_LA", "name": "Gat Negre", "name:ca": "Gat Negre", "name:es": "Gato Negro"}}, {"type": "node", "id": 1420760619, "lat": 41.4033419, "lon": 2.1534796, "tags": {"addr:city": "Barcelona", "addr:housenumber": "14", "addr:street": "Carrer de Santa Rosa", "amenity": "bar", "name": "\u00cdtaca", "name:ca": "\u00cdtaca"}}, {"type": "node", "id": 1420760630, "lat": 41.4042174, "lon": 2.1555899, "tags": {"addr:city": "Barcelona", "addr:housenumber": "67", "addr:street": "Carrer d'Ast\u00faries", "amenity": "bar", "check_date": "2023-05-01", "indoor_seating": "yes", "name": "Diamant", "outdoor_seating": "yes", "smoking": "outside", "wheelchair": "no"}}, {"type": "node", "id": 1428867664, "lat": 41.3943566, "lon": 2.1494599, "tags": {"addr:city": "Barcelona", "addr:housenumber": "240", "addr:postcode": "08021", "addr:street": "Carrer de Muntaner", "amenity": "bar", "email": "cafeberlinbcn@gmail.com", "name": "Caf\u00e9 Berlin", "outdoor_seating": "yes", "phone": "+34 932 006 542", "website": "http://cafeberlinbarcelona.com/"}}, {"type": "node", "id": 1445594488, "lat": 41.3972642, "lon": 2.1810241, "tags": {"amenity": "bar", "name": "Bar Teatre", "source": "Trabajo de campo"}}, {"type": "node", "id": 1445598554, "lat": 41.3954743, "lon": 2.1819512, "tags": {"amenity": "bar", "name": "Bar Lugo", "source": "Trabajo de campo"}}, {"type": "node", "id": 1445598555, "lat": 41.3974156, "lon": 2.1815331, "tags": {"amenity": "bar", "name": "Bar Norte", "source": "Trabajo de campo"}}, {"type": "node", "id": 1445598556, "lat": 41.3955442, "lon": 2.1810719, "tags": {"amenity": "bar", "name": "Bar Territori", "source": "Trabajo de campo"}}, {"type": "node", "id": 1445598558, "lat": 41.3971799, "lon": 2.1817149, "tags": {"amenity": "bar", "name": "La Catrina", "phone": "+34935308087", "source": "Trabajo de campo"}}, {"type": "node", "id": 1445598561, "lat": 41.3955456, "lon": 2.181968, "tags": {"addr:housenumber": "35", "addr:postcode": "08013", "addr:street": "Carrer de Ribes", "amenity": "bar", "check_date": "2024-11-11", "email": "info@contracorrentbar.com", "name": "Contracorrent", "opening_hours": "Mo,Th 17:30-23:00; Fr-Su 12:30-16:30,19:00-23:00", "outdoor_seating": "yes", "phone": "+34 608865917", "website": "https://contracorrentbar.com/"}}, {"type": "node", "id": 1457557311, "lat": 41.4040098, "lon": 2.1753482}, {"type": "node", "id": 1457557312, "lat": 41.4040364, "lon": 2.1753376}, {"type": "node", "id": 1457557313, "lat": 41.4040385, "lon": 2.1754764}, {"type": "node", "id": 1457557314, "lat": 41.4040651, "lon": 2.1754658}, {"type": "node", "id": 1471967102, "lat": 41.4020873, "lon": 2.1569124, "tags": {"amenity": "bar", "name": "Entresol"}}, {"type": "node", "id": 1497569346, "lat": 41.3890209, "lon": 2.1865838}, {"type": "node", "id": 1497569348, "lat": 41.3890338, "lon": 2.1866325}, {"type": "node", "id": 1497569350, "lat": 41.3890433, "lon": 2.1866683}, {"type": "node", "id": 1497569360, "lat": 41.3890624, "lon": 2.1865643}, {"type": "node", "id": 1497569361, "lat": 41.3890848, "lon": 2.1866488}, {"type": "node", "id": 1497595784, "lat": 41.3857384, "lon": 2.1736392, "tags": {"addr:city": "Barcelona", "addr:housenumber": "3", "addr:postcode": "08002", "addr:street": "Carrer de Montsi\u00f3", "amenity": "bar", "email": "4gats@4gats.com", "name": "4Gats", "name:ca": "Els Quatre Gats", "name:en": "Els Quatre Gats", "name:ru": "\u041a\u0430\u0444\u0435 4 \u043a\u043e\u0442\u0430", "name:zh": "\u56db\u96bb\u8c93 \u5496\u5561\u9928", "old_name": "Els Quatre Gats", "opening_hours": "Tu 11:00-17:00; We-Fr 11:00-24:00; Sa 12:00-00:00; Su 12:00-17:00", "phone": "+34 933024140", "toilets:wheelchair": "no", "website": "https://www.4gats.com/", "wheelchair": "limited", "wikidata": "Q1333395", "wikimedia_commons": "Category:Els Quatre Gats", "wikipedia": "ca:Els Quatre Gats"}}, {"type": "node", "id": 1517875857, "lat": 41.3983766, "lon": 2.1678633, "tags": {"addr:housenumber": "337", "addr:postcode": "08037", "addr:street": "Avinguda Diagonal", "amenity": "bar", "entrance": "yes", "internet_access": "wlan", "internet_access:fee": "no", "name": "San Basilio BCN", "was:email": "lerougebcn@gmail.com", "was:phone": "+34936670473", "was:website": "http://pixelhub.me/lerouge"}}, {"type": "node", "id": 1526164858, "lat": 41.3819082, "lon": 2.1653476, "tags": {"addr:city": "Barcelona", "addr:housenumber": "24", "addr:street": "Carrer de Ferlandina", "amenity": "bar", "internet_access": "wlan", "internet_access:fee": "no", "name": "Bar Fidel", "website": "http://bar-fidel.com/"}}, {"type": "node", "id": 1563677788, "lat": 41.4060496, "lon": 2.1651571, "tags": {"amenity": "bar", "check_date": "2024-03-11", "name": "Galeno", "opening_hours": "We-Mo 07:00-22:00", "wheelchair": "limited"}}, {"type": "node", "id": 1595440421, "lat": 41.3816466, "lon": 2.1881927, "tags": {"addr:housenumber": "13", "addr:postcode": "08003", "addr:street": "Ginebra", "amenity": "bar", "name": "Bar Jai-Ca Barceloneta", "website": "http://guiadigital.barcelonetapladebarris.cat/markets/view/bar-jai-ca"}}, {"type": "node", "id": 1610664827, "lat": 41.4005832, "lon": 2.1496097, "tags": {"amenity": "bar", "internet_access": "wlan", "name": "El Quinto Pino"}}, {"type": "node", "id": 1867973794, "lat": 41.3875681, "lon": 2.1811672, "tags": {"amenity": "bar", "name": "Bar del Convent"}}, {"type": "node", "id": 1886635513, "lat": 41.3927554, "lon": 2.1564351, "tags": {"addr:city": "Barcelona", "addr:country": "ES", "addr:postcode": "08008", "addr:street": "Carrer del Rossell\u00f3", "amenity": "bar", "name": "Caf\u00e9 Bar R-207"}}, {"type": "node", "id": 1948935061, "lat": 41.3735656, "lon": 2.164687, "tags": {"addr:city": "Barcelona", "addr:country": "ES", "addr:housenumber": "23", "addr:street": "Carrer de Blai", "amenity": "bar", "brewery": "yes", "description": "A nice bar with friendly staff, which serves good and cheap pinchos (1\u20ac/1,20\u20ac)", "food": "yes", "name": "Taverna Blai Tonight", "outdoor_seating": "yes", "smoking": "outside"}}, {"type": "node", "id": 1960248155, "lat": 41.3994885, "lon": 2.165101, "tags": {"addr:city": "Barcelona", "addr:country": "ES", "addr:housenumber": "162", "addr:postcode": "08009", "addr:street": "Carrer de Girona", "amenity": "bar", "check_date": "2023-10-28", "cuisine": "tapas;mediterranean", "entrance": "yes", "food": "yes", "name": "Bar Morryssom", "opening_hours": "Mo-Fr 08:00-01:00; Sa 08:00-18:00", "phone": "+34 934 58 40 17", "smoking": "no", "wheelchair": "no"}}, {"type": "node", "id": 1960258200, "lat": 41.4012594, "lon": 2.1650904, "tags": {"addr:city": "Barcelona", "addr:housenumber": "188", "addr:postcode": "08037", "addr:street": "Carrer de Bail\u00e8n", "amenity": "bar", "check_date": "2024-10-22", "food": "yes", "internet_access": "wlan", "name": "Caf\u00e9 Adonis 1940", "smoking": "no", "wheelchair": "no"}}, {"type": "node", "id": 1982848388, "lat": 41.3896615, "lon": 2.146494, "tags": {"amenity": "bar", "name": "Juan Sebastian Bar"}}, {"type": "node", "id": 2085728733, "lat": 41.3906905, "lon": 2.1983305, "tags": {"amenity": "bar", "name": "Bamb\u00fa Beach Bar"}}, {"type": "node", "id": 2167306946, "lat": 41.3956525, "lon": 2.1459017, "tags": {"amenity": "bar", "name": "Bar Belice"}}, {"type": "node", "id": 2167307268, "lat": 41.3794465, "lon": 2.1507855, "tags": {"amenity": "bar", "name": "Bar Daytona"}}, {"type": "node", "id": 2178210108, "lat": 41.3823021, "lon": 2.1659029, "tags": {"amenity": "bar", "name": "Casa Amirall"}}, {"type": "node", "id": 2187257123, "lat": 41.4047259, "lon": 2.1943414, "tags": {"amenity": "bar", "name": "24 mm"}}, {"type": "node", "id": 2193095338, "lat": 41.40326, "lon": 2.1985353, "tags": {"addr:housenumber": "118", "addr:street": "Rambla de Poblenou", "amenity": "bar", "name": "Beercelona bar"}}, {"type": "node", "id": 2247741140, "lat": 41.3819109, "lon": 2.1767686, "tags": {"addr:housenumber": "2", "addr:postcode": "08002", "addr:street": "Carrer del Pas de l'Ensenyan\u00e7a", "amenity": "bar", "name": "El Paraigua", "source": "+34 933 02 11 31", "website": "https://www.elparaigua.com/"}}, {"type": "node", "id": 2247759627, "lat": 41.3869859, "lon": 2.183849, "tags": {"addr:housenumber": "26", "addr:street": "Passeig de Picasso", "amenity": "bar", "name": "Colombo", "source": "93 310 75 50"}}, {"type": "node", "id": 2247764339, "lat": 41.3823214, "lon": 2.1730348, "tags": {"addr:housenumber": "14", "addr:street": "Carrer Roca", "amenity": "bar", "name": "Blondie Bar", "source": "+34 636 81 55 81"}}, {"type": "node", "id": 2247768611, "lat": 41.3774595, "lon": 2.1735544, "tags": {"addr:housenumber": "11", "addr:street": "Carrer de l'Est", "amenity": "bar", "cuisine": "tapas", "name": "Cassette Bar", "opening_hours": "Fr-Sa 19:00-03:00; Mo-Th 19:00-02:30", "source": "+34 933 02 85 09", "website": "https://myspace.com/cassettebarbarcelona"}}, {"type": "node", "id": 2247795484, "lat": 41.3913626, "lon": 2.1578937, "tags": {"addr:housenumber": "52", "addr:street": "Carrer d'Enric Granados", "amenity": "bar", "name": "Linea 6,25", "source": "+34 934 51 51 25", "website": "http://www.linea625.com/"}}, {"type": "node", "id": 2432073329, "lat": 41.4037055, "lon": 2.1598503, "tags": {"addr:city": "Barcelona", "addr:housenumber": "22", "addr:street": "Carrer del Torrent d'en Vidalet", "amenity": "bar", "check_date": "2024-11-05", "cuisine": "regional;arepa", "diet:vegetarian": "only", "name": "El Rabipelao", "opening_hours": "Tu-Th 19:00-24:00; Fr-Sa 19:00-02:45", "payment:cash": "yes", "payment:credit_cards": "yes", "payment:debit_cards": "yes", "source": "survey", "website": "https://app.resmio.com/el-rabipelao/menu-widget?", "wheelchair": "no"}}, {"type": "node", "id": 2437938859, "lat": 41.3806763, "lon": 2.177069, "tags": {"addr:housenumber": "5", "addr:street": "Carrer de n'Arai", "amenity": "bar", "name": "Oviso", "wheelchair": "yes"}}, {"type": "node", "id": 2457866964, "lat": 41.3797385, "lon": 2.1751538, "tags": {"amenity": "bar", "harassment_prevention": "No Callem", "name": "Los Tarantos", "sexual_antiharassment_policy": "yes", "sexual_antiharassment_policy:name": "NoCallem"}}, {"type": "node", "id": 2465712772, "lat": 41.3806481, "lon": 2.1789874, "tags": {"addr:housenumber": "5", "addr:postcode": "08002", "addr:street": "Carrer de Milans", "amenity": "bar", "name": "Manchester"}}, {"type": "node", "id": 2479390681, "lat": 41.3801499, "lon": 2.1768532, "tags": {"addr:city": "Barcelona", "addr:housenumber": "49", "addr:postcode": "08002", "addr:street": "Carrer dels Escudellers", "amenity": "bar", "name": "Marula Caf\u00e8", "phone": "+34 933 18 76 90", "website": "https://marulacafe.com/", "wheelchair": "yes"}}, {"type": "node", "id": 2498389548, "lat": 41.3866293, "lon": 2.1622576, "tags": {"amenity": "bar", "lgbtq": "welcome", "name": "Belladona", "name:ca": "Belladona"}}, {"type": "node", "id": 2560086461, "lat": 41.3837461, "lon": 2.1630556, "tags": {"amenity": "bar", "name": "Mundo Casero", "name:es": "Mundo Casero", "wheelchair": "no"}}, {"type": "node", "id": 2576974231, "lat": 41.4003824, "lon": 2.1841121, "tags": {"amenity": "bar", "name": "Seneca"}}, {"type": "node", "id": 2628206294, "lat": 41.377316, "lon": 2.1750649, "tags": {"amenity": "bar", "name": "Pastis"}}, {"type": "node", "id": 2650437195, "lat": 41.3860376, "lon": 2.1674444, "tags": {"addr:city": "Barcelona", "addr:housenumber": "3", "addr:postcode": "08002", "addr:street": "Carrer de Bergara", "amenity": "bar", "name": "Belushi's", "website": "https://www.belushis.com/bars/barcelona"}}, {"type": "node", "id": 2652014534, "lat": 41.3895384, "lon": 2.1729617, "tags": {"addr:city": "Barcelona", "addr:country": "ES", "addr:housenumber": "5", "addr:postcode": "08010", "addr:street": "Pla\u00e7a d'Urquinaona", "amenity": "bar", "contact:website": "http://www.thegeorgepayne.com/", "name": "The George Payne", "opening_hours": "Mo-We 13:00-02:00; Th, Su 13:00-02:30; Fr, Sa 13:00-03:00", "wheelchair": "yes"}}, {"type": "node", "id": 2710652088, "lat": 41.3998575, "lon": 2.1620158, "tags": {"addr:city": "Barcelona", "addr:housenumber": "3", "addr:postcode": "08012", "addr:street": "Carrer de Venus", "amenity": "bar", "check_date": "2023-11-01", "contact:instagram": "barfalstaff", "email": "info@barfalstaff.com", "name": "Bar Falstaff", "opening_hours": "Th 20:00-02:30; Fr-Sa 20:00-03:00", "phone": "+34932073924", "smoking": "no", "website": "http://barfalstaff.com/"}}, {"type": "node", "id": 2721077740, "lat": 41.3848861, "lon": 2.1667078, "tags": {"amenity": "bar", "indoor_seating": "yes", "name": "Bar Veni", "old_name": "Mucci's", "outdoor_seating": "yes"}}, {"type": "node", "id": 2737925098, "lat": 41.379349, "lon": 2.190017, "tags": {"addr:city": "Barcelona", "addr:housenumber": "15", "addr:postcode": "08003", "addr:street": "Carrer de Sant Carles", "amenity": "bar", "atm": "no", "food": "yes", "internet_access": "no", "name": "L'Electricitat", "outdoor_seating": "no", "smoking": "no"}}, {"type": "node", "id": 2737971478, "lat": 41.379481, "lon": 2.19093, "tags": {"addr:city": "Barcelona", "addr:housenumber": "34", "addr:postcode": "08003", "addr:street": "Carrer de Sant Carles", "amenity": "bar", "atm": "no", "food": "yes", "internet_access": "no", "name": "Leo", "outdoor_seating": "no", "smoking": "outside"}}, {"type": "node", "id": 2737975897, "lat": 41.37951, "lon": 2.19116, "tags": {"amenity": "bar", "food": "yes", "name": "Absenta", "outdoor_seating": "yes", "smoking": "outside"}}, {"type": "node", "id": 2821566629, "lat": 41.3813306, "lon": 2.1801063, "tags": {"addr:housenumber": "21", "addr:postcode": "08002", "addr:street": "Carrer d'en Gign\u00e0s", "amenity": "bar", "contact:website": "http://milkbarcelona.com/", "cuisine": "spanish", "internet_access": "wlan", "name": "Milk", "name:en": "Milk Bar & Bistro"}}, {"type": "node", "id": 2848210517, "lat": 41.3842949, "lon": 2.1827139, "tags": {"addr:city": "Barcelona", "addr:housenumber": "12", "addr:postcode": "08003", "addr:street": "Passeig del Born", "amenity": "bar", "check_date": "2024-07-20", "cuisine": "french", "email": "crepsalbornbcn@gmail.com", "internet_access": "wlan", "name": "Creps al Born", "name:ca": "Creps al Born", "opening_hours": "Mo-Th 17:30-02:30; Fr 17:30-03:00; Sa 12:00-03:00; Su 12:00-02:30", "phone": "+34 932690325", "website": "https://www.crepsalbornbcn.com/"}}, {"type": "node", "id": 2880793689, "lat": 41.3833249, "lon": 2.1650876, "tags": {"amenity": "bar", "name": "Betty Ford's"}}, {"type": "node", "id": 2885926951, "lat": 41.3770984, "lon": 2.1680653, "tags": {"amenity": "bar", "name": "Makinavaja bar"}}, {"type": "node", "id": 2886033126, "lat": 41.3773354, "lon": 2.1670705, "tags": {"amenity": "bar", "name": "Freedonia"}}, {"type": "node", "id": 2886036696, "lat": 41.3773659, "lon": 2.1674358, "tags": {"amenity": "bar", "name": "Bar Lupita"}}, {"type": "node", "id": 2890108535, "lat": 41.3828225, "lon": 2.1683796, "tags": {"amenity": "bar", "name": "Raval bar", "name:ca": "Raval bar"}}, {"type": "node", "id": 2890111608, "lat": 41.3770172, "lon": 2.168176, "tags": {"amenity": "bar", "name": "La casa de la pradera"}}, {"type": "node", "id": 2890111610, "lat": 41.3844766, "lon": 2.180301, "tags": {"amenity": "bar", "name": "Arena bar"}}, {"type": "node", "id": 2890111611, "lat": 41.3845612, "lon": 2.1799122, "tags": {"amenity": "bar", "name": "Lilipep"}}, {"type": "node", "id": 2890111956, "lat": 41.3828689, "lon": 2.1642557, "tags": {"amenity": "bar", "name": "Sid bar"}}, {"type": "node", "id": 2892028392, "lat": 41.3825502, "lon": 2.16647, "tags": {"addr:housenumber": "27", "addr:street": "Pla\u00e7a dels \u00c0ngels", "amenity": "bar", "name": "Do\u00f1a Rosa", "opening_hours": "Mo-Th 10:30-00:00; Fr 10:30-01:00; Sa 10:00-01:00; Su 10:00-00:00"}}, {"type": "node", "id": 2892028393, "lat": 41.3825992, "lon": 2.1665452, "tags": {"amenity": "bar", "name": "Kino", "smoking": "separated"}}, {"type": "node", "id": 2892037991, "lat": 41.3777666, "lon": 2.1707826, "tags": {"amenity": "bar", "name": "\u00c1mbar", "phone": "+34 628087401", "toilets:wheelchair": "yes", "wheelchair": "yes"}}, {"type": "node", "id": 2892037992, "lat": 41.3779709, "lon": 2.1707303, "tags": {"amenity": "bar", "name": "La Paciencia", "toilets:wheelchair": "no", "wheelchair": "limited"}}, {"type": "node", "id": 2892037993, "lat": 41.3782418, "lon": 2.1712432, "tags": {"addr:city": "Barcelona", "addr:housenumber": "65", "addr:postcode": "08001", "addr:street": "Carrer de Sant Pau", "amenity": "bar", "contact:phone": "+34 934 42 72 63", "name": "Bar Marsella"}}, {"type": "node", "id": 2910251572, "lat": 41.3927442, "lon": 2.1539985, "tags": {"addr:city": "Barcelona", "addr:housenumber": "162", "addr:street": "Carrer d'Aribau", "amenity": "bar", "name": "Dry Martini", "website": "https://www.drymartiniorg.com/locales/dry-martini-v2/"}}, {"type": "node", "id": 2910255826, "lat": 41.3854991, "lon": 2.1969746, "tags": {"addr:city": "Barcelona", "addr:housenumber": "36", "addr:postcode": "08005", "addr:street": "Passeig Mar\u00edtim del Port Ol\u00edmpic", "amenity": "bar", "check_date": "2023-09-28", "indoor_seating": "yes", "name": "Sh\u00f4ko", "name:ca": "Sh\u00f4ko", "name:de": "Sh\u00f4ko", "name:en": "Sh\u00f4ko", "name:es": "Sh\u00f4ko", "outdoor_seating": "yes", "website": "https://shoko.biz/"}}, {"type": "node", "id": 2910255827, "lat": 41.3852778, "lon": 2.1967099, "tags": {"addr:city": "Barcelona", "addr:housenumber": "34", "addr:postcode": "08003", "addr:street": "Passeig Mar\u00edtim de la Barceloneta", "amenity": "bar", "check_date": "2023-09-28", "indoor_seating": "yes", "name": "Opium", "name:en": "Opium", "outdoor_seating": "yes"}}, {"type": "node", "id": 2966340931, "lat": 41.4022886, "lon": 2.1998883, "tags": {"addr:housenumber": "100", "addr:street": "Rambla del Poblenou", "amenity": "bar", "indoor_seating": "yes", "name": "El Capritx", "outdoor_seating": "yes"}}, {"type": "node", "id": 2967370350, "lat": 41.4046804, "lon": 2.1608671, "tags": {"addr:housenumber": "17", "addr:street": "Carrer de Joan Blanques", "amenity": "bar", "check_date": "2024-02-09", "contact:facebook": "https://m.facebook.com/VermuteriaTano/", "name": "La Vermuteria del Tano", "name:ca": "La Vermuteria del Tano", "payment:cash": "yes", "payment:mastercard": "yes", "payment:visa": "yes", "wheelchair": "no"}}, {"type": "node", "id": 2968119450, "lat": 41.4040697, "lon": 2.1582935, "tags": {"amenity": "bar", "check_date": "2023-02-19", "check_date:opening_hours": "2023-02-19", "name": "Ch\u00e2telet", "opening_hours:signed": "no"}}, {"type": "node", "id": 2969274952, "lat": 41.402181, "lon": 2.171137, "tags": {"amenity": "bar", "name": "Wiesbaden"}}, {"type": "node", "id": 2969276208, "lat": 41.4018796, "lon": 2.166807, "tags": {"amenity": "bar", "check_date": "2023-04-25", "name": "Cerveseria Oller", "name:ca": "Cerveseria Oller", "smoking": "outside", "wheelchair": "yes"}}, {"type": "node", "id": 2969276707, "lat": 41.4020744, "lon": 2.1709765, "tags": {"amenity": "bar", "name": "Insbruck"}}, {"type": "node", "id": 2969276825, "lat": 41.4010302, "lon": 2.1694115, "tags": {"amenity": "bar", "name": "Toni", "name:ca": "Can Joan"}}, {"type": "node", "id": 2969276827, "lat": 41.4007814, "lon": 2.1693528, "tags": {"amenity": "bar", "name": "Pereira"}}, {"type": "node", "id": 2969277282, "lat": 41.4007106, "lon": 2.1672657, "tags": {"amenity": "bar", "name": "Espai Caf\u00e8", "name:ca": "Espai Caf\u00e8"}}, {"type": "node", "id": 2970751844, "lat": 41.4017728, "lon": 2.1545227, "tags": {"amenity": "bar", "indoor_seating": "yes", "name": "Taverna El Disbarat", "name:ca": "Taverna El Disbarat", "outdoor_seating": "no", "payment:credit_cards": "yes", "payment:debit_cards": "yes", "smoking": "no", "wheelchair": "yes"}}, {"type": "node", "id": 3074796331, "lat": 41.3801259, "lon": 2.1746721, "tags": {"addr:floor": "1st", "addr:housenumber": "3", "addr:street": "Pla\u00e7a Reial", "amenity": "bar", "name": "Barcelona Pipa Club", "opening_hours": "Mo-Su 23:00-04:00", "wikidata": "Q116871788"}}, {"type": "node", "id": 3101487170, "lat": 41.3806296, "lon": 2.167222, "tags": {"addr:city": "Barcelona", "addr:housenumber": "4-6", "addr:postcode": "08001", "addr:street": "Carrer de la Riera Alta", "amenity": "bar", "name": "Marmalade"}}, {"type": "node", "id": 3101523329, "lat": 41.3797882, "lon": 2.1662643, "tags": {"addr:city": "Barcelona", "addr:housenumber": "116", "addr:postcode": "08001", "addr:street": "Carrer del Carme", "amenity": "bar", "name": "Zelig"}}, {"type": "node", "id": 3102465161, "lat": 41.3908513, "lon": 2.1513664, "tags": {"amenity": "bar", "name": "Orlyt"}}, {"type": "node", "id": 3106031830, "lat": 41.3758411, "lon": 2.1660642, "tags": {"amenity": "bar", "contact:email": "barolimpiabarcelona@gmail.com", "cuisine": "tapas", "name": "Bar Olimpia", "smoking": "no", "source": "survey", "wheelchair": "limited"}}, {"type": "node", "id": 3106121029, "lat": 41.3757556, "lon": 2.1659373, "tags": {"amenity": "bar", "diet:vegan": "yes", "diet:vegetarian": "yes", "name": "Jonny Aldana", "source": "survey", "website": "https://www.jonnyaldana.com/"}}, {"type": "node", "id": 3113655119, "lat": 41.3847826, "lon": 2.1592727, "tags": {"amenity": "bar", "lgbtq": "primary", "min_age": "18", "name": "Boxer Bar", "wheelchair": "yes"}}, {"type": "node", "id": 3115377554, "lat": 41.3912898, "lon": 2.1666197}, {"type": "node", "id": 3115377555, "lat": 41.3913362, "lon": 2.1665546}, {"type": "node", "id": 3115377557, "lat": 41.3913481, "lon": 2.1666995}, {"type": "node", "id": 3115377558, "lat": 41.3913967, "lon": 2.1666327}, {"type": "node", "id": 3231375761, "lat": 41.3847242, "lon": 2.1829681, "tags": {"addr:city": "Barcelona", "addr:housenumber": "26", "addr:street": "Passeig del Born", "amenity": "bar", "check_date": "2023-10-29", "name": "el Born", "name:ca": "el Born", "phone": "+34933195333", "website": "https://www.elbornbar.com/"}}, {"type": "node", "id": 3316547465, "lat": 41.3788249, "lon": 2.1583121, "tags": {"amenity": "bar", "name": "Ambiente del Sur"}}, {"type": "node", "id": 3353656154, "lat": 41.3819598, "lon": 2.1687235, "tags": {"amenity": "bar", "name": "Silenus"}}, {"type": "node", "id": 3491476947, "lat": 41.3856036, "lon": 2.1800221, "tags": {"addr:city": "Barcelona", "addr:housenumber": "2", "addr:street": "Carrer de Montcada", "amenity": "bar", "atm": "no", "cuisine": "tapas", "description": "Tapas a bar", "food": "yes", "internet_access": "wlan", "name": "Bar del Pla", "opening_hours": "Mo-Th 12:00-23:00; Fr-Sa 12:00-00:00", "outdoor_seating": "yes", "smoking": "outside", "source": "Local knowledge", "website": "https://www.bardelpla.cat/", "wheelchair": "limited"}}, {"type": "node", "id": 3504769719, "lat": 41.3908977, "lon": 2.1900669, "tags": {"amenity": "bar", "indoor_seating": "yes", "name": "El Rinc\u00f3n", "name:ca": "El Rac\u00f3", "not:brand:wikidata": "Q98456614", "outdoor_seating": "yes"}}, {"type": "node", "id": 3517276245, "lat": 41.4029724, "lon": 2.1579186, "tags": {"addr:city": "Barcelona", "addr:housenumber": "2", "addr:postcode": "08012", "addr:street": "Carrer de Verdi", "amenity": "bar", "indoor_seating": "yes", "name": "Bar Canig\u00f3", "opening_hours": "Mo-Th 10:00-02:00; Fr 10:00-03:00; Sa 20:00-03:00", "outdoor_seating": "no", "phone": "+34 93 213 30 49", "smoking": "no", "website": "http://www.barcanigo.com/", "wheelchair": "limited"}}, {"type": "node", "id": 3688187084, "lat": 41.3816344, "lon": 2.1888164, "tags": {"addr:housenumber": "20", "addr:street": "Carrer de Ginebra", "amenity": "bar", "name": "Chito's Bar", "phone": "+34 932682373"}}, {"type": "node", "id": 3718061014, "lat": 41.3764788, "lon": 2.1623937, "tags": {"addr:housenumber": "25", "addr:street": "Carrer del Parlament", "amenity": "bar", "check_date": "2024-11-02", "name": "Bar Calders", "outdoor_seating": "yes", "wheelchair": "no"}}, {"type": "node", "id": 3768774035, "lat": 41.4027103, "lon": 2.1566077, "tags": {"amenity": "bar", "name": "134", "name:ca": "134"}}, {"type": "node", "id": 3797542358, "lat": 41.379361, "lon": 2.1757821, "tags": {"addr:city": "Barcelona", "addr:housename": "Nou de Zurbano 8", "addr:housenumber": "7", "addr:postcode": "08002", "addr:street": "Nou de Zurbano", "amenity": "bar", "designation": "Cocktail bar and Social Club", "int_name": "Raimon Social Club", "internet_access": "wlan", "internet_access:fee": "no", "name": "Raimon Social Club", "name:ca": "Raimon Social Club", "source": "http://barcelona-guide.info", "website": "http://raimonclub.com"}}, {"type": "node", "id": 3892708824, "lat": 41.3970928, "lon": 2.1628073, "tags": {"addr:city": "Barcelona", "addr:housenumber": "365", "addr:street": "Avinguda Diagonal", "amenity": "bar", "entrance": "yes", "lgbtq:men": "only", "name": "New Chaps", "opening_hours": "Mo-Th 21:00-03:00; Fr-Sa 21:00-03:30; Su 19:00-03:00", "phone": "+34 932155365", "website": "http://www.newchaps.com/"}}, {"type": "node", "id": 3954676161, "lat": 41.3722112, "lon": 2.1626716, "tags": {"addr:housenumber": "14", "addr:street": "Pla\u00e7a del Sortidor", "amenity": "bar", "name": "El Carro Gros"}}, {"type": "node", "id": 3959114240, "lat": 41.4035629, "lon": 2.1603403, "tags": {"addr:housenumber": "80", "addr:street": "Carrer de Ram\u00f3n y Cajal", "amenity": "bar", "harassment_prevention": "No Callem", "name": "Heliog\u00e0bal", "sexual_antiharassment_policy": "yes", "sexual_antiharassment_policy:name": "NoCallem", "website": "https://www.heliogabal.com/"}}, {"type": "node", "id": 3964809730, "lat": 41.3761574, "lon": 2.1617615, "tags": {"addr:housenumber": "23", "addr:street": "Carrer de Viladomat", "amenity": "bar", "name": "Tarann\u00e0", "phone": "+34 931061193", "website": "https://tarannacafe.com/", "wheelchair": "no"}}, {"type": "node", "id": 3966887004, "lat": 41.3899349, "lon": 2.1599331, "tags": {"amenity": "bar", "name": "Bar Cleries"}}, {"type": "node", "id": 3974108491, "lat": 41.3742741, "lon": 2.1619869, "tags": {"addr:housenumber": "17", "addr:street": "Carrer de la Creu dels Molers", "amenity": "bar", "name": "Tinta Roja", "opening_hours": "We 20:30-00:30; Th 20:30-02:30; Fr, Sa 20:30-03:00", "phone": "+34 934433243", "website": "http://www.tintaroja.cat"}}, {"type": "node", "id": 3979797469, "lat": 41.372858, "lon": 2.1668082, "tags": {"addr:housenumber": "2", "addr:street": "Blai", "amenity": "bar", "contact:facebook": "https://www.facebook.com/LaChurreDelPobleSec", "name": "La Churre"}}, {"type": "node", "id": 3987217352, "lat": 41.382757, "lon": 2.1785313, "tags": {"addr:city": "Barcelona", "addr:housenumber": "1", "addr:postcode": "08002", "addr:street": "Carrer de la Palma de Sant Just", "amenity": "bar", "name": "Ginger", "opening_hours": "Tu-Sa 19:30-02:30", "phone": "+34 93 310 53 09", "website": "http://ginger.cat/GINGER_BARCELONA/welcome_to_Ginger_Barcelona.html"}}, {"type": "node", "id": 3996165257, "lat": 41.4016882, "lon": 2.1757519, "tags": {"addr:city": "Barcelona", "addr:housenumber": "292", "addr:postcode": "08013", "addr:street": "Carrer de Sardenya", "amenity": "bar", "description": "Bar barcelona : los due\u00f1os son muy majos ^.^", "name": "Bar barcelona"}}, {"type": "node", "id": 4011458618, "lat": 41.3983385, "lon": 2.182871, "tags": {"addr:city": "Barcelona", "addr:housenumber": "192", "addr:postcode": "08013", "addr:street": "Carrer de Casp", "amenity": "bar", "contact:facebook": "https://www.facebook.com/elcafeblau/", "name": "El Caf\u00e8 Blau", "opening_hours": "Mo-Fr 10:30-22:30; Sa 12:00-24:00; Su off", "phone": "+34 932 47 16 59", "smoking": "outside"}}, {"type": "node", "id": 4025634263, "lat": 41.4015434, "lon": 2.1643351, "tags": {"addr:city": "Barcelona", "addr:housenumber": "187", "addr:postcode": "08037", "addr:street": "Carrer de Bail\u00e8n", "amenity": "bar", "name": "C\u00e8ntric", "name:ca": "C\u00e8ntric", "smoking": "outside", "wheelchair": "no"}}, {"type": "node", "id": 4029816789, "lat": 41.3845299, "lon": 2.1805557, "tags": {"addr:housenumber": "6", "addr:street": "Carrer dels Banys Vells", "amenity": "bar", "cuisine": "arab;argentinian", "entrance": "yes", "name": "Rubi Bar", "phone": "+34-647737707", "toilets:wheelchair": "no", "wheelchair": "limited"}}, {"type": "node", "id": 4126257971, "lat": 41.3758485, "lon": 2.1576176, "tags": {"addr:city": "Barcelona", "addr:housenumber": "19", "addr:postcode": "08015", "addr:street": "Carrer de Rocafort", "amenity": "bar", "name": "Xixbar", "outdoor_seating": "yes", "smoking": "outside"}}, {"type": "node", "id": 4130741098, "lat": 41.3850373, "lon": 2.1662783, "tags": {"addr:housenumber": "70", "addr:street": "Carrer dels Tallers", "amenity": "bar", "name": "Cerveceria La Surena"}}, {"type": "node", "id": 4137545690, "lat": 41.3886077, "lon": 2.1801454, "tags": {"addr:housenumber": "10", "addr:street": "Carrer de les Basses de Sant Pere", "amenity": "bar", "name": "Paspartu"}}, {"type": "node", "id": 4148553589, "lat": 41.3787719, "lon": 2.1724896, "tags": {"addr:street": "Carrer del Marqu\u00e8s de Barber\u00e0", "amenity": "bar", "name": "Shenanigans Irish Pub"}}, {"type": "node", "id": 4150499794, "lat": 41.4023622, "lon": 2.1612062, "tags": {"addr:housenumber": "68", "addr:street": "Carrer de Mil\u00e0 i Fontanals", "amenity": "bar", "brewery": "yes", "check_date": "2024-09-17", "internet_access": "wlan", "internet_access:fee": "customers", "name": "El 68", "outdoor_seating": "no", "payment:cash": "yes", "payment:credit_cards": "yes", "payment:debit_cards": "yes", "wheelchair": "no"}}, {"type": "node", "id": 4162207141, "lat": 41.3909265, "lon": 2.1452061, "tags": {"addr:housenumber": "4", "addr:street": "Carrer de Buenos Aires", "amenity": "bar", "name": "Donildo"}}, {"type": "node", "id": 4172561990, "lat": 41.3809266, "lon": 2.1754554, "tags": {"addr:housenumber": "9", "addr:street": "Carrer d'en Rauric", "amenity": "bar", "name": "First bar"}}, {"type": "node", "id": 4174700797, "lat": 41.3871018, "lon": 2.1569158, "tags": {"addr:city": "Barcelona", "addr:housenumber": "96", "addr:postcode": "08011", "addr:street": "Carrer de Casanova", "amenity": "bar", "check_date:opening_hours": "2023-09-07", "contact:phone": "+34 675 49 92 62", "name": "Pub Fiction", "opening_hours:signed": "no", "website": "https://www.privateaser.es/local/5780-pub-fiction"}}, {"type": "node", "id": 4174821392, "lat": 41.3796808, "lon": 2.1568783, "tags": {"addr:housenumber": "107", "addr:street": "Carrer de Viladomat", "amenity": "bar", "name": "La Resist\u00e8ncia"}}, {"type": "node", "id": 4174821793, "lat": 41.3688974, "lon": 2.1901038, "tags": {"addr:street": "Passeig Mare Nostrum", "amenity": "bar", "name": "Eclipse at the W"}}, {"type": "node", "id": 4190446294, "lat": 41.380071, "lon": 2.1801819, "tags": {"addr:housenumber": "13", "addr:postcode": "08002", "addr:street": "Carrer de la Merc\u00e8", "amenity": "bar", "internet_access": "wlan", "name": "El Bomb\u00f3n"}}, {"type": "node", "id": 4190964190, "lat": 41.3886068, "lon": 2.1801679, "tags": {"addr:housenumber": "10", "addr:street": "Carrer de les Basses de Sant Pere", "amenity": "bar", "name": "Ale&Hop", "opening_hours": "Mo-We 17:00-01:30; Th 17:00-02:30; Fr 17:00-03:00; Sa 13:00-03:00; Su 13:00-01:30"}}, {"type": "node", "id": 4192258489, "lat": 41.3849952, "lon": 2.182803, "tags": {"amenity": "bar", "name": "nose", "toilets:wheelchair": "no", "wheelchair": "yes"}}, {"type": "node", "id": 4199273996, "lat": 41.3850625, "lon": 2.1661014, "tags": {"amenity": "bar", "name": "The Shamrock"}}, {"type": "node", "id": 4204740193, "lat": 41.3876408, "lon": 2.1560748, "tags": {"addr:housenumber": "110", "addr:street": "Carrer de Casanova", "amenity": "bar", "cuisine": "spanish", "name": "Cal Oksana", "opening_hours": "Mo-Su 19:00-12:00", "phone": "+34638583067"}}, {"type": "node", "id": 4210324695, "lat": 41.4034512, "lon": 2.1729699, "tags": {"addr:street": "Carrer de Proven\u00e7a", "amenity": "bar"}}, {"type": "node", "id": 4215395332, "lat": 41.3737336, "lon": 2.1646232, "tags": {"addr:city": "Barcelona", "addr:housenumber": "26", "addr:street": "Carrer de Blai", "amenity": "bar", "name": "PinchoJ"}}, {"type": "node", "id": 4222176598, "lat": 41.3727493, "lon": 2.167178, "tags": {"addr:housenumber": "36", "addr:postcode": "08004", "addr:street": "Carrer de Blesa", "amenity": "bar", "name": "Gran Bodega Salt\u00f3"}}, {"type": "node", "id": 4222220094, "lat": 41.3991715, "lon": 2.1592621, "tags": {"addr:housenumber": "24", "addr:street": "Carrer de Francisco Giner", "amenity": "bar", "name": "Switch Pocket Club"}}, {"type": "node", "id": 4254071889, "lat": 41.392924, "lon": 2.175234, "tags": {"amenity": "bar", "name": "Noumades", "old_name": "Bar centro"}}, {"type": "node", "id": 4254675492, "lat": 41.387328, "lon": 2.1679739, "tags": {"addr:housenumber": "37", "addr:postcode": "08007", "addr:street": "Ronda de la Universitat", "amenity": "bar", "cuisine": "burger", "email": "latavernadebarcelona@hotmail.com", "name": "La tavern de barcelona", "name:ca": "La Taverna de Barcelona", "name:es": "La Taverna de Barcelona", "phone": "+34 933 01 76 53"}}, {"type": "node", "id": 4254709544, "lat": 41.3936112, "lon": 2.1747834, "tags": {"addr:housenumber": "43", "addr:street": "Carrer de Bail\u00e8n", "amenity": "bar", "check_date": "2024-10-19", "level": "0", "name": "Checkpoint Arcade"}}, {"type": "node", "id": 4259186407, "lat": 41.3730845, "lon": 2.1671134, "tags": {"addr:housenumber": "23", "addr:street": "Carrer de la Font Honrada 23", "amenity": "bar", "internet_access": "wlan", "name": "Bar La Bota"}}, {"type": "node", "id": 4299182493, "lat": 41.3857313, "lon": 2.1973394, "tags": {"amenity": "bar", "name": "Bamb\u00fa Beach Bar"}}, {"type": "node", "id": 4321293689, "lat": 41.3848364, "lon": 2.1830531, "tags": {"addr:housenumber": "30", "addr:postcode": "08003", "addr:street": "Passeig del Born", "amenity": "bar", "name": "Cactus Bar"}}, {"type": "node", "id": 4321334889, "lat": 41.3945664, "lon": 2.1598744, "tags": {"addr:postcode": "08008", "amenity": "bar", "name": "Boca Grande"}}, {"type": "node", "id": 4321334989, "lat": 41.3955828, "lon": 2.1676294, "tags": {"addr:housenumber": "97", "addr:postcode": "08009", "addr:street": "Carrer del Bruc", "amenity": "bar", "name": "Bar Cugat", "name:ca": "Bar Cugat", "name:es": "Bar Cugat", "opening_hours": "Mo-Th 09:00-00:30; Fr 09:00-02:30; Sa 11:00-02:30", "phone": "+34 93 1398194", "website": "http://barcugat.com"}}, {"type": "node", "id": 4321666485, "lat": 41.3922227, "lon": 2.1544994, "tags": {"addr:city": "Barcelona", "addr:housenumber": "154", "addr:postcode": "08036", "addr:street": "Carrer d'Aribau", "amenity": "bar", "name": "Le Cyrano", "phone": "+34 618 93 77 69"}}, {"type": "node", "id": 4321666486, "lat": 41.3922388, "lon": 2.1539966, "tags": {"addr:postcode": "08036", "amenity": "bar", "name": "Solange"}}, {"type": "node", "id": 4321666487, "lat": 41.389688, "lon": 2.1580773, "tags": {"addr:postcode": "08036", "amenity": "bar", "name": "Tandem Cocktail Bar"}}, {"type": "node", "id": 4321668169, "lat": 41.3780728, "lon": 2.1750758, "tags": {"addr:housenumber": "3", "addr:postcode": "08001", "addr:street": "Carrer de l'Arc del Teatre", "amenity": "bar", "harassment_prevention": "No Callem", "name": "Moog", "sexual_antiharassment_policy": "yes", "sexual_antiharassment_policy:name": "NoCallem"}}, {"type": "node", "id": 4321718393, "lat": 41.3904363, "lon": 2.1556181, "tags": {"addr:city": "Barcelona", "addr:country": "ES", "addr:housenumber": "171", "addr:postcode": "08036", "addr:street": "Carrer de Proven\u00e7a", "amenity": "bar", "fee:amount": "5\u20ac", "name": "La Fira"}}, {"type": "node", "id": 4326986691, "lat": 41.3820911, "lon": 2.1685814, "tags": {"amenity": "bar", "name": "Bar Victoria"}}, {"type": "node", "id": 4333654452, "lat": 41.3731861, "lon": 2.1672621, "tags": {"addr:country": "ES", "addr:housenumber": "10", "addr:street": "Carrer d'Hortes", "amenity": "bar", "check_date": "2023-09-22", "name": "La Base: Ateneu Cooperatiu", "payment:mastercard": "yes", "payment:visa": "yes", "phone": "+34 936 76 05 27", "website": "https://labase.info"}}, {"type": "node", "id": 4349886673, "lat": 41.38047, "lon": 2.1770302, "tags": {"addr:housenumber": "3", "addr:street": "Carrer de n'Arai", "amenity": "bar", "name": "Dionisos", "wheelchair": "yes"}}, {"type": "node", "id": 4349888455, "lat": 41.3805356, "lon": 2.1770355, "tags": {"addr:housenumber": "3", "addr:street": "Carrer de n'Arai", "amenity": "bar", "name": "Bar Lisa"}}, {"type": "node", "id": 4358995492, "lat": 41.3722035, "lon": 2.1663962, "tags": {"addr:housenumber": "35", "addr:street": "Carrer d'en Fontrodona", "amenity": "bar", "name": "Maumau", "name:en": "Mau Mau", "name:es": "Mau Mau"}}, {"type": "node", "id": 4387192496, "lat": 41.385131, "lon": 2.1778655, "tags": {"addr:city": "Barcelona", "addr:floor": "8", "addr:housenumber": "30", "addr:postcode": "08003", "addr:street": "Via Laietana", "amenity": "bar", "bar": "yes", "brewery": "various", "check_date": "2024-08-29", "cuisine": "regional;mediterranean", "description": "En el octavo piso de nuestro hotel, sobre las animadas calles del Barrio G\u00f3tico, La Terraza del Central te invita a disfrutar de cocina mediterr\u00e1nea al fresco, exquisitos c\u00f3cteles y vistas impresionantes. Con un ambiente relajado, es el lugar perfecto par", "email": "laterraza@grandhotelcentral.com", "image": "https://www.grandhotelcentral.com/data/webp/white.png-e2293a1c670abc191fcc4f21b53287e6.webp", "name": "La Terraza del Central", "opening_hours": "Mo-Su 09:00-24:00", "opening_hours:kitchen": "Cocina mediterr\u00e1nea al fresco, exquisitos c\u00f3cteles", "payment:cash": "yes", "payment:contactless": "yes", "payment:credit_cards": "yes", "payment:debit_cards": "yes", "payment:mastercard": "yes", "payment:visa": "yes", "phone": "+34 932 957 900", "reservation": "recommended", "website": "https://www.grandhotelcentral.com/es/rooftop-barcelona/", "website:menu": "https://www.grandhotelcentral.com/downloads/laterrazadelcentralmenu.pdf"}}, {"type": "node", "id": 4406319999, "lat": 41.3841403, "lon": 2.1829077, "tags": {"addr:housenumber": "9", "addr:street": "Carrer de la Vidrieria", "amenity": "bar", "name": "n\u00famero nueve", "name:es": "n\u00famero nueve"}}, {"type": "node", "id": 4406708695, "lat": 41.401192, "lon": 2.1605852, "tags": {"addr:housenumber": "8", "addr:postcode": "08012", "addr:street": "Pla\u00e7a del Raspall", "amenity": "bar", "check_date": "2024-06-16", "contact:instagram": "raspallbcn", "cuisine": "regional;spanish", "dog": "yes", "internet_access": "wlan", "name": "Raspall", "name:ca": "Raspall", "opening_hours": "Mo-Th 18:30-02:00; Fr 12:00-16:00, 18:30-02:30; Sa 12:00-02:30; Su 12:00-02:00", "outdoor_seating": "yes", "payment:cash": "yes", "payment:credit_cards": "yes", "payment:debit_cards": "yes", "smoking": "outside"}}, {"type": "node", "id": 4409361092, "lat": 41.3804417, "lon": 2.1809918, "tags": {"addr:housenumber": "7", "addr:postcode": "08002", "addr:street": "Passeig de Colom", "amenity": "bar", "name": "Kulas"}}, {"type": "node", "id": 4426366390, "lat": 41.3838486, "lon": 2.1629162, "tags": {"amenity": "bar", "name": "Barcelona beer company", "name:es": "Barcelona beer company", "wheelchair": "yes"}}, {"type": "node", "id": 4440528890, "lat": 41.3988533, "lon": 2.1568144, "tags": {"addr:housenumber": "36", "addr:postcode": "08012", "addr:street": "Carrer Gran de Gr\u00e0cia", "amenity": "bar", "name": "Alfa Bar", "name:en": "Alfa Bar", "name:es": "Alfa Bar", "wheelchair": "no"}}, {"type": "node", "id": 4442168589, "lat": 41.3839256, "lon": 2.1774566, "tags": {"addr:housenumber": "13", "addr:street": "Carrer del Veguer", "amenity": "bar", "name": "L'Antiquari", "name:ca": "L'Antiquari", "name:es": "L'Antiquari"}}, {"type": "node", "id": 4449149161, "lat": 41.3845748, "lon": 2.1608385, "tags": {"amenity": "bar", "name": "Versailles Lounge Bar"}}, {"type": "node", "id": 4449149162, "lat": 41.3842857, "lon": 2.1591274, "tags": {"addr:city": "Barcelona", "addr:housenumber": "174", "addr:postcode": "08011", "addr:street": "Carrer de la Diputaci\u00f3", "amenity": "bar", "lgbtq": "primary", "lgbtq:men": "only", "name": "Boys Bar BCN", "opening_hours": "Tu-Sa 21:30-03:00", "phone": "+34 651 680 643", "website": "https://www.boysbarbcn.com"}}, {"type": "node", "id": 4449149167, "lat": 41.3852769, "lon": 2.1591432, "tags": {"amenity": "bar", "lgbtq": "primary", "name": "Bacon Bear Bar"}}, {"type": "node", "id": 4449149168, "lat": 41.386746, "lon": 2.1590623, "tags": {"amenity": "bar", "name": "La Chapelle"}}, {"type": "node", "id": 4449149169, "lat": 41.3866794, "lon": 2.1591527, "tags": {"addr:housenumber": "65", "addr:postcode": "08007", "addr:street": "Carrer de Muntaner", "amenity": "bar", "harassment_prevention": "No Callem", "name": "Punto BCN", "opening_hours": "Tu-Su 18:00-02:30", "phone": "+34934875140", "sexual_antiharassment_policy": "yes", "sexual_antiharassment_policy:name": "NoCallem", "website": "https://grupoarena.com"}}, {"type": "node", "id": 4449149170, "lat": 41.3868645, "lon": 2.1599115, "tags": {"addr:city": "Barcelona", "addr:housenumber": "257", "addr:postcode": "08011", "addr:street": "Carrer del Consell de Cent", "amenity": "bar", "lgbtq": "primary", "name": "Dmen's"}}, {"type": "node", "id": 4449149171, "lat": 41.3862444, "lon": 2.1618234, "tags": {"amenity": "bar", "name": "Mont Bar", "wheelchair": "limited"}}, {"type": "node", "id": 4449224226, "lat": 41.3778646, "lon": 2.1910298, "tags": {"amenity": "bar", "name": "Santa Marta", "name:ca": "Santa Marta"}}, {"type": "node", "id": 4455238130, "lat": 41.3965161, "lon": 2.1513989, "tags": {"addr:city": "Barcelona", "addr:housenumber": "32", "addr:postcode": "08006", "addr:street": "Tuset", "amenity": "bar", "contact:phone": "+34 93 2185237", "name": "Anahuac", "outdoor_seating": "yes"}}, {"type": "node", "id": 4456874789, "lat": 41.4044763, "lon": 2.1568671, "tags": {"addr:housenumber": "19", "addr:street": "Carrer de l'Or", "amenity": "bar", "name": "Gracia Latina", "name:en": "Gracia Latina", "name:es": "Gracia Latina", "opening_hours": "PH,Fr,Sa 19:00-03:00; Su-Th 19:00-02:30"}}, {"type": "node", "id": 4469898292, "lat": 41.3911162, "lon": 2.1454622, "tags": {"amenity": "bar", "name:en": "Restaurant Can Vermell", "name:uk": "\u0411\u0430\u0440 \u0440\u0435\u0441\u0442\u043e\u0440\u0430\u043d Can Vermell"}}, {"type": "node", "id": 4523823892, "lat": 41.3949117, "lon": 2.1515484, "tags": {"addr:housenumber": "13", "addr:street": "Carrer de Moi\u00e0", "amenity": "bar", "contact:email": "info@rumas.coffee", "contact:mobile": "+34 677 84 90 98", "contact:website": "http://rumas.coffee/", "name": "Mama Cheva", "name:es": "Ruma's", "opening_hours": "Mo-Fr 09:00-17:00"}}, {"type": "node", "id": 4547841604, "lat": 41.3961795, "lon": 2.1743904, "tags": {"amenity": "bar", "name": "Cosmopolita"}}, {"type": "node", "id": 4548292694, "lat": 41.3772748, "lon": 2.1749382, "tags": {"addr:housenumber": "8", "addr:street": "Carrer de Santa M\u00f2nica", "amenity": "bar", "name:en": "El cangrejo"}}, {"type": "node", "id": 4551543972, "lat": 41.3817389, "lon": 2.1480632, "tags": {"amenity": "bar", "name": "Tasca 132"}}, {"type": "node", "id": 4553668591, "lat": 41.3928432, "lon": 2.1555697, "tags": {"amenity": "bar", "name": "Bar Restaurante Casa Jaime", "name:es": "Bar Restaurante Casa Jaime"}}, {"type": "node", "id": 4553979391, "lat": 41.3834799, "lon": 2.1625678, "tags": {"amenity": "bar", "name": "Bodega Sep\u00falveda", "name:ca": "Bodega Sep\u00falveda"}}, {"type": "node", "id": 4554446190, "lat": 41.373837, "lon": 2.1643515, "tags": {"addr:housenumber": "28", "addr:street": "Carrer de Blai", "amenity": "bar", "name": "La Lia de'n Vicius", "name:ca": "La Lia de'n Vicius"}}, {"type": "node", "id": 4568388190, "lat": 41.3760257, "lon": 2.164045, "tags": {"amenity": "bar", "name": "La G\u00f3ndola", "name:es": "La G\u00f3ndola"}}, {"type": "node", "id": 4571972390, "lat": 41.3789958, "lon": 2.174867, "tags": {"amenity": "bar", "name": "tablao flamenco", "name:es": "tablao flamenco"}}, {"type": "node", "id": 4590905690, "lat": 41.3882413, "lon": 2.1949805, "tags": {"amenity": "bar", "cuisine": "american;burger", "internet_access": "wlan", "name": "Bamb\u00fa Beach Bar", "name:en": "Rembrandt Caf\u00e9", "name:ru": "\u0420\u0435\u043c\u0431\u0440\u0430\u043d\u0434\u0442 \u0431\u0430\u0440"}}, {"type": "node", "id": 4631918790, "lat": 41.4047191, "lon": 2.1550626, "tags": {"addr:city": "Barcelona", "addr:street": "Carrer de Topazi", "amenity": "bar", "indoor_seating": "yes", "name": "Casa L\u00f3pez", "name:es": "Casa L\u00f3pez", "outdoor_seating": "no", "payment:credit_cards": "yes", "payment:debit_cards": "yes", "smoking": "no", "wheelchair": "limited"}}, {"type": "node", "id": 4640461748, "lat": 41.4032528, "lon": 2.1586029, "tags": {"amenity": "bar", "check_date": "2024-10-20", "name": "Bar l'Escenari"}}, {"type": "node", "id": 4646610690, "lat": 41.3869809, "lon": 2.1802947, "tags": {"addr:housenumber": "31", "addr:street": "Carrer dels Carders", "amenity": "bar", "name": "Space Cowboy"}}, {"type": "node", "id": 4646610691, "lat": 41.3803151, "lon": 2.1808841, "tags": {"addr:housenumber": "8", "addr:postcode": "08002", "addr:street": "Passeig de Colom", "amenity": "bar", "name": "Espit Chupitos"}}, {"type": "node", "id": 4653437490, "lat": 41.3754753, "lon": 2.1677448, "tags": {"amenity": "bar", "name": "Los Cachitos", "name:es": "Los Cachitos"}}, {"type": "node", "id": 4653496889, "lat": 41.3778187, "lon": 2.1639598, "tags": {"amenity": "bar", "wheelchair": "limited"}}, {"type": "node", "id": 4653497089, "lat": 41.3775938, "lon": 2.1648996, "tags": {"amenity": "bar", "name": "Kabab Ghar", "name:es": "Kabab Ghar", "wheelchair": "limited"}}, {"type": "node", "id": 4657957289, "lat": 41.3751709, "lon": 2.1693835, "tags": {"amenity": "bar", "name": "Espanyol", "name:ca": "Espanyol"}}, {"type": "node", "id": 4659798495, "lat": 41.3765945, "lon": 2.1653366, "tags": {"amenity": "bar", "name": "Sant Pau", "name:ca": "Sant Pau", "wheelchair": "yes"}}, {"type": "node", "id": 4659811590, "lat": 41.3775036, "lon": 2.165, "tags": {"amenity": "bar", "name": "Diamante", "name:es": "Diamante"}}, {"type": "node", "id": 4661083190, "lat": 41.375471, "lon": 2.1670448, "tags": {"amenity": "bar", "name": "D\u00edas De Norte", "name:es": "D\u00edas De Norte"}}, {"type": "node", "id": 4666225341, "lat": 41.4049984, "lon": 2.1642241, "tags": {"addr:housenumber": "303", "addr:street": "Roger de Flor", "amenity": "bar", "name": "Can Ros", "name:ca": "Can Ros", "opening_hours": "Mo-Fr 07:00-00:00, 09:00-18:00; Su 08:00-00:00"}}, {"type": "node", "id": 4667835089, "lat": 41.3972943, "lon": 2.1609117, "tags": {"addr:city": "Barcelona", "addr:country": "ES", "addr:housenumber": "189", "addr:street": "Carrer de Pau Claris", "amenity": "bar", "name": "Entrepanes D\u00edaz", "name:es": "Entrepanes D\u00edaz"}}, {"type": "node", "id": 4668690289, "lat": 41.3762, "lon": 2.1640309, "tags": {"amenity": "bar", "check_date": "2023-04-27", "name": "Amable", "name:es": "Amable", "opening_hours": "Mo-Sa 07:30-24:00; Su 09:00-24:00"}}, {"type": "node", "id": 4668716290, "lat": 41.3759225, "lon": 2.1601557, "tags": {"amenity": "bar", "name": "La Barra de la d'Or", "name:ca": "La Barra de la d'Or"}}, {"type": "node", "id": 4668717189, "lat": 41.3761676, "lon": 2.1594654, "tags": {"amenity": "bar", "name": "Entre Tapes", "name:ca": "Entre Tapes", "wheelchair": "yes"}}, {"type": "node", "id": 4668742390, "lat": 41.3745998, "lon": 2.1618768, "tags": {"amenity": "bar", "name": "Mai Tanca", "name:ca": "Mai Tanca"}}, {"type": "node", "id": 4675181270, "lat": 41.4030154, "lon": 2.1735187, "tags": {"amenity": "bar"}}, {"type": "node", "id": 4676116589, "lat": 41.3861736, "lon": 2.1646996, "tags": {"addr:postcode": "08007", "amenity": "bar", "check_date:opening_hours": "2024-11-20", "internet_access": "wlan", "name": "Cerveseria Universitat", "name:ca": "Cerveseria Universitat", "opening_hours": "Mo-Su 09:00-01:00"}}, {"type": "node", "id": 4689020592, "lat": 41.4022025, "lon": 2.2016256, "tags": {"addr:city": "Barcelona", "addr:housenumber": "196", "addr:postcode": "08005", "addr:street": "Carrer de Pujades", "amenity": "bar", "contact:facebook": "https://m.facebook.com/BaliusBar/", "cuisine": "tapas", "description": "Cocktail bar", "name": "Balius", "name:es": "Balius", "phone": "+34 933 15 86 50"}}, {"type": "node", "id": 4703636561, "lat": 41.3818238, "lon": 2.1797544, "tags": {"addr:housenumber": "6", "addr:postcode": "08002", "addr:street": "Baixada de Viladecols", "amenity": "bar", "name": "Carlos and Mathilda"}}, {"type": "node", "id": 4719191291, "lat": 41.4045622, "lon": 2.1832598, "tags": {"amenity": "bar", "check_date": "2024-05-27", "name": "Casa Falc\u00f3n", "name:es": "Casa Falc\u00f3n", "opening_hours": "Mo-Sa"}}, {"type": "node", "id": 4719191292, "lat": 41.4037955, "lon": 2.1820599, "tags": {"amenity": "bar", "check_date": "2023-10-18", "name": "Ruta de Francia", "name:es": "Ruta de Francia"}}, {"type": "node", "id": 4719259890, "lat": 41.4054293, "lon": 2.1844074, "tags": {"amenity": "bar", "name": "Ribas D'o Sil", "name:es": "Ribas D'o Sil", "opening_hours": "Mo-Sa"}}, {"type": "node", "id": 4719260689, "lat": 41.3981541, "lon": 2.1778188, "tags": {"amenity": "bar", "name": "Yuste", "name:es": "Yuste", "opening_hours": "Mo-Su 08:00-01:00", "wheelchair": "limited"}}, {"type": "node", "id": 4724264057, "lat": 41.3936827, "lon": 2.1567152, "tags": {"amenity": "bar", "name": "Palacio del Flamenco"}}, {"type": "node", "id": 4724892139, "lat": 41.3802187, "lon": 2.1910003, "tags": {"amenity": "bar", "name": "El Forat", "name:ca": "El Forat"}}, {"type": "node", "id": 4724912739, "lat": 41.3805214, "lon": 2.1916737, "tags": {"amenity": "bar", "name": "Pi\u00f1ol"}}, {"type": "node", "id": 4725031991, "lat": 41.3746057, "lon": 2.1678056, "tags": {"amenity": "bar", "name": "La Cantonada", "name:ca": "La Cantonada"}}, {"type": "node", "id": 4725658095, "lat": 41.3754989, "lon": 2.1629173, "tags": {"amenity": "bar", "name": "Benidorm", "name:ca": "Benidorm"}}, {"type": "node", "id": 4725692890, "lat": 41.3747846, "lon": 2.1635935, "tags": {"amenity": "bar"}}, {"type": "node", "id": 4725706889, "lat": 41.3751878, "lon": 2.1645189, "tags": {"addr:street": "Avinguda del Paral\u00b7lel", "amenity": "bar", "name": "IMPRFCTO maison surrealist"}}, {"type": "node", "id": 4726080090, "lat": 41.3995758, "lon": 2.1646553, "tags": {"addr:housenumber": "173", "addr:postcode": "08037", "addr:street": "Carrer de Girona", "amenity": "bar", "check_date": "2023-06-12", "entrance": "yes", "name": "La Gilda", "name:es": "La Gilda", "wheelchair": "no"}}, {"type": "node", "id": 4726582797, "lat": 41.3892191, "lon": 2.1783959, "tags": {"amenity": "bar", "name": "Andorra", "name:es": "Andorra"}}, {"type": "node", "id": 4726582799, "lat": 41.3872998, "lon": 2.1792771, "tags": {"amenity": "bar", "name": "Bodega Jan\u00e9", "name:es": "Bodega Jan\u00e9"}}, {"type": "node", "id": 4726583197, "lat": 41.3895056, "lon": 2.1779383, "tags": {"amenity": "bar", "name": "Obrador", "name:ca": "Obrador"}}, {"type": "node", "id": 4726583198, "lat": 41.3879295, "lon": 2.1794342, "tags": {"amenity": "bar"}}, {"type": "node", "id": 4726613692, "lat": 41.3803273, "lon": 2.1643441, "tags": {"addr:housenumber": "59", "addr:street": "Carrer de la Riera Alta", "amenity": "bar", "email": "wearefoxy@gmail.com", "internet_access": "wlan", "name": "Foxy Bar", "name:es": "Foxy Bar", "opening_hours": "Su-Th 16:00-02:00; Fr-Sa 17:00-03:00", "phone": "+34 931 806 004", "website": "https://wearefoxy.wordpress.com"}}, {"type": "node", "id": 4727204690, "lat": 41.4029163, "lon": 2.1631401, "tags": {"amenity": "bar", "check_date": "2023-08-29", "name": "Toni", "name:es": "Toni", "wheelchair": "no"}}, {"type": "node", "id": 4729342999, "lat": 41.3743998, "lon": 2.1677116, "tags": {"air_conditioning": "yes", "amenity": "bar", "name": "Porto Col\u00f3n"}}, {"type": "node", "id": 4729343192, "lat": 41.3752214, "lon": 2.1663889, "tags": {"addr:postcode": "08001", "amenity": "bar", "name": "Paddock", "name:en": "Paddock", "opening_hours": "Tu-Sa 18:30-23:00; Su 12:00-23:00"}}, {"type": "node", "id": 4729343193, "lat": 41.3746194, "lon": 2.1669636, "tags": {"amenity": "bar", "indoor_seating": "yes", "name": "Cervecer\u00eda Frankfurt El Molino", "outdoor_seating": "yes"}}, {"type": "node", "id": 4729348090, "lat": 41.3751877, "lon": 2.165879, "tags": {"amenity": "bar"}}, {"type": "node", "id": 4730749622, "lat": 41.3793301, "lon": 2.1787723, "tags": {"addr:housenumber": "29", "addr:street": "Carrer dels C\u00f2dols", "amenity": "bar", "email": "polaroidbar@gmail.com", "name": "Polaroid bar", "phone": "+34 931866669"}}, {"type": "node", "id": 4734318123, "lat": 41.3779098, "lon": 2.1783933, "tags": {"addr:housenumber": "6", "addr:postcode": "08002", "addr:street": "Carrer de Josep Anselm Clav\u00e9", "amenity": "bar", "name": "Margarita Blue", "name:ca": "Margarita Blue", "name:en": "Margarita Blue", "name:es": "Margarita Blue", "phone": "+34 934125489", "toilets:wheelchair": "yes", "website": "https://www.margaritablue.com/", "wheelchair": "limited"}}, {"type": "node", "id": 4745636221, "lat": 41.3886394, "lon": 2.1739797, "tags": {"amenity": "bar", "cuisine": "burger;sandwich;breakfast;tapas;coffee_shop", "name": "Bar tim\u00f3n", "name:es": "Bar tim\u00f3n"}}, {"type": "node", "id": 4755496722, "lat": 41.3845759, "lon": 2.1695206, "tags": {"amenity": "bar", "name": "Drapaire", "name:es": "Drapaire"}}, {"type": "node", "id": 4755496923, "lat": 41.3885426, "lon": 2.1583128, "tags": {"addr:city": "Barcelona", "addr:housenumber": "202", "addr:postcode": "08011", "addr:street": "Carrer de Val\u00e8ncia", "amenity": "bar", "brewery": "blacklab", "name": "Blacklab Tap Room & Craft Beer", "name:es": "Blacklab Tap Room & Craft Beer"}}, {"type": "node", "id": 4756509699, "lat": 41.3833069, "lon": 2.1550311, "tags": {"amenity": "bar", "level": "0", "name": "Morro fi", "opening_hours": "Mo-Su 12:00-16:00,18:00-23:00", "outdoor_seating": "yes", "smoking": "outside", "toilets": "yes", "wheelchair": "limited"}}, {"type": "node", "id": 4762854028, "lat": 41.3942127, "lon": 2.1739835, "tags": {"amenity": "bar", "check_date": "2023-10-03", "name": "Len's Comic Cafe", "name:es": "Len's Comic Cafe"}}, {"type": "node", "id": 4764713222, "lat": 41.3722222, "lon": 2.1605513, "tags": {"amenity": "bar", "name": "Sofrito bar", "name:es": "Sofrito bar"}}, {"type": "node", "id": 4776357926, "lat": 41.4029059, "lon": 2.1592402, "tags": {"addr:city": "Barcelona", "addr:housenumber": "13", "addr:postcode": "08012", "addr:province": "Barcelona", "addr:state": "CT", "addr:street": "Carrer de Torrijos", "amenity": "bar", "check_date": "2024-02-09", "contact:instagram": "barlamistat", "name": "Bar l'Amistat", "name:ca": "Bar l'Amistat"}}, {"type": "node", "id": 4776361623, "lat": 41.4025961, "lon": 2.159745, "tags": {"addr:city": "Barcelona", "addr:housenumber": "197", "addr:postcode": "08012", "addr:street": "Travessera de Gr\u00e0cia", "amenity": "bar", "check_date": "2024-03-24", "contact:instagram": "bar_pietro", "cuisine": "regional", "name": "Bar Pietro", "name:es": "Bar Pietro", "opening_hours": "Mo 08:00-15:00; Tu-Sa 08:00-23:00; Su 11:00-17:00", "operator": "entre latas", "outdoor_seating": "standing"}}, {"type": "node", "id": 4776361626, "lat": 41.4049049, "lon": 2.1637078, "tags": {"amenity": "bar", "check_date": "2024-03-11", "name": "O Barqui\u00f1o", "name:es": "O Barqui\u00f1o"}}, {"type": "node", "id": 4787898099, "lat": 41.3812476, "lon": 2.1668432, "tags": {"addr:city": "Barcelona", "addr:housenumber": "1", "addr:postcode": "08001", "addr:street": "Pla\u00e7a Emili Vendrell", "amenity": "bar", "name": "Two Schmuks", "name:en": "Two Schmucks"}}, {"type": "node", "id": 4787974651, "lat": 41.4045885, "lon": 2.1993428, "tags": {"amenity": "bar", "name": "El Menjador de la Beckett"}}, {"type": "node", "id": 4837818021, "lat": 41.3998511, "lon": 2.1600282, "tags": {"addr:city": "Barcelona", "addr:housenumber": "48", "addr:postcode": "08012", "addr:street": "Carrer del Torrent de l'Olla", "amenity": "bar", "check_date": "2024-09-14", "name": "Copa", "wheelchair": "no"}}, {"type": "node", "id": 4839990724, "lat": 41.3819441, "lon": 2.1895851, "tags": {"amenity": "bar", "name:de": "Icon Club"}}, {"type": "node", "id": 4839990725, "lat": 41.3819346, "lon": 2.1894606, "tags": {"amenity": "bar", "name:de": "Zion Club"}}, {"type": "node", "id": 4846252024, "lat": 41.3853718, "lon": 2.1971997, "tags": {"addr:housenumber": "2", "addr:postcode": "08005", "addr:street": "Carrer de Ramon Trias Fargas", "amenity": "bar", "name": "Sh\u00f4ko", "name:en": "Icebarcelona", "opening_hours": "Mo-Su 12:00-03:00"}}, {"type": "node", "id": 4851287027, "lat": 41.3871699, "lon": 2.1760883, "tags": {"amenity": "bar", "name": "Bar L'antic Teatre", "name:ca": "Bar L'antic Teatre"}}, {"type": "node", "id": 4859450236, "lat": 41.3757705, "lon": 2.1885017, "tags": {"addr:city": "Barcelona", "addr:housenumber": "4", "addr:postcode": "08039", "addr:province": "Barcelona", "addr:street": "Carrer de l'Escar", "amenity": "bar", "name": "Bar Colombo", "osm_type": "node", "ref:ES:catastro": "2112406DF3821C"}}, {"type": "node", "id": 4876695621, "lat": 41.3785961, "lon": 2.1589308, "tags": {"amenity": "bar", "name": "Granja Los Pitufos", "name:es": "Granja Los Pitufos", "toilets:wheelchair": "no", "wheelchair": "limited"}}, {"type": "node", "id": 4937772721, "lat": 41.4059086, "lon": 2.1571314, "tags": {"addr:housenumber": "2,4", "addr:postcode": "08024", "addr:street": "Carrer de l'Alzina", "amenity": "bar", "brewery": "yes", "check_date": "2024-10-20", "contact:instagram": "https://www.instagram.com/barvilasgracia", "email": "vilasgracia@gmail.com", "name": "Vila's Bar", "old_name": "The Hideout", "opening_hours": "Mo-We 17:00-24:00; Th 17:00-02:00; Fr 17:00-03:00; Sa 11:30-03:00; Su 11:30-01:00", "outdoor_seating": "no", "payment:cash": "yes", "payment:credit_cards": "yes", "payment:debit_cards": "yes", "phone": "+34 934 06 98 32", "website": "https://www.vilasbar.com", "wheelchair": "no"}}, {"type": "node", "id": 4965677492, "lat": 41.4032881, "lon": 2.2001895, "tags": {"amenity": "bar", "name": "La tasqueta de Can Felipa", "wheelchair": "yes"}}, {"type": "node", "id": 4988446763, "lat": 41.367586, "lon": 2.1693303, "tags": {"amenity": "bar", "name": "Quiosc-bar Mirador de l'Alcalde", "name:ca": "Quiosc-bar Mirador de l'Alcalde"}}, {"type": "node", "id": 5027020921, "lat": 41.37276, "lon": 2.1676048, "tags": {"addr:housenumber": "146", "addr:street": "Carrer Nou de la Rambla", "amenity": "bar"}}, {"type": "node", "id": 5028957224, "lat": 41.3872515, "lon": 2.1676245, "tags": {"addr:housenumber": "35", "addr:street": "Ronda de la Universitat", "amenity": "bar", "name": "Milano", "name:es": "Milano"}}, {"type": "node", "id": 5028969022, "lat": 41.3850929, "lon": 2.1836594, "tags": {"addr:city": "Barcelona", "addr:housenumber": "10", "addr:postcode": "08003", "addr:street": "Pla\u00e7a Comercial", "air_conditioning": "yes", "alt_name": "Sal\u00f3n Negroni", "amenity": "bar", "brewery": "yes", "check_date": "2024-02-14", "contact:instagram": "guzzobcn", "contact:whatsapp": "+34600798288", "contact:youtube": "https://www.youtube.com/channel/UC7gCN08li5UWM3h81E3rhyg", "internet_access": "wlan", "internet_access:fee": "customers", "live_music": "yes", "name": "Guzzo", "name:es": "Guzzo", "opening_hours": "Mo-We 18:00-01:00; Th 18:00-01:30; Fr 18:00-02:00; Sa 13:00-02:00; Su 13:00-01:00", "opening_hours:kitchen": "Mo-Th 19:00-23:00; Fr 19:00-23:30; Sa 13:00-16:00, 19:00-23:30; Su 13:00-16:00, 19:00-23:00", "outdoor_seating": "yes", "payment:cash": "yes", "payment:credit_cards": "yes", "payment:debit_cards": "yes", "phone": "+34936670036", "reservation:website": "https://guzzobcn.es/reservas/", "source": "survey", "website": "https://guzzobcn.es/", "website:menu": "https://guzzobcn.es/menu/"}}, {"type": "node", "id": 5030247521, "lat": 41.4010493, "lon": 2.1525903, "tags": {"addr:housenumber": "34", "addr:postcode": "08012", "addr:street": "Carrer de Berga", "amenity": "bar", "indoor_seating": "yes", "name": "La Pantera Rosa", "name:es": "La Pantera Rosa", "outdoor_seating": "no"}}, {"type": "node", "id": 5031306421, "lat": 41.4014477, "lon": 2.1568813, "tags": {"amenity": "bar", "check_date": "2024-02-28", "name": "Kamona", "name:es": "Kamona"}}, {"type": "node", "id": 5046907261, "lat": 41.3765157, "lon": 2.1751425, "tags": {"addr:city": "Barcelona", "addr:housenumber": "6-8", "addr:street": "Avinguda de les Drassanes", "amenity": "bar", "cocktails": "yes", "level": "23", "name": "Marea Baja", "toilets": "yes", "website": "http://restaurantemareaalta.com"}}, {"type": "node", "id": 5048599922, "lat": 41.4059084, "lon": 2.1604518, "tags": {"addr:housenumber": "43", "addr:street": "Carrer del Torrent de les Flors", "amenity": "bar", "cuisine": "hot_dog;tapas", "name": "Speed 58", "name:ca": "Speed 58"}}, {"type": "node", "id": 5048602524, "lat": 41.4059162, "lon": 2.1606083, "tags": {"addr:housenumber": "46", "addr:postcode": "08024", "addr:street": "Carrer del Torrent de les Flors", "amenity": "bar", "check_date": "2023-10-14", "contact:facebook": "https://www.facebook.com/el.colleccionista/", "contact:instagram": "elcol.leccionista", "contact:tripadvisor": "https://www.tripadvisor.es/Attraction_Review-g187497-d8488778-Reviews-El_Col_leccionista-Barcelona_Catalonia.html", "live_music": "yes", "name": "El Col\u00b7leccionista", "name:ca": "El Col\u00b7leccionista", "name:es": "El Coleccionista", "opening_hours": "Th-Sa 21:00-03:00", "piano": "yes"}}, {"type": "node", "id": 5048602525, "lat": 41.4043091, "lon": 2.1612896, "tags": {"amenity": "bar", "check_date": "2024-02-09", "cuisine": "tapas", "name": "Blau Cel", "name:ca": "Blau Cel", "outdoor_seating": "yes"}}, {"type": "node", "id": 5048602534, "lat": 41.4061628, "lon": 2.1622541, "tags": {"addr:housenumber": "11,13", "addr:street": "Carrer de l'Escorial", "amenity": "bar", "name": "Navia 2", "name:ca": "Navia 2", "wheelchair": "no"}}, {"type": "node", "id": 5062286421, "lat": 41.3821981, "lon": 2.1758384, "tags": {"addr:housenumber": "11", "addr:postcode": "08002", "addr:street": "Carrer del Call", "amenity": "bar", "name": "Rey del Mojito"}}, {"type": "node", "id": 5076555929, "lat": 41.4060079, "lon": 2.1655839, "tags": {"amenity": "bar", "name": "Malabar", "name:ca": "Malabar", "name:en": "Malabar", "name:es": "Malabar"}}, {"type": "node", "id": 5081388242, "lat": 41.3725137, "lon": 2.1639527, "tags": {"addr:city": "Barcelona", "addr:housenumber": "47", "addr:postcode": "08004", "addr:street": "Carrer de Tapioles", "amenity": "bar", "description": "Vegan bar and feminist bookstore.", "diet:gluten_free": "yes", "diet:raw": "yes", "diet:vegan": "yes", "email": "hola@laraposacoop.org", "internet_access": "wlan", "name": "La Raposa", "opening_hours": "Su-Tu 13:00-20:00; We-Sa 13:00-24:00", "phone": "+34 931 257 954", "website": "https://laraposacoop.wordpress.com/"}}, {"type": "node", "id": 5082607261, "lat": 41.3872947, "lon": 2.1804299, "tags": {"addr:housenumber": "43", "addr:street": "Carrer dels Carders", "amenity": "bar", "cuisine": "italian", "description": "Cocktails und kleine Happen zu essen, Craft Beer Auswahl", "name": "Ina", "opening_hours": "Mo, We-Fr 09:30-16:00, 19:00-01:30; Sa 09:30-01:30; Su 09:30-23:00", "phone": "+34663476017"}}, {"type": "node", "id": 5085605523, "lat": 41.3836713, "lon": 2.1918579, "tags": {"amenity": "bar"}}, {"type": "node", "id": 5085619781, "lat": 41.381186, "lon": 2.1742004, "tags": {"amenity": "bar"}}, {"type": "node", "id": 5089020421, "lat": 41.4047833, "lon": 2.1584509, "tags": {"addr:housenumber": "37", "addr:street": "Carrer del Torrent d'en Vidalet", "amenity": "bar", "check_date": "2024-04-15", "cocktails": "yes", "name": "Elephanta", "name:ca": "Elephanta", "website": "https://elephanta.cat/"}}, {"type": "node", "id": 5091188624, "lat": 41.3998911, "lon": 2.1581751, "tags": {"addr:housenumber": "47", "addr:street": "Carrer de Francisco Giner", "amenity": "bar", "check_date": "2023-10-11", "name": "Bobby Gin", "name:en": "Bobby Gin"}}, {"type": "node", "id": 5102737522, "lat": 41.3891883, "lon": 2.1636797, "tags": {"amenity": "bar", "name": "Red58", "name:en": "Red 58 Night Club Venue"}}, {"type": "node", "id": 5103674822, "lat": 41.403589, "lon": 2.157066, "tags": {"addr:housenumber": "19", "addr:street": "Carrer de Verdi", "amenity": "bar", "name": "Verdi dinou", "old_name": "Braseria la Vila"}}, {"type": "node", "id": 5105012628, "lat": 41.4030943, "lon": 2.1577829, "tags": {"addr:housenumber": "6", "addr:street": "Carrer de Verdi", "amenity": "bar", "indoor_seating": "yes", "name": "Entre Hores", "name:ca": "Entre Hores", "outdoor_seating": "no", "payment:credit_cards": "yes", "payment:debit_cards": "yes", "smoking": "no", "wheelchair": "no"}}, {"type": "node", "id": 5108433921, "lat": 41.378394, "lon": 2.165371, "tags": {"addr:housenumber": "32", "addr:street": "Carrer de la Cera", "amenity": "bar", "name:en": "Pesca Salada"}}, {"type": "node", "id": 5108595622, "lat": 41.3792438, "lon": 2.165785, "tags": {"addr:housenumber": "2", "addr:street": "Carrer d'En Botella", "amenity": "bar", "name:en": "Chulapio"}}, {"type": "node", "id": 5109943329, "lat": 41.4017822, "lon": 2.1569752, "tags": {"addr:street": "Pla\u00e7a del Sol", "amenity": "bar", "check_date": "2024-11-11", "name": "Woody", "name:ca": "Woody", "wheelchair": "limited"}}, {"type": "node", "id": 5109943425, "lat": 41.4048898, "lon": 2.1550603, "tags": {"addr:street": "Carrer de Topazi", "amenity": "bar", "name": "Tapazia", "wheelchair": "limited"}}, {"type": "node", "id": 5128075585, "lat": 41.3927261, "lon": 2.1544614, "tags": {"addr:city": "Barcelona", "addr:postcode": "08036", "addr:street": "Carrer de C\u00f2rsega", "amenity": "bar", "email": "monkeyfactorybcn@gmail.com", "name": "Monkey Factory", "opening_hours": "Tu-Sa 18:30-03:00", "outdoor_seating": "yes", "phone": "+34 936 81 78 93", "smoking": "outside"}}, {"type": "node", "id": 5152356104, "lat": 41.4035201, "lon": 2.1555614, "tags": {"addr:city": "Barcelona", "addr:housenumber": "141", "addr:street": "Carrer del Torrent de l'Olla", "amenity": "bar", "check_date": "2023-11-05", "diet:vegan": "yes", "name": "Casa Figari", "opening_hours": "Mo-Su 10:00-21:00; Fr-Sa 10:00-23:00", "organic": "yes", "phone": "+34 935 147 528", "takeaway": "yes", "website": "https://www.uaybalam.com/"}}, {"type": "node", "id": 5155671352, "lat": 41.3846098, "lon": 2.1772919, "tags": {"addr:housenumber": "8", "addr:postcode": "08002", "addr:street": "Carrer de la Tapineria", "amenity": "bar", "check_date": "2024-07-20", "name": "Spritz", "wheelchair": "limited"}}, {"type": "node", "id": 5156647123, "lat": 41.3805889, "lon": 2.1626471, "tags": {"amenity": "bar", "name": "Frankfurt Villarroel", "name:ca": "Frankfurt Villarroel"}}, {"type": "node", "id": 5156647127, "lat": 41.3847262, "lon": 2.1789496, "tags": {"addr:street": "Carrer de la B\u00f2ria", "amenity": "bar", "name": "Boria", "name:ca": "Boria", "wheelchair": "no"}}, {"type": "node", "id": 5156690623, "lat": 41.3849827, "lon": 2.1791939, "tags": {"addr:street": "Pla\u00e7a de la Llana", "amenity": "bar", "name": "Tower bar", "name:ca": "Tower bar", "wheelchair": "limited"}}, {"type": "node", "id": 5163798722, "lat": 41.3814266, "lon": 2.182686, "tags": {"addr:housenumber": "4", "addr:street": "Passeig d'Isabel II", "amenity": "bar", "name:en": "The Mint", "phone": "+34651144365"}}, {"type": "node", "id": 5167181223, "lat": 41.3825733, "lon": 2.165664, "tags": {"addr:housenumber": "39", "addr:postcode": "08001", "addr:street": "Carrer de Ferlandina", "amenity": "bar", "name": "Bodega Berlanga", "name:ca": "Bodega Berlanga", "opening_hours": "Mo-Sa 18:00-02:30"}}, {"type": "node", "id": 5167183038, "lat": 41.3812731, "lon": 2.1638047, "tags": {"amenity": "bar", "contact:facebook": "https://m.facebook.com/Absenta-DEL-RAVAL-458730810885596/timeline", "name": "Absenta del Raval", "name:ca": "Absenta del Raval"}}, {"type": "node", "id": 5167183039, "lat": 41.3799488, "lon": 2.1648622, "tags": {"amenity": "bar", "name": "Bodega Armando", "name:ca": "Bodega Armando"}}, {"type": "node", "id": 5168232325, "lat": 41.3832429, "lon": 2.1775174, "tags": {"addr:housenumber": "16", "addr:postcode": "08002", "addr:street": "Carrer de la Llibreteria", "amenity": "bar", "check_date": "2023-04-28", "name": "Mes\u00f3n del Caf\u00e9"}}, {"type": "node", "id": 5168232523, "lat": 41.3834934, "lon": 2.1776063, "tags": {"addr:housenumber": "23", "addr:postcode": "08002", "addr:street": "Carrer de la Llibreteria", "amenity": "bar", "name": "Bar Brusi"}}, {"type": "node", "id": 5170947427, "lat": 41.3907016, "lon": 2.1468039, "tags": {"amenity": "bar", "name": "Hamelin"}}, {"type": "node", "id": 5170968317, "lat": 41.3684093, "lon": 2.1471131, "tags": {"amenity": "bar"}}, {"type": "node", "id": 5192060622, "lat": 41.3785755, "lon": 2.1605915, "tags": {"amenity": "bar", "name": "Brasilia", "toilets:wheelchair": "no", "wheelchair": "limited"}}, {"type": "node", "id": 5192085421, "lat": 41.3812805, "lon": 2.1618108, "tags": {"air_conditioning": "yes", "amenity": "bar", "indoor_seating": "yes", "name": "Esterri", "outdoor_seating": "yes", "smoking": "outside"}}, {"type": "node", "id": 5197616824, "lat": 41.3779157, "lon": 2.1777037, "tags": {"amenity": "bar", "name": "nn"}}, {"type": "node", "id": 5197617623, "lat": 41.3780666, "lon": 2.1614839, "tags": {"addr:housenumber": "69", "addr:postcode": "08015", "addr:street": "Carrer del Comte Borrell", "amenity": "bar", "name": "Bar Cafeteria Borrell", "name:ca": "Bar Cafeteria Borrell", "name:en": "Bar Cafeteria Borrell", "opening_hours": "Mo-Th 09:00-23:00; Fr-Sa 10:00-23:30; Su 12:00-22:30", "wheelchair": "limited"}}, {"type": "node", "id": 5198200835, "lat": 41.3978535, "lon": 2.1627843, "tags": {"addr:housenumber": "124", "addr:postcode": "08037", "addr:street": "Carrer de Roger de Ll\u00faria", "amenity": "bar", "check_date": "2024-07-01", "name": "Bauma", "name:ca": "Bauma", "wheelchair": "no"}}, {"type": "node", "id": 5198200924, "lat": 41.3937883, "lon": 2.1727144, "tags": {"amenity": "bar", "check_date": "2024-10-20", "name": "Sidreria el Furaco", "name:ca": "Sidreria el Furaco"}}, {"type": "node", "id": 5198201034, "lat": 41.3981841, "lon": 2.1617222, "tags": {"addr:housenumber": "344-352", "addr:postcode": "08037", "addr:street": "Carrer de C\u00f2rsega", "amenity": "bar", "entrance": "yes", "name": "El Chiringuito Bar", "name:ca": "El Chiringuito Bar", "wheelchair": "yes;limited"}}, {"type": "node", "id": 5198633426, "lat": 41.4054675, "lon": 2.161904, "tags": {"addr:street": "Carrer de Bruniquer", "amenity": "bar", "name": "Baloo", "name:ca": "Baloo", "wheelchair": "limited"}}, {"type": "node", "id": 5198645321, "lat": 41.4057577, "lon": 2.1623966, "tags": {"addr:street": "Carrer de Bruniquer", "amenity": "bar", "name": "De Copas", "name:es": "De Copas", "wheelchair": "no"}}, {"type": "node", "id": 5199718422, "lat": 41.403514, "lon": 2.1497995, "tags": {"amenity": "bar", "indoor_seating": "yes", "name": "El Meu Poble", "opening_hours": "Mo-We,Fr 07:30-03:00; Th,Sa,Su 08:00-03:00", "outdoor_seating": "yes"}}, {"type": "node", "id": 5199743028, "lat": 41.3898868, "lon": 2.1622344, "tags": {"amenity": "bar", "indoor_seating": "yes", "name": "seven7seven", "outdoor_seating": "yes"}}, {"type": "node", "id": 5200163421, "lat": 41.4065794, "lon": 2.1630872, "tags": {"addr:housenumber": "15", "addr:street": "Carrer de Pi i Margall", "amenity": "bar", "name": "Frankfurt Monfort", "name:ca": "Frankfurt Monfort", "wheelchair": "no"}}, {"type": "node", "id": 5203956426, "lat": 41.3852001, "lon": 2.1649244, "tags": {"amenity": "bar", "name": "Tallers 76", "name:ca": "Tallers 76"}}, {"type": "node", "id": 5207046926, "lat": 41.3863093, "lon": 2.1646356, "tags": {"amenity": "bar", "check_date": "2025-02-19", "name": "Estudiantil", "name:ca": "Estudiantil", "opening_hours": "Mo-Su 09:00-23:00", "phone": "+34 933 02 31 25", "website": "http://barestudiantil.net"}}, {"type": "node", "id": 5207065724, "lat": 41.3850886, "lon": 2.1629716, "tags": {"amenity": "bar", "name": "Brew Dog Point", "name:ca": "Brew Dog Point"}}, {"type": "node", "id": 5208223425, "lat": 41.3793184, "lon": 2.1598257, "tags": {"addr:housenumber": "91", "addr:street": "Carrer de Floridablanca", "amenity": "bar", "name": "Bar Ma\u00f1e Caf\u00e9", "toilets:wheelchair": "no", "wheelchair": "limited"}}, {"type": "node", "id": 5208710142, "lat": 41.3828913, "lon": 2.175531, "tags": {"addr:housenumber": "14", "addr:postcode": "08002", "addr:street": "Carrer de Sant Dom\u00e8nec del Call", "amenity": "bar", "name": "La Alcoba Azul"}}, {"type": "node", "id": 5209300421, "lat": 41.4000239, "lon": 2.1681962, "tags": {"addr:housenumber": "111B", "addr:street": "Passeig de Sant Joan", "amenity": "bar", "name": "Gredos", "name:ca": "Gredos", "smoking": "outside"}}, {"type": "node", "id": 5209300521, "lat": 41.4040796, "lon": 2.1624313, "tags": {"amenity": "bar", "name": "The Butcher", "name:ca": "The Butcher"}}, {"type": "node", "id": 5210862781, "lat": 41.3781483, "lon": 2.1641011, "tags": {"addr:street": "Ronda de Sant Pau", "amenity": "bar", "name": "Porto Bello", "wheelchair": "limited"}}, {"type": "node", "id": 5210881000, "lat": 41.3810509, "lon": 2.1805139, "tags": {"addr:city": "Barcelona", "addr:housenumber": "46", "addr:postcode": "08002", "addr:street": "Carrer Ample", "alt_name": "The Bollocks", "amenity": "bar", "description": "Rock, Coctails, Pinballs i Burgers", "email": "bollocksbcn@gmail.com", "happy_hours": "Mo-Su 19:00-22:00", "name": "Bollocks", "opening_hours": "Mo-Th,Su 19:00-02:30; Fr-Sa 19:00-03:00", "phone": "+34 663710095", "website": "https://www.bollocksbar.com/"}}, {"type": "node", "id": 5210881001, "lat": 41.3777211, "lon": 2.1727671, "tags": {"amenity": "bar", "name": "Bar Tino"}}, {"type": "node", "id": 5210881002, "lat": 41.3746019, "lon": 2.1698284, "tags": {"addr:housenumber": "109", "addr:postcode": "08004", "addr:street": "Carrer Nou de la Rambla", "amenity": "bar", "name": "Frankfurt Jazz Band", "phone": "+34 934414002"}}, {"type": "node", "id": 5210884651, "lat": 41.3758579, "lon": 2.1749702, "tags": {"amenity": "bar", "name": "Bar Maritimo"}}, {"type": "node", "id": 5226505321, "lat": 41.4025586, "lon": 2.1609645, "tags": {"addr:housenumber": "72", "addr:postcode": "08012", "addr:street": "Carrer de Mil\u00e0 i Fontanals", "amenity": "bar", "check_date": "2024-01-23", "contact:instagram": "bodegamarin", "cuisine": "tapas", "name": "Bodega E. Marin", "opening_hours": "Mo-Fr 07:00-15:00, 17:00-22:00; Sa 08:00-15:00", "outdoor_seating": "standing", "shop": "alcohol", "start_date": "1896"}}, {"type": "node", "id": 5235655122, "lat": 41.3816361, "lon": 2.1828064, "tags": {"amenity": "bar", "name": "Bodega Vidrios y cristales", "name:ca": "Bodega Vidrios y cristales", "wheelchair": "yes"}}, {"type": "node", "id": 5241133621, "lat": 41.3802566, "lon": 2.1725439, "tags": {"amenity": "bar", "name": "Bodega Montse", "name:ca": "Bodega Montse"}}, {"type": "node", "id": 5247173823, "lat": 41.3833212, "lon": 2.1616932, "tags": {"addr:city": "Barcelona", "addr:housenumber": "30", "addr:postcode": "08011", "addr:street": "Carrer de Casanova", "air_conditioning": "no", "amenity": "bar", "email": "management@monacoloungebcn.com", "min_age": "18", "name": "Monaco Shisha Lounge", "opening_hours": "19:00-01:00; We,Th off; Fr,Sa 18:00-03:00", "phone": "+34610872243", "website": "https://www.monacoshishalounge.com"}}, {"type": "node", "id": 5271977223, "lat": 41.3797222, "lon": 2.1752424, "tags": {"addr:housenumber": "18", "addr:postcode": "08002", "addr:street": "Pla\u00e7a Reial", "amenity": "bar", "check_date": "2024-07-20", "fixme": "quitar el duplicado m\u00e1s antiguo y fusionar", "harassment_prevention": "No Callem", "name": "Jamboree Jazz & Dance Club", "name:ca": "Jamboree Jazz & Dance Club", "name:en": "Jamboree Jazz & Dance Club", "name:es": "Jamboree Jazz & Dance Club", "phone": "+34 933041210", "sexual_antiharassment_policy": "yes", "sexual_antiharassment_policy:name": "NoCallem", "website": "https://jamboreejazz.com"}}, {"type": "node", "id": 5272756221, "lat": 41.3755883, "lon": 2.1703543, "tags": {"amenity": "bar", "name": "Macera Taller Bar"}}, {"type": "node", "id": 5274307823, "lat": 41.3811106, "lon": 2.1674275, "tags": {"amenity": "bar", "name": "33/45"}}, {"type": "node", "id": 5298169481, "lat": 41.3835729, "lon": 2.1591619, "tags": {"addr:housenumber": "60", "addr:street": "Carrer de Villarroel", "amenity": "bar", "name": "Belchica", "phone": "+34 625814001", "website": "http://belchica.be"}}, {"type": "node", "id": 5303280844, "lat": 41.3738144, "lon": 2.1635577, "tags": {"addr:city": "Barcelona", "addr:housenumber": "18", "addr:postcode": "08004", "addr:street": "Carrer de Margarit", "amenity": "bar", "name": "Sasha Bar 1968"}}, {"type": "node", "id": 5312370356, "lat": 41.3855156, "lon": 2.1751627, "tags": {"amenity": "bar", "name": "Gala den Vermut", "name:ca": "Cala del Vermut", "name:es": "Cala del Vermut"}}, {"type": "node", "id": 5312370811, "lat": 41.3859393, "lon": 2.1747648, "tags": {"amenity": "bar", "name": "Cala del Vermut 2", "name:ca": "Bodega del Vermut", "name:en": "Bodega del Vermut", "name:es": "Bodega del Vermut"}}, {"type": "node", "id": 5313768821, "lat": 41.3788991, "lon": 2.1896213, "tags": {"amenity": "bar", "internet_access": "wlan", "name": "Bonita"}}, {"type": "node", "id": 5327570662, "lat": 41.3977332, "lon": 2.1656576, "tags": {"addr:housenumber": "340", "addr:postcode": "08037", "addr:street": "Carrer de Proven\u00e7a", "amenity": "bar", "level": "0", "name": "Ancestral", "outdoor_seating": "yes", "wheelchair": "yes"}}, {"type": "node", "id": 5353633553, "lat": 41.3836737, "lon": 2.1837007, "tags": {"addr:housenumber": "4", "addr:postcode": "08003", "addr:street": "Carrer de Rere Palau", "amenity": "bar", "name": "Paradiso", "opening_hours": "Mo-Su 17:00-02:30"}}, {"type": "node", "id": 5380437122, "lat": 41.3841796, "lon": 2.1806721, "tags": {"amenity": "bar", "name": "Dr Stravinsky"}}, {"type": "node", "id": 5468395621, "lat": 41.3843361, "lon": 2.1800667, "tags": {"addr:housenumber": "13", "addr:postcode": "08003", "addr:street": "Carrer dels Vigatans", "amenity": "bar", "internet_access": "wlan", "name": "Dux Gin & Cocktail Bar Barcelona", "opening_hours": "Su-Th 18:30-02:00; Fr-Sa 18:30-02:30", "website": "https://duxborne.com"}}, {"type": "node", "id": 5494755522, "lat": 41.4003335, "lon": 2.1714778, "tags": {"addr:housenumber": "354", "addr:street": "Carrer de Mallorca", "amenity": "bar", "name": "Tapas & Bar siqui", "name:ru": "\u0410\u0437\u0438\u0430\u0442\u0441\u043a\u0430\u044f \u043a\u0443\u0445\u043d\u044f"}}, {"type": "node", "id": 5518705738, "lat": 41.3832809, "lon": 2.1683982, "tags": {"amenity": "bar", "name": "La central"}}, {"type": "node", "id": 5522181089, "lat": 41.3858755, "lon": 2.1850392, "tags": {"amenity": "bar", "name": "Magic", "name:hu": "M\u00e1gick"}}, {"type": "node", "id": 5522265621, "lat": 41.3990264, "lon": 2.194494}, {"type": "node", "id": 5525927436, "lat": 41.3880755, "lon": 2.1763052, "tags": {"addr:city": "Barcelona", "addr:housenumber": "28", "addr:postcode": "08003", "addr:street": "Carrer de Sant Pere M\u00e9s Alt", "amenity": "bar", "name": "B\u00e4r Sant Pere", "toilets:wheelchair": "yes", "wheelchair": "yes"}}, {"type": "node", "id": 5559101324, "lat": 41.3831352, "lon": 2.1463212, "tags": {"amenity": "bar", "cuisine": "seafood", "name": "Viveiro"}}, {"type": "node", "id": 5564064431, "lat": 41.3832362, "lon": 2.1568636, "tags": {"amenity": "bar", "level": "0", "name": "Atrapatapa", "opening_hours": "Mo-Su 08:30-24:00;PH closed", "outdoor_seating": "yes", "smoking": "outside", "toilets": "yes", "toilets:access": "permissive", "wheelchair": "no"}}, {"type": "node", "id": 5567074074, "lat": 41.3796009, "lon": 2.154744, "tags": {"amenity": "bar", "level": "0", "name": "Kuki's Bar", "opening_hours": "Mo-Su 07:00-24:00;PH open \"depending on the exact holiday\"", "toilets": "yes", "toilets:access": "customers", "wheelchair": "no"}}, {"type": "node", "id": 5591920694, "lat": 41.3970702, "lon": 2.152656, "tags": {"addr:city": "Barcelona", "addr:housenumber": "194", "addr:postcode": "08006", "addr:street": "Carrer de Balmes", "amenity": "bar", "name": "Entre Tapes"}}, {"type": "node", "id": 5606506169, "lat": 41.3803881, "lon": 2.1789886, "tags": {"addr:city": "Barcelona", "addr:housenumber": "35", "addr:postcode": "08002", "addr:street": "Carrer d'Aviny\u00f3", "amenity": "bar", "indoor_seating": "yes", "name": "Sincopa", "outdoor_seating": "no", "phone": "+34 932 68 75 60"}}, {"type": "node", "id": 5639625957, "lat": 41.3756057, "lon": 2.1613045, "tags": {"addr:city": "Barcelona", "addr:housenumber": "7", "addr:postcode": "08015", "addr:street": "Carrer del Parlament", "amenity": "bar", "description": "Tienda de conservas gourmet del mundo, vermouth, cervezas artesanas The world's gourmet canning store, vermouth, craft beers ", "email": "hola@entrelatas-bcn.com", "name": "Entre Latas", "phone": "+34930154725", "website": "https://www.entrelatas-bcn.com/"}}, {"type": "node", "id": 5657200634, "lat": 41.3891915, "lon": 2.1581178, "tags": {"amenity": "bar", "check_date:opening_hours": "2024-06-13", "name": "Esprit Chupitos", "opening_hours:signed": "no"}}, {"type": "node", "id": 5663237099, "lat": 41.3894369, "lon": 2.1578033, "tags": {"addr:housenumber": "81", "addr:street": "carrer d'Aribau", "amenity": "bar", "check_date:opening_hours": "2024-06-13", "name": "La Taberna del ESPIT", "opening_hours:signed": "no"}}, {"type": "node", "id": 5663242857, "lat": 41.3893622, "lon": 2.1579106, "tags": {"addr:housenumber": "77", "addr:street": "Carrer d'Aribau", "amenity": "bar", "description": "Shot bar", "name": "ESPIT Chupitos"}}, {"type": "node", "id": 5663243306, "lat": 41.3901812, "lon": 2.1567173, "tags": {"addr:housenumber": "97", "addr:street": "Carrer d'Aribau", "amenity": "bar", "name": "DECODE"}}, {"type": "node", "id": 5676005621, "lat": 41.3931048, "lon": 2.1910878, "tags": {"amenity": "bar", "name": "CACHO", "opening_hours": "Mo-Fr 13:00-24:00; Sa 12:00-24:00; Su 12:00-23:00", "outdoor_seating": "yes", "toilets": "yes"}}, {"type": "node", "id": 5718757792, "lat": 41.3790957, "lon": 2.1696433, "tags": {"addr:city": "Barcelona", "addr:housenumber": "17-21", "addr:postcode": "08001", "addr:street": "Rambla del Raval", "amenity": "bar", "level": "11", "location": "rooftop", "name": "360\u00b0", "opening_hours": "11:00-01:00", "outdoor_seating": "yes", "phone": "+34933201490", "smoking": "yes", "website": "https://www.terrazeo.com/terraza/terraza-del-hotel-barcelo-raval/"}}, {"type": "node", "id": 5781602324, "lat": 41.3713874, "lon": 2.1571136, "tags": {"amenity": "bar", "name": "La Sole\u00e1"}}, {"type": "node", "id": 5785061644, "lat": 41.3834738, "lon": 2.1664261, "tags": {"amenity": "bar", "name": "cafeteria Octubre"}}, {"type": "node", "id": 5786821866, "lat": 41.3951876, "lon": 2.1593834, "tags": {"amenity": "bar", "name": "Gallery Space"}}, {"type": "node", "id": 5810014358, "lat": 41.3935465, "lon": 2.1504991, "tags": {"addr:door": "4", "addr:housenumber": "212", "addr:street": "Carrer de Muntaner", "amenity": "bar", "name": "4 latas"}}, {"type": "node", "id": 5880596385, "lat": 41.4010072, "lon": 2.1761471, "tags": {"addr:housenumber": "310", "addr:postcode": "08013", "addr:street": "Avinguda Diagonal", "amenity": "bar", "name:en": "En Diagonal Bar"}}, {"type": "node", "id": 5902468191, "lat": 41.3831249, "lon": 2.1652703, "tags": {"addr:street": "Carrer de Joaqu\u00edn Costa", "amenity": "bar", "name": "Two Schmucks"}}, {"type": "node", "id": 5914744894, "lat": 41.402071, "lon": 2.1647815, "tags": {"addr:city": "Barcelona", "addr:housenumber": "8", "addr:postcode": "08037", "addr:street": "Carrer de la Ind\u00fastria", "amenity": "bar", "check_date": "2024-10-06", "dog": "no", "name": "Vesta", "outdoor_seating": "yes", "smoking": "outside", "source": "survey", "wheelchair": "no"}}, {"type": "node", "id": 5914744897, "lat": 41.3843726, "lon": 2.1626087, "tags": {"amenity": "bar", "cuisine": "tapas", "name": "Par\u00eds", "name:ca": "Par\u00eds"}}, {"type": "node", "id": 5916216006, "lat": 41.3843987, "lon": 2.1696272, "tags": {"addr:street": "Carrer de les Sitges", "amenity": "bar", "name": "Caribbean Club Cocktail Bar"}}, {"type": "node", "id": 5923825649, "lat": 41.3849901, "lon": 2.1833885, "tags": {"addr:city": "Barcelona", "addr:housenumber": "3", "addr:postcode": "08003", "addr:street": "Carrer Antic de Sant Joan", "amenity": "bar", "email": "info@eldiset.com", "name": "Eldiset", "phone": "+34 932681987", "website": "https://eldiset.com/"}}, {"type": "node", "id": 5923825650, "lat": 41.386519, "lon": 2.1832457, "tags": {"addr:city": "Barcelona", "addr:housenumber": "7", "addr:postcode": "08003", "addr:street": "Carrer de la Fusina", "amenity": "bar", "email": "INFO@CAFEKAFKA.ES", "name": "Cafe Kafka", "phone": "+34.933 151 776", "website": "http://www.cafekafka.es"}}, {"type": "node", "id": 5923835987, "lat": 41.3898967, "lon": 2.1789978, "tags": {"amenity": "bar", "name": "en apart\u00e9"}}, {"type": "node", "id": 5927815186, "lat": 41.3796837, "lon": 2.1780016, "tags": {"addr:housenumber": "14", "addr:postcode": "08002", "addr:street": "Carrer dels C\u00f2dols", "amenity": "bar", "name": "Mariatchi"}}, {"type": "node", "id": 5933850085, "lat": 41.4024389, "lon": 2.1545219, "tags": {"addr:street": "Travessia de Sant Antoni", "air_conditioning": "yes", "amenity": "bar", "brewery": "yes", "check_date": "2024-03-07", "internet_access": "wlan", "internet_access:fee": "no", "level": "0", "name": "El bar del CAT", "operator:type": "public", "payment:cash": "yes", "payment:credit_cards": "yes", "payment:debit_cards": "yes"}}, {"type": "node", "id": 5980808187, "lat": 41.4042765, "lon": 2.1459169, "tags": {"addr:housenumber": "86", "addr:street": "Carrer de Saragossa", "amenity": "bar", "name": "Bodega Josefa"}}, {"type": "node", "id": 5994481785, "lat": 41.3794753, "lon": 2.1595594, "tags": {"amenity": "bar", "name": "Unic"}}, {"type": "node", "id": 5994481885, "lat": 41.3726394, "lon": 2.1674447, "tags": {"amenity": "bar", "name": "Bar Vidal"}}, {"type": "node", "id": 6001163586, "lat": 41.3775132, "lon": 2.1755775, "tags": {"addr:housenumber": "2", "addr:street": "Carrer de Santa M\u00f2nica", "amenity": "bar", "name:en": "The Wild Rover Irish Pub"}}, {"type": "node", "id": 6020170185, "lat": 41.3828611, "lon": 2.1740498, "tags": {"amenity": "bar", "name:ru": "ENRIQUE TOMAS. Pernileria-Jamineria"}}, {"type": "node", "id": 6025933086, "lat": 41.3809085, "lon": 2.1896994, "tags": {"addr:housenumber": "42", "addr:street": "Carrer de la Maquinista", "amenity": "bar", "name": "Bistro 42"}}, {"type": "node", "id": 6030376285, "lat": 41.398619, "lon": 2.18006, "tags": {"addr:housenumber": "731", "addr:street": "Gran Via de les Corts Catalanes (lateral muntanya)", "amenity": "bar", "name": "Bar Granvja", "name:ca": "Gran Via", "name:es": "Gran V\u00eda", "phone": "+34 9363226"}}, {"type": "node", "id": 6033605286, "lat": 41.3744951, "lon": 2.1667538, "tags": {"addr:housenumber": "3", "addr:street": "Carrer de Salv\u00e0", "amenity": "bar", "name": "La Federica", "name:es": "La Federica"}}, {"type": "node", "id": 6037762686, "lat": 41.4011723, "lon": 2.156299, "tags": {"addr:housenumber": "7", "addr:street": "Carrer de Maspons", "amenity": "bar", "check_date": "2024-02-28", "cuisine": "american;caribbean", "name": "Ya t\u00fa sabes"}}, {"type": "node", "id": 6041506085, "lat": 41.4060248, "lon": 2.1496952, "tags": {"addr:housenumber": "32", "addr:street": "Pla\u00e7a de Lesseps", "alt_name": "Caf\u00e9 del Canari", "amenity": "bar", "check_date": "2024-11-09", "name": "El Canari", "name:ca": "El Canari"}}, {"type": "node", "id": 6047137901, "lat": 41.3959776, "lon": 2.1481192, "tags": {"addr:housenumber": "7", "addr:postcode": "08021", "addr:street": "Passatge de Josep Llovera", "amenity": "bar", "entrance": "yes", "name": "Coco Vintage Market", "name:en": "Coco Vintage Market", "phone": "+34 936 31 45 90", "website": "https://cocovintagemarket.com/"}}, {"type": "node", "id": 6051590892, "lat": 41.3829022, "lon": 2.1654809, "tags": {"amenity": "bar", "name": "Negroni", "name:es": "Negroni Cocktail Bar"}}, {"type": "node", "id": 6052329485, "lat": 41.3832428, "lon": 2.1781566, "tags": {"addr:housenumber": "7", "addr:postcode": "08002", "addr:street": "Carrer de la Dagueria", "amenity": "bar", "name": "Bar O'Ceo"}}, {"type": "node", "id": 6064402762, "lat": 41.3814694, "lon": 2.1767447, "tags": {"addr:housenumber": "6", "addr:postcode": "08002", "addr:street": "Baixada de Sant Miquel", "amenity": "bar", "entrance": "yes", "name": "Enkel"}}, {"type": "node", "id": 6069532287, "lat": 41.3973502, "lon": 2.1607595, "tags": {"addr:housenumber": "318", "addr:postcode": "08037", "addr:street": "Carrer de C\u00f2rsega", "amenity": "bar", "entrance": "yes", "name": "MutiClub", "phone": "+34 933885866"}}, {"type": "node", "id": 6093865397, "lat": 41.3975795, "lon": 2.1646733, "tags": {"amenity": "bar", "name": "Why Not"}}, {"type": "node", "id": 6093886612, "lat": 41.4001066, "lon": 2.1728166, "tags": {"addr:housenumber": "340", "addr:street": "Avinguda Diagonal", "amenity": "bar", "check_date": "2024-10-22", "name": "Kadushi"}}, {"type": "node", "id": 6115282472, "lat": 41.3927148, "lon": 2.1495532, "tags": {"amenity": "bar", "name": "Snack Bar Londres"}}, {"type": "node", "id": 6119950185, "lat": 41.3828393, "lon": 2.1845117, "tags": {"amenity": "bar", "check_date": "2023-11-17", "name": "Mr Robinson", "name:en": "Mr. Robinson"}}, {"type": "node", "id": 6121076545, "lat": 41.4019324, "lon": 2.1795042, "tags": {"addr:housenumber": "7", "addr:street": "Carrer Enamorats", "amenity": "bar", "name": "Balcony"}}, {"type": "node", "id": 6121155277, "lat": 41.4061796, "lon": 2.1860894, "tags": {"amenity": "bar", "name": "Bar La Fusta"}}, {"type": "node", "id": 6138906566, "lat": 41.3990235, "lon": 2.1944916, "tags": {"man_made": "surveillance", "surveillance:type": "camera"}}, {"type": "node", "id": 6138906835, "lat": 41.3989804, "lon": 2.1943079}, {"type": "node", "id": 6138906836, "lat": 41.3990757, "lon": 2.1943864}, {"type": "node", "id": 6138906883, "lat": 41.3989288, "lon": 2.1944148}, {"type": "node", "id": 6138906896, "lat": 41.3989667, "lon": 2.1944456, "tags": {"addr:housenumber": "101", "addr:postcode": "08018", "addr:street": "Carrer de Pere IV", "amenity": "cafe", "entrance": "yes", "name": "Poblenou Roasting Company"}}, {"type": "node", "id": 6139362987, "lat": 41.3709606, "lon": 2.158546, "tags": {"addr:housenumber": "2", "addr:postcode": "08004", "addr:street": "Carrer de Sant Isidre", "amenity": "bar", "name": "Petit Montjuic", "opening_hours": "Tu-Su 11:00-16:00, 19:00-23:00; Mo 00:00-24:00", "phone": "+34 629715943"}}, {"type": "node", "id": 6164496085, "lat": 41.3993226, "lon": 2.1603032, "tags": {"addr:housenumber": "21", "addr:street": "Carrer del Torrent de l'Olla", "amenity": "bar", "check_date": "2024-05-05", "name": "El Cine", "phone": "+34 932177852", "wheelchair": "no"}}, {"type": "node", "id": 6166767719, "lat": 41.4064798, "lon": 2.1488104, "tags": {"addr:housenumber": "265", "addr:street": "Ronda General Mitre", "amenity": "bar", "check_date": "2024-11-09", "description": "Bar y cervecer\u00eda", "name": "Cervecer\u00eda Pla\u00e7a", "opening_hours": "Mo-Th, Su 08:00-00:00; Fr, Sa 08:00-01:00"}}, {"type": "node", "id": 6177292185, "lat": 41.3923555, "lon": 2.1678143, "tags": {"amenity": "bar", "internet_access": "wlan", "name": "Cinemateca"}}, {"type": "node", "id": 6179289415, "lat": 41.4006622, "lon": 2.1748892, "tags": {"addr:city": "Barcelona", "addr:country": "ES", "amenity": "bar", "name": "Casa Rufo's"}}, {"type": "node", "id": 6193462651, "lat": 41.3935276, "lon": 2.157906, "tags": {"addr:city": "Barcelona", "addr:country": "ES", "addr:postcode": "08008", "addr:street": "Carrer del Rossell\u00f3", "amenity": "bar", "check_date": "2024-11-12", "check_date:opening_hours": "2024-11-12", "indoor_seating": "yes", "name": "Level", "opening_hours": "Mo-Su,PH 06:30-02:30", "outdoor_seating": "yes", "wheelchair": "yes"}}, {"type": "node", "id": 6196317429, "lat": 41.4059417, "lon": 2.1860262, "tags": {"amenity": "bar", "description": "comprobar nombre", "name": "Bar 27"}}, {"type": "node", "id": 6204018413, "lat": 41.3916963, "lon": 2.1577094, "tags": {"addr:housenumber": "236", "addr:street": "Carrer de Proven\u00e7a", "amenity": "bar", "name": "Colmado", "opening_hours": "Mo-Th 09:00-02:00; Fr 09:00-03:00; Sa 10:00-03:00; Su 10:00-02:00", "website": "https://colmadobcn.com/"}}, {"type": "node", "id": 6211280174, "lat": 41.3950874, "lon": 2.1572056, "tags": {"addr:city": "Barcelona", "addr:country": "ES", "addr:street": "Carrer de C\u00f2rsega", "amenity": "bar", "name": "Bronzo"}}, {"type": "node", "id": 6211321773, "lat": 41.3917471, "lon": 2.1509767, "tags": {"addr:city": "Barcelona", "addr:country": "ES", "addr:street": "Carrer de Par\u00eds", "amenity": "bar", "name": "El Papa Shaker"}}, {"type": "node", "id": 6211350417, "lat": 41.3813072, "lon": 2.18053, "tags": {"addr:housenumber": "53", "addr:postcode": "08002", "addr:street": "Carrer Ample", "amenity": "bar", "name": "Granja Bar Los Amigos"}}, {"type": "node", "id": 6238705886, "lat": 41.3904981, "lon": 2.1581282, "tags": {"addr:street": "Carrer de Mallorca", "amenity": "bar", "cuisine": "tapas", "name": "Cellare de Vino", "wheelchair": "no"}}, {"type": "node", "id": 6245391643, "lat": 41.3878156, "lon": 2.1513881, "tags": {"amenity": "bar", "name": "Rocktail"}}, {"type": "node", "id": 6254618241, "lat": 41.3837626, "lon": 2.1588913, "tags": {"addr:city": "Barcelona", "addr:housenumber": "68", "addr:postcode": "08011", "addr:street": "Carrer de Villarroel", "amenity": "bar", "name": "New Stras"}}, {"type": "node", "id": 6261637185, "lat": 41.3756955, "lon": 2.173991, "tags": {"addr:street": "Carrer de la Mina", "amenity": "bar", "name": "Bar Restaurant Touareq"}}, {"type": "node", "id": 6268440489, "lat": 41.3806296, "lon": 2.1888299, "tags": {"amenity": "bar", "name": "El Paco", "name:es": "El Bar del Paco"}}, {"type": "node", "id": 6268475414, "lat": 41.3743554, "lon": 2.1673863, "tags": {"addr:housenumber": "3", "addr:street": "Carrer del Roser", "amenity": "bar", "name": "La Pi\u00f1a Bar"}}, {"type": "node", "id": 6281806886, "lat": 41.3818444, "lon": 2.170849, "tags": {"amenity": "bar", "name": "L\u2018OW Boqueria"}}, {"type": "node", "id": 6281807588, "lat": 41.3829971, "lon": 2.170653, "tags": {"addr:housenumber": "7", "addr:postcode": "08001", "addr:street": "Carrer d'en Xucl\u00e0", "amenity": "bar", "name": "Gats", "phone": "+34931440044"}}, {"type": "node", "id": 6281807591, "lat": 41.3805982, "lon": 2.1665211, "tags": {"amenity": "bar", "name": "La Ravala", "name:es": "La Ravela"}}, {"type": "node", "id": 6281810285, "lat": 41.3781255, "lon": 2.1652096, "tags": {"amenity": "bar", "name": "Cuatro viento"}}, {"type": "node", "id": 6284037385, "lat": 41.3798131, "lon": 2.1685175, "tags": {"addr:housenumber": "1", "addr:street": "Rambla del Raval", "amenity": "bar", "name": "Bar 1800", "phone": "+34 934424435"}}, {"type": "node", "id": 6286303537, "lat": 41.3913483, "lon": 2.1665706}, {"type": "node", "id": 6286303568, "lat": 41.3913652, "lon": 2.1665924}, {"type": "node", "id": 6286563786, "lat": 41.3773955, "lon": 2.170194, "tags": {"amenity": "bar", "name": "Bar Granja Charly"}}, {"type": "node", "id": 6332589894, "lat": 41.3966874, "lon": 2.1736776, "tags": {"amenity": "bar", "name": "Baccardi Cafe", "wheelchair": "yes"}}, {"type": "node", "id": 6333084528, "lat": 41.4000156, "lon": 2.1637603, "tags": {"addr:street": "Carrer de C\u00f2rsega", "amenity": "bar", "check_date": "2024-04-11", "name": "costa sol", "not:brand:wikidata": "Q608845", "wheelchair": "no"}}, {"type": "node", "id": 6333755193, "lat": 41.3987032, "lon": 2.1811514, "tags": {"amenity": "bar", "cuisine": "tapas", "name": "Bar Marina"}}, {"type": "node", "id": 6357834156, "lat": 41.3936947, "lon": 2.1648505, "tags": {"addr:housenumber": "286", "addr:postcode": "08007", "addr:street": "Carrer de Val\u00e8ncia", "amenity": "bar", "name": "Les gens que j'aime bar"}}, {"type": "node", "id": 6371994364, "lat": 41.3744865, "lon": 2.1630723, "tags": {"addr:housenumber": "8", "addr:street": "Carrer de Blasco de Garay", "amenity": "bar", "name": "Giraluna"}}, {"type": "node", "id": 6423279564, "lat": 41.3895378, "lon": 2.1604524, "tags": {"addr:housenumber": "24", "addr:street": "Pla\u00e7a del Doctor Letamendi", "amenity": "bar", "name": "Bar B\u00e1goa"}}, {"type": "node", "id": 6450381088, "lat": 41.3980006, "lon": 2.1597579, "tags": {"addr:street": "Carrer de Santa Teresa", "amenity": "bar", "check_date": "2024-01-16", "name": "Old fashioned"}}, {"type": "node", "id": 6473992864, "lat": 41.4013838, "lon": 2.1497283, "tags": {"amenity": "bar"}}, {"type": "node", "id": 6486643797, "lat": 41.385028, "lon": 2.1663563, "tags": {"amenity": "bar", "name": "BURGERBAR", "name:en": "Nevermind Bar"}}, {"type": "node", "id": 6516250453, "lat": 41.3838121, "lon": 2.1673102, "tags": {"amenity": "bar"}}, {"type": "node", "id": 6516697815, "lat": 41.3720921, "lon": 2.162378, "tags": {"amenity": "bar", "name": "La Croqueter\u00eda"}}, {"type": "node", "id": 6520442546, "lat": 41.3725157, "lon": 2.1613153, "tags": {"addr:housenumber": "55", "addr:street": "Magalhaes", "amenity": "bar", "check_date": "2024-03-01", "name": "Bar restaurant Magalhaes"}}, {"type": "node", "id": 6532214487, "lat": 41.4039113, "lon": 2.201701, "tags": {"amenity": "bar", "name": "Susurro"}}, {"type": "node", "id": 6532297585, "lat": 41.4051228, "lon": 2.2006251, "tags": {"addr:street": "Carrer de Bilbao", "amenity": "bar", "name": "Molika"}}, {"type": "node", "id": 6533458685, "lat": 41.4045048, "lon": 2.2010302, "tags": {"addr:street": "Carrer de Bilbao", "amenity": "bar", "name": "Curro"}}, {"type": "node", "id": 6535101685, "lat": 41.4000317, "lon": 2.1956346, "tags": {"amenity": "bar", "name": "Catalunya", "name:ca": "Catalunya"}}, {"type": "node", "id": 6537967064, "lat": 41.379576, "lon": 2.1556362, "tags": {"amenity": "bar", "name": "Garbi"}}, {"type": "node", "id": 6538194375, "lat": 41.3761815, "lon": 2.1601126, "tags": {"amenity": "bar", "name": "Mr. White"}}, {"type": "node", "id": 6563307386, "lat": 41.4016002, "lon": 2.1889242, "tags": {"amenity": "bar", "name": "Eva-2"}}, {"type": "node", "id": 6563538085, "lat": 41.3853284, "lon": 2.160525, "tags": {"addr:housenumber": "188-196", "addr:street": "Carrer de la Diputaci\u00f3", "amenity": "bar", "internet_access": "wlan", "name": "Nook bcn"}}, {"type": "node", "id": 6574143485, "lat": 41.3837757, "lon": 2.1816336, "tags": {"amenity": "bar", "name": "el chigre 1769"}}, {"type": "node", "id": 6574151685, "lat": 41.3938207, "lon": 2.1633655, "tags": {"amenity": "bar", "check_date": "2023-07-14", "name": "la vinoteca terassa"}}, {"type": "node", "id": 6651539988, "lat": 41.3806023, "lon": 2.1760057, "tags": {"amenity": "bar", "internet_access": "wlan", "name": "nevermind"}}, {"type": "node", "id": 6665384785, "lat": 41.3856178, "lon": 2.162618, "tags": {"amenity": "bar", "contact:phone": "+34 938 48 81 77", "name": "Kahiki"}}, {"type": "node", "id": 6680396487, "lat": 41.4032976, "lon": 2.1567512, "tags": {"amenity": "bar", "indoor_seating": "yes", "name": "La prorroga", "outdoor_seating": "no", "smoking": "no", "wheelchair": "yes"}}, {"type": "node", "id": 6682434785, "lat": 41.3741025, "lon": 2.1638157, "tags": {"addr:housenumber": "13", "addr:street": "Carrer de Margarit", "amenity": "bar", "name": "sons in law", "opening_hours": "Mo,We 18:00-24:00; Tu,Th-Sa 18:00-24:00; Su 14:00-24:00", "wheelchair": "no"}}, {"type": "node", "id": 6728731685, "lat": 41.3898929, "lon": 2.1706612, "tags": {"amenity": "bar", "name": "Bobby's Free"}}, {"type": "node", "id": 6743181085, "lat": 41.3866999, "lon": 2.1838431, "tags": {"amenity": "bar", "cuisine": "mexican", "name": "San Pedrito"}}, {"type": "node", "id": 6750085589, "lat": 41.4066414, "lon": 2.1800529, "tags": {"addr:street": "Carrer de Cartagena", "amenity": "bar", "name": "Olimpo"}}, {"type": "node", "id": 6750095387, "lat": 41.4056447, "lon": 2.1796519, "tags": {"addr:housenumber": "246 bis", "addr:street": "Carrer de los Castillejos", "amenity": "bar", "check_date": "2023-05-10", "name": "El Cafete"}}, {"type": "node", "id": 6757278789, "lat": 41.3997955, "lon": 2.1753577, "tags": {"addr:street": "Carrer d'Arag\u00f3", "amenity": "bar", "name": "Taverna Chrison"}}, {"type": "node", "id": 6757314485, "lat": 41.4035327, "lon": 2.1803575, "tags": {"amenity": "bar", "check_date": "2023-10-18", "name": "Can Tansi"}}, {"type": "node", "id": 6786006487, "lat": 41.3788574, "lon": 2.1639024, "tags": {"amenity": "bar", "internet_access": "wlan", "name": "La Iglesia"}}, {"type": "node", "id": 6805613287, "lat": 41.4064936, "lon": 2.176386, "tags": {"amenity": "bar", "internet_access": "wlan", "name": "Enoteca monkstation"}}, {"type": "node", "id": 6836381136, "lat": 41.3736595, "lon": 2.1643256, "tags": {"amenity": "bar", "name": "Bota Bar"}}, {"type": "node", "id": 6870087819, "lat": 41.3993625, "lon": 2.1589245, "tags": {"addr:city": "Barcelona", "addr:housenumber": "32", "addr:postcode": "08012", "addr:street": "Carrer de Francisco Giner", "amenity": "bar", "name": "El Sabor Cubano", "opening_hours": "Mo-Su 21:00-03:00,16:00-21:00", "phone": "+34674988863", "website": "https://el-sabor-cubano-de-gracia.negocio.site/"}}, {"type": "node", "id": 6899086985, "lat": 41.3925068, "lon": 2.153664, "tags": {"amenity": "bar", "name": "Quilombo"}}, {"type": "node", "id": 6913157187, "lat": 41.3827431, "lon": 2.1759968, "tags": {"addr:housenumber": "3", "addr:street": "Carrer de la Fruita", "amenity": "bar", "name": "Anduri\u00f1a"}}, {"type": "node", "id": 6914132390, "lat": 41.3817315, "lon": 2.1876268, "tags": {"addr:housenumber": "5", "addr:postcode": "08003", "addr:street": "Carrer de Carbonell", "amenity": "bar", "cuisine": "tapas", "name": "El Nou Ramonet"}}, {"type": "node", "id": 6936466985, "lat": 41.4020809, "lon": 2.2010252, "tags": {"amenity": "bar", "name:en": "Madame George"}}, {"type": "node", "id": 6972592685, "lat": 41.3985694, "lon": 2.1622287, "tags": {"amenity": "bar", "check_date": "2023-11-02", "name": "Luzi", "wheelchair": "limited"}}, {"type": "node", "id": 6983227455, "lat": 41.3921561, "lon": 2.1703663, "tags": {"addr:housenumber": "42", "addr:street": "Carrer de Roger de Ll\u00faria", "amenity": "bar", "internet_access": "wlan", "name": "SNOOKER - Cocteles y Billarea", "name:ca": "SNOOKER - C\u00f2ctels i Billars", "name:es": "SNOOKER - Cocteles y Billares", "outdoor_seating": "no", "website:menu": "https://snookerbarcelona.com/cocteleria/"}}, {"type": "node", "id": 7003296919, "lat": 41.3756878, "lon": 2.1708412, "tags": {"amenity": "bar", "name": "Bosforo"}}, {"type": "node", "id": 7003296923, "lat": 41.3747448, "lon": 2.1609868, "tags": {"amenity": "bar", "check_date": "2023-04-26", "indoor_seating": "yes", "name": "Triple Sec", "outdoor_seating": "no"}}, {"type": "node", "id": 7003432533, "lat": 41.3868181, "lon": 2.1598447, "tags": {"amenity": "bar", "name": "Ikatz"}}, {"type": "node", "id": 7006835685, "lat": 41.3805215, "lon": 2.1781997, "tags": {"amenity": "bar", "name": "la burnessa"}}, {"type": "node", "id": 7007705985, "lat": 41.3741564, "lon": 2.16935, "tags": {"amenity": "bar", "name": "marco polo"}}, {"type": "node", "id": 7040898590, "lat": 41.3799725, "lon": 2.1801437, "tags": {"amenity": "bar", "name": "bar Celia pulperia"}}, {"type": "node", "id": 7040898592, "lat": 41.3813764, "lon": 2.1796144, "tags": {"amenity": "bar", "name": "la maison"}}, {"type": "node", "id": 7084919894, "lat": 41.3922, "lon": 2.14697, "tags": {"amenity": "bar", "name": "Piper's Tavern"}}, {"type": "node", "id": 7124857728, "lat": 41.3964797, "lon": 2.1851438, "tags": {"addr:city": "Barcelona", "addr:housenumber": "124", "addr:postcode": "08013", "addr:street": "Carrer de la Marina", "amenity": "bar", "check_date": "2024-09-24", "contact:instagram": "https://www.instagram.com/cabobarbcn", "internet_access": "wlan", "internet_access:fee": "customers", "level": "0", "name": "Cabo", "outdoor_seating": "yes", "payment:cash": "yes", "payment:credit_cards": "yes", "payment:debit_cards": "yes", "phone": "+34 936 76 23 54", "smoking": "outside", "website": "https://grupocabo.es/cabo-bar/", "wheelchair": "yes"}}, {"type": "node", "id": 7231697485, "lat": 41.392175, "lon": 2.1545647, "tags": {"addr:postcode": "08036", "amenity": "bar", "internet_access": "wlan", "name": "Galileo", "opening_hours": "Tu-Sa 19:00-03:00"}}, {"type": "node", "id": 7239581485, "lat": 41.3906484, "lon": 2.1603919, "tags": {"addr:housenumber": "215", "addr:street": "Carrer de Val\u00e8ncia", "amenity": "bar", "cuisine": "local", "name": "San Ferm\u00edn", "opening_hours": "Mo-Fr 07:10-19:00; Su 09:15-16:00", "phone": "+34934537586"}}, {"type": "node", "id": 7248439185, "lat": 41.396953, "lon": 2.1554484, "tags": {"amenity": "bar", "check_date": "2024-01-26", "name": "The City Tavern", "name:ru": "\u0413\u043e\u0440\u043e\u0434\u0441\u043a\u0430\u044f \u0442\u0430\u0432\u0435\u0440\u043d\u0430"}}, {"type": "node", "id": 7248439285, "lat": 41.3970764, "lon": 2.1556429, "tags": {"addr:housenumber": "7", "addr:street": "Pla\u00e7a de Narc\u00eds Oller", "amenity": "bar", "check_date": "2024-01-26", "name": "Sotos Bar"}}, {"type": "node", "id": 7556637988, "lat": 41.4041586, "lon": 2.1968775, "tags": {"amenity": "bar", "name": "Doncurado"}}, {"type": "node", "id": 7556637989, "lat": 41.4038732, "lon": 2.1971787, "tags": {"amenity": "bar", "name": "SiamoQu\u00e1"}}, {"type": "node", "id": 7556742593, "lat": 41.4009756, "lon": 2.2000272, "tags": {"amenity": "bar", "indoor_seating": "yes", "name": "Menjador del Centre", "name:ca": "Menjador del Centre", "outdoor_seating": "yes"}}, {"type": "node", "id": 7556742600, "lat": 41.4039082, "lon": 2.1954534, "tags": {"addr:housenumber": "118", "addr:street": "Carrer de la Llacuna", "amenity": "bar", "name": "Honest poke", "opening_hours": "Mo-Su 10:30-23:00"}}, {"type": "node", "id": 7556742601, "lat": 41.4046908, "lon": 2.194394, "tags": {"amenity": "bar", "name": "El Petit Daniel"}}, {"type": "node", "id": 7563864197, "lat": 41.4037568, "lon": 2.1986742, "tags": {"amenity": "bar", "name": "la Tanda"}}, {"type": "node", "id": 7563962192, "lat": 41.4014488, "lon": 2.2009478, "tags": {"amenity": "bar", "indoor_seating": "yes", "name": "Passeig9", "outdoor_seating": "yes"}}, {"type": "node", "id": 7572644787, "lat": 41.3973555, "lon": 2.1856288, "tags": {"amenity": "bar", "name": "Cerveseria del Roser", "name:ca": "Cerveseria del Roser"}}, {"type": "node", "id": 7572733712, "lat": 41.3957533, "lon": 2.1819773, "tags": {"amenity": "bar", "name": "las 4Estaciones"}}, {"type": "node", "id": 7615982501, "lat": 41.4003896, "lon": 2.1978586, "tags": {"amenity": "bar", "name": "La Tavernicola"}}, {"type": "node", "id": 7766426285, "lat": 41.3757875, "lon": 2.1569803, "tags": {"amenity": "bar", "name": "La Coqueta"}}, {"type": "node", "id": 7847211885, "lat": 41.3927616, "lon": 2.1659528, "tags": {"amenity": "bar", "name": "CocoVail - WINGS"}}, {"type": "node", "id": 7967385108, "lat": 41.3993926, "lon": 2.1582823, "tags": {"amenity": "bar", "check_date": "2024-10-27", "name": "El Ciclista"}}, {"type": "node", "id": 7997561910, "lat": 41.3765747, "lon": 2.1625262, "tags": {"amenity": "bar", "check_date": "2024-11-02", "name": "Bodega Vinito"}}, {"type": "node", "id": 7999446187, "lat": 41.3824905, "lon": 2.1657495, "tags": {"addr:housenumber": "37", "addr:postcode": "08001", "addr:street": "Carrer de Joaqu\u00edn Costa", "amenity": "bar", "name": "Santa Maria", "opening_hours": "Mo-Su 18:00-02:00"}}, {"type": "node", "id": 8046559285, "lat": 41.4023415, "lon": 2.1975419, "tags": {"amenity": "bar", "name": "Little Fern", "opening_hours": "Mo-Su 09:00-16:00"}}, {"type": "node", "id": 8049731597, "lat": 41.4025485, "lon": 2.2010666, "tags": {"amenity": "bar", "name": "Nina"}}, {"type": "node", "id": 8174105117, "lat": 41.3993201, "lon": 2.1597294, "tags": {"amenity": "bar", "indoor_seating": "yes", "name": "Mart\u00ednez de la Rosa 14", "outdoor_seating": "no", "payment:credit_cards": "yes", "payment:debit_cards": "yes", "smoking": "no", "wheelchair": "no"}}, {"type": "node", "id": 8254939218, "lat": 41.400093, "lon": 2.1568353, "tags": {"addr:housenumber": "15", "addr:street": "Carrer de Sant Dom\u00e8nec", "amenity": "bar", "check_date": "2024-06-02", "name": "La Vermu", "wheelchair": "no"}}, {"type": "node", "id": 8257528854, "lat": 41.3837436, "lon": 2.1826835, "tags": {"amenity": "bar", "check_date": "2023-10-29", "description": "Milano Cocktail", "name": "Etniko", "opening_hours": "Fr,Sa 18:00-03:00; Su-Th 18:00-02:30"}}, {"type": "node", "id": 8374528079, "lat": 41.3974364, "lon": 2.1505271, "tags": {"amenity": "bar", "name": "Showroom Fashion Bar"}}, {"type": "node", "id": 8418732865, "lat": 41.3894776, "lon": 2.1633571, "tags": {"addr:housenumber": "319", "addr:street": "Carrer del Consell de Cent", "amenity": "bar", "name": "Verdis.co"}}, {"type": "node", "id": 8433021718, "lat": 41.380344, "lon": 2.1794211, "tags": {"amenity": "bar", "name": "Las Cuevas de Los Rajahs", "opening_hours": "19:00-03:00"}}, {"type": "node", "id": 8497996617, "lat": 41.3980159, "lon": 2.159442, "tags": {"addr:housenumber": "10", "addr:street": "Carrer de Bonavista", "amenity": "bar", "check_date": "2023-01-31", "name": "Bodega Bonavista"}}, {"type": "node", "id": 8497996717, "lat": 41.4028732, "lon": 2.16052, "tags": {"addr:housenumber": "88", "addr:street": "Carrer de Mil\u00e0 i Fontanals", "amenity": "bar", "check_date": "2024-06-01", "name": "La Graciosa", "wheelchair": "no"}}, {"type": "node", "id": 8506259430, "lat": 41.4023604, "lon": 2.1673468, "tags": {"addr:housenumber": "450", "addr:street": "Carrer de C\u00f2rsega", "amenity": "bar", "name": "Casa Vostra", "wheelchair": "limited"}}, {"type": "node", "id": 8578962719, "lat": 41.3962828, "lon": 2.173227, "tags": {"addr:housenumber": "47", "addr:street": "Passeig de Sant Joan", "amenity": "bar", "indoor_seating": "yes", "name": "Sort", "name:ca": "Sort", "outdoor_seating": "yes"}}, {"type": "node", "id": 8715376917, "lat": 41.389246, "lon": 2.1944464, "tags": {"amenity": "bar", "name": "Casi Esquina"}}, {"type": "node", "id": 8720824328, "lat": 41.395192, "lon": 2.1501409, "tags": {"addr:housenumber": "191", "addr:street": "Carrer d'Aribau", "amenity": "bar", "name": "La Loca"}}, {"type": "node", "id": 8765272511, "lat": 41.3832276, "lon": 2.1683303, "tags": {"addr:city": "Barcelona", "addr:housenumber": "16", "addr:postcode": "08001", "addr:street": "Carrer d'Elisabets", "amenity": "bar", "cuisine": "tapas", "name": "Bar La Masia", "opening_hours": "Mo-Sa 11:00-23:00", "phone": "+34931279618"}}, {"type": "node", "id": 8820822619, "lat": 41.383759, "lon": 2.1831303, "tags": {"addr:housenumber": "4", "addr:street": "Pla\u00e7a de les Olles", "amenity": "bar", "name": "Mariposa Negra Bar"}}, {"type": "node", "id": 8833414118, "lat": 41.3764494, "lon": 2.1568339, "tags": {"amenity": "bar", "name": "Kyoudai33"}}, {"type": "node", "id": 8852227417, "lat": 41.395171, "lon": 2.1590514, "tags": {"amenity": "bar", "name": "Sintonia"}}, {"type": "node", "id": 8880631417, "lat": 41.3758771, "lon": 2.1570488, "tags": {"addr:street": "Carrer de Tamarit", "amenity": "bar", "name": "Lambicus"}}, {"type": "node", "id": 8929460260, "lat": 41.403273, "lon": 2.1567918, "tags": {"addr:city": "Barcelona", "addr:housenumber": "10", "addr:postcode": "08012", "addr:street": "Carrer de les Guilleries", "amenity": "bar", "check_date": "2024-03-24", "cuisine": "wine", "indoor_seating": "yes", "name": "La Viblioteca", "outdoor_seating": "no", "phone": "+34 932 84 42 02", "smoking": "no", "website": "https://viblioteca.com/", "wheelchair": "limited"}}, {"type": "node", "id": 8969115338, "lat": 41.3815531, "lon": 2.1669188, "tags": {"addr:housenumber": "12", "addr:street": "Carrer de Joaqu\u00edn Costa", "amenity": "bar", "name": "Carnal"}}, {"type": "node", "id": 8999571617, "lat": 41.3852677, "lon": 2.1805362, "tags": {"addr:housenumber": "14", "addr:postcode": "08003", "addr:street": "Carrer de la Princesa", "amenity": "bar", "name": "Bar Brutal", "opening_hours": "Mo, We-Th 19:00-00:30; Fr-Su 13:00-00:30"}}, {"type": "node", "id": 9025535117, "lat": 41.3897217, "lon": 2.1546674, "tags": {"amenity": "bar", "name": "Aloha", "name:ca": "Aloha Polinesian Bar", "name:en": "Aloha Polinesian Bar", "name:es": "Aloha Polinesian Bar", "opening_hours": "Tu-Su 18:00-00:30", "phone": "+34 934517962"}}, {"type": "node", "id": 9025544817, "lat": 41.3893661, "lon": 2.1541854, "tags": {"amenity": "bar", "name": "Bar La Barra"}}, {"type": "node", "id": 9064017017, "lat": 41.3909909, "lon": 2.187867, "tags": {"addr:housenumber": "52", "addr:postcode": "08005", "addr:street": "Carrer de Wellington", "amenity": "bar", "check_date": "2024-06-19", "contact:instagram": "bubarbarcelona", "cuisine": "tapas;regional", "name": "Bubar", "outdoor_seating": "yes", "payment:cash": "yes", "payment:credit_cards": "yes", "payment:debit_cards": "yes", "phone": "+34675701049", "smoking": "outside", "toilets": "yes", "wheelchair": "yes"}}, {"type": "node", "id": 9084455138, "lat": 41.3848268, "lon": 2.1826899, "tags": {"amenity": "bar", "cocktails": "yes", "name": "El Copet\u00edn"}}, {"type": "node", "id": 9097644801, "lat": 41.3842445, "lon": 2.1697428, "tags": {"addr:city": "Barcelona", "addr:housenumber": "3", "addr:street": "Carrer de les Sitges", "amenity": "bar", "description": "Whisky & Cocktails in Barcelona Since 1969", "name": "La Whiskeria", "outdoor_seating": "no", "website": "http://lawhiskeria.es/"}}, {"type": "node", "id": 9135044518, "lat": 41.3792566, "lon": 2.169167, "tags": {"amenity": "bar", "name": "Atlanta Club Social"}}, {"type": "node", "id": 9194445315, "lat": 41.38264, "lon": 2.1656158, "tags": {"addr:street": "Carrer de Joaqu\u00edn Costa", "amenity": "bar", "name": "Pantera Mambo"}}, {"type": "node", "id": 9209404971, "lat": 41.3953178, "lon": 2.1485336, "tags": {"addr:housenumber": "40", "addr:street": "Travessera de Gr\u00e0cia", "amenity": "bar", "name": "Mojo", "opening_hours": "Mo 19:00-02:00; We 19:00-02:00; Th-Sa 19:00-03:00"}}, {"type": "node", "id": 9230750652, "lat": 41.3936062, "lon": 2.1766939, "tags": {"amenity": "bar", "name": "local"}}, {"type": "node", "id": 9230934874, "lat": 41.3905009, "lon": 2.1801937, "tags": {"amenity": "bar", "check_date": "2023-10-10", "name": "Rec Comtal", "name:ca": "Rec Comtal"}}, {"type": "node", "id": 9230934875, "lat": 41.3897936, "lon": 2.1806881, "tags": {"amenity": "bar", "name": "65 Degrees"}}, {"type": "node", "id": 9233143096, "lat": 41.3760082, "lon": 2.1828893, "tags": {"amenity": "bar", "name": "rebeld"}}, {"type": "node", "id": 9233214239, "lat": 41.3812693, "lon": 2.1825324, "tags": {"amenity": "bar", "check_date": "2023-10-14", "name": "Porch"}}, {"type": "node", "id": 9233337805, "lat": 41.3869718, "lon": 2.1810871, "tags": {"amenity": "bar", "name": "La Cholita Del Born", "website": "https://cholitadelborn.blogspot.com"}}, {"type": "node", "id": 9235057509, "lat": 41.3945756, "lon": 2.1456417, "tags": {"amenity": "bar", "name": "Barbanera"}}, {"type": "node", "id": 9235057516, "lat": 41.3946324, "lon": 2.1455686, "tags": {"amenity": "bar", "name": "LVNA"}}, {"type": "node", "id": 9236150781, "lat": 41.3886595, "lon": 2.1806213, "tags": {"amenity": "bar", "check_date": "2024-09-21", "name": "Festin"}}, {"type": "node", "id": 9237835818, "lat": 41.3808319, "lon": 2.1635876, "tags": {"amenity": "bar", "check_date": "2025-03-17", "check_date:opening_hours": "2025-03-17", "name": "Via Galicia", "opening_hours": "Mo-Su 08:00-02:30"}}, {"type": "node", "id": 9241570026, "lat": 41.3864298, "lon": 2.1825466, "tags": {"amenity": "bar", "name": "M1"}}, {"type": "node", "id": 9249108996, "lat": 41.3868683, "lon": 2.1588813, "tags": {"addr:city": "Barcelona", "addr:housenumber": "69", "addr:street": "Carrer de Muntaner", "amenity": "bar", "contact:email": "info@69bcn.com", "contact:facebook": "https://www.facebook.com/69bcn", "lgbtq": "primary", "name": "69 Barcelona", "opening_hours": "Su-Th 17:30-02:30; Fr-Sa 17:30-03:00", "phone": "+34 937 817 669"}}, {"type": "node", "id": 9351295976, "lat": 41.3828095, "lon": 2.150455, "tags": {"amenity": "bar", "name": "Bar Celona"}}, {"type": "node", "id": 9353507717, "lat": 41.3877029, "lon": 2.1518451, "tags": {"amenity": "bar", "name": "La Suegra del Jardinero"}}, {"type": "node", "id": 9376342919, "lat": 41.3966728, "lon": 2.1919552, "tags": {"addr:housenumber": "122", "addr:postcode": "08018", "addr:street": "Carrer de Pallars", "air_conditioning": "no", "amenity": "bar", "email": "hijoscain@hotmail.com", "indoor_seating": "yes", "name": "Hijos de cain Bar", "opening_hours": "Fr-Sa 22:30-03:00", "operator": "PH Fr,Sa 23:00-03:00", "outdoor_seating": "no", "payment:credit_cards": "yes", "payment:debit_cards": "yes", "smoking": "no", "website": "http://www.hijosdecain.es/", "wheelchair": "no"}}, {"type": "node", "id": 9376343220, "lat": 41.3963512, "lon": 2.1922632, "tags": {"addr:housenumber": "61", "addr:postcode": "08018", "addr:street": "Carrer de Pere IV", "amenity": "bar", "contact:facebook": "airbarpoblenou", "email": "airbarpoblenou@hotmail.com", "name": "Lounge Restaurant"}}, {"type": "node", "id": 9376372117, "lat": 41.3967903, "lon": 2.1921194, "tags": {"addr:housenumber": "122", "addr:postcode": "08018", "addr:street": "Carrer de Pallars", "air_conditioning": "no", "amenity": "bar", "contact:facebook": "D9bar", "contact:instagram": "d9poblenou", "email": "ramon@denou.bar", "indoor_seating": "yes", "name": "D9", "opening_hours": "Su-Th 18:00-02:30; Fr-Sa 18:00-03:00", "outdoor_seating": "yes", "payment:credit_cards": "yes", "payment:debit_cards": "yes", "phone": "+34 933 099 202;+34 687 955 816", "smoking": "outside", "website": "https://denou.bar/", "wheelchair": "no"}}, {"type": "node", "id": 9376642417, "lat": 41.3988768, "lon": 2.1953173, "tags": {"addr:housenumber": "92", "addr:postcode": "08005", "addr:street": "Carrer de Badajoz", "amenity": "bar", "contact:facebook": "ravenpoblenou", "name": "Raven Poblenou", "opening_hours": "Fr-Sa 23:00-03:30"}}, {"type": "node", "id": 9576304317, "lat": 41.3781355, "lon": 2.1755733, "tags": {"addr:housenumber": "19", "addr:street": "La Rambla", "amenity": "bar", "name": "Maison close"}}, {"type": "node", "id": 9576316617, "lat": 41.3819102, "lon": 2.1633582, "tags": {"addr:housenumber": "59", "addr:street": "Carrer de Casanova", "amenity": "bar", "name": "Bar bordel"}}, {"type": "node", "id": 9588489317, "lat": 41.3778943, "lon": 2.1718041, "tags": {"addr:housenumber": "33", "addr:street": "Carrer del Marqu\u00e8s de Barber\u00e0", "amenity": "bar", "name": "Las Marinas"}}, {"type": "node", "id": 9590876717, "lat": 41.3930591, "lon": 2.1899199, "tags": {"addr:postcode": "08005", "air_conditioning": "yes", "amenity": "bar", "name": "Ve De Gust", "name:ca": "Ve de Gust", "opening_hours": "Sa 09:00-00:30; Mo, We-Th 08:00-23:00; Fr 08:00-00:30; Su 09:00-23:00; Tu 08:00-16:00", "phone": "+34 936 27 23 27", "smoking": "outside", "website": "https://h5.clewm.net/?url=qr61.cn%2Fo1Ua8r%2FqI3ey4g&hasredirect=1", "wheelchair": "limited"}}, {"type": "node", "id": 9592131717, "lat": 41.3789965, "lon": 2.1897011, "tags": {"amenity": "bar", "name": "Taverna Iberia"}}, {"type": "node", "id": 9651946618, "lat": 41.3922397, "lon": 2.1538817, "tags": {"addr:city": "Barcelona", "addr:housenumber": "143", "addr:postcode": "08036", "addr:street": "Carrer d'Aribau", "amenity": "bar", "delivery": "yes", "description": "Bones hamburgueses", "name": "Bar Torpedo", "opening_hours": "Mo,We,Su 13:30-02:00; Th-Sa 13:30-03:00; Tu off", "phone": "+34 938 58 37 60", "website": "https://bartorpedo.com/"}}, {"type": "node", "id": 9695473506, "lat": 41.3778929, "lon": 2.1910547, "tags": {"amenity": "bar", "name": "Iberia"}}, {"type": "node", "id": 9735540586, "lat": 41.3969724, "lon": 2.1715371, "tags": {"addr:housenumber": "364", "addr:street": "Carrer d'Arag\u00f3", "amenity": "bar", "internet_access": "wlan", "name": "La Cueva Lounge Club", "name:ca": "Transcendir"}}, {"type": "node", "id": 9751128488, "lat": 41.3962698, "lon": 2.1516852, "tags": {"addr:housenumber": "28", "addr:street": "Carrer de Tuset", "amenity": "bar", "contact:email": "info@latraviesatuset.com", "contact:mobile": "+34 655 18 56 55", "contact:website": "https://www.latraviesatuset.com/", "name": "La Traviesa"}}, {"type": "node", "id": 9796948717, "lat": 41.3820819, "lon": 2.1875157, "tags": {"amenity": "bar", "name": "Bar Fanny"}}, {"type": "node", "id": 9800778620, "lat": 41.3850495, "lon": 2.1483645, "tags": {"amenity": "bar", "name": "Roca", "name:ca": "Roca"}}, {"type": "node", "id": 9801064617, "lat": 41.3871117, "lon": 2.149369, "tags": {"amenity": "bar", "name": "Bar Dobla"}}, {"type": "node", "id": 9801064917, "lat": 41.385904, "lon": 2.1471232, "tags": {"amenity": "bar", "name:en": "Bassy"}}, {"type": "node", "id": 9801815119, "lat": 41.3908303, "lon": 2.1468062, "tags": {"amenity": "bar", "name:en": "Urgell Londres"}}, {"type": "node", "id": 9801996419, "lat": 41.3870274, "lon": 2.1491994, "tags": {"amenity": "bar", "name": "Dada"}}, {"type": "node", "id": 9801996517, "lat": 41.3868785, "lon": 2.14898, "tags": {"amenity": "bar", "name:en": "Ruc"}}, {"type": "node", "id": 9806292617, "lat": 41.388869, "lon": 2.1467626, "tags": {"amenity": "bar", "name:en": "Granja Paris"}}, {"type": "node", "id": 9825433717, "lat": 41.394267, "lon": 2.1468714, "tags": {"amenity": "bar", "name:en": "Bar Michigan"}}, {"type": "node", "id": 9853530517, "lat": 41.3910241, "lon": 2.1495361, "tags": {"amenity": "bar", "name": "El Pesebre"}}, {"type": "node", "id": 9880462573, "lat": 41.3754793, "lon": 2.1586709, "tags": {"amenity": "bar", "check_date": "2022-07-11", "facebook": "vdevermut", "name": "V de Vermut"}}, {"type": "node", "id": 9881572018, "lat": 41.3778621, "lon": 2.1556142, "tags": {"amenity": "bar", "name": "Can Toni", "name:ca": "Can Toni"}}, {"type": "node", "id": 9962078977, "lat": 41.4032161, "lon": 2.1569356, "tags": {"amenity": "bar", "name": "La Perla", "name:ca": "La Perla"}}, {"type": "node", "id": 9978518192, "lat": 41.3850976, "lon": 2.1550066, "tags": {"addr:housenumber": "134", "addr:street": "Carrer del Comte d'Urgell", "amenity": "bar", "name": "Orient Express Cocktail Bar", "opening_hours": "Mo-Fr 18:00-02:30; Sa, Su 18:00-03:00", "website": "https://www.orientexpress.bar/"}}, {"type": "node", "id": 10000259337, "lat": 41.3729431, "lon": 2.1458606, "tags": {"addr:city": "Barcelona", "addr:postcode": "08014", "amenity": "bar", "name": "Lola Bar", "payment:cash": "only"}}, {"type": "node", "id": 10004052757, "lat": 41.3848053, "lon": 2.1508458, "tags": {"addr:city": "Barcelona", "addr:housenumber": "200", "addr:postcode": "08029", "addr:street": "Carrer de Viladomat", "amenity": "bar", "name": "Sant Jordi", "name:ca": "Sant Jordi"}}, {"type": "node", "id": 10004052758, "lat": 41.3847369, "lon": 2.1508471, "tags": {"addr:city": "Barcelona", "addr:housenumber": "200", "addr:postcode": "08029", "addr:street": "Carrer de Viladomat", "amenity": "bar", "name": "L'escale"}}, {"type": "node", "id": 10008275818, "lat": 41.3808865, "lon": 2.1791969, "tags": {"amenity": "bar", "name:en": "bar 18"}}, {"type": "node", "id": 10055610428, "lat": 41.3725512, "lon": 2.1485109, "tags": {"addr:city": "Barcelona", "addr:housenumber": "1", "addr:street": "Carrer de Sant Fructu\u00f3s", "amenity": "bar", "brewery": "yes", "contact:facebook": "https://www.facebook.com/jubebardetapas", "cuisine": "tapas", "name": "Jube", "outdoor_seating": "yes"}}, {"type": "node", "id": 10060431241, "lat": 41.3740746, "lon": 2.163286, "tags": {"addr:city": "Barcelona", "addr:housenumber": "45", "addr:street": "Carrer de Blai", "amenity": "bar", "name": "Vi & Beers", "outdoor_seating": "yes"}}, {"type": "node", "id": 10094901604, "lat": 41.3954057, "lon": 2.1521057, "tags": {"addr:housenumber": "1", "addr:street": "Carrer de Moi\u00e0", "amenity": "bar", "name": "Mobsters"}}, {"type": "node", "id": 10118537517, "lat": 41.3939461, "lon": 2.1787407, "tags": {"amenity": "bar", "name": "Bescuit"}}, {"type": "node", "id": 10169352800, "lat": 41.3891366, "lon": 2.1796504, "tags": {"addr:city": "Barcelona", "addr:housenumber": "2", "addr:postcode": "08003", "addr:street": "Carrer del Rec Comtal", "amenity": "bar", "cuisine": "spanish", "name": "Quillo", "opening_hours": "12:00-01:00", "phone": "+34 931 383 130", "website": "https://quillo-bar.com", "wheelchair": "limited"}}, {"type": "node", "id": 10171074275, "lat": 41.3898237, "lon": 2.1805681, "tags": {"amenity": "bar", "name": "Torres", "name:ca": "Torres"}}, {"type": "node", "id": 10171120677, "lat": 41.3842331, "lon": 2.1840596, "tags": {"amenity": "bar", "name": "Bronzo"}}, {"type": "node", "id": 10171304748, "lat": 41.3789324, "lon": 2.1917455, "tags": {"amenity": "bar", "name": "Rias do Mi\u00f1o"}}, {"type": "node", "id": 10174431691, "lat": 41.3870993, "lon": 2.1799242, "tags": {"amenity": "bar", "cuisine": "italian", "name": "Zero Nove Cinque"}}, {"type": "node", "id": 10175898599, "lat": 41.3977448, "lon": 2.171293, "tags": {"amenity": "bar", "name": "100 Montaditos"}}, {"type": "node", "id": 10176586129, "lat": 41.3824601, "lon": 2.1743591, "tags": {"amenity": "bar", "name": "Bar Mono"}}, {"type": "node", "id": 10177244834, "lat": 41.3861463, "lon": 2.1799556, "tags": {"amenity": "bar", "name": "Piel de Gallina"}}, {"type": "node", "id": 10178145293, "lat": 41.3828093, "lon": 2.1664756, "tags": {"amenity": "bar", "indoor_seating": "yes", "name": "MACBA", "name:ca": "MACBA", "outdoor_seating": "yes", "wheelchair": "no"}}, {"type": "node", "id": 10181211974, "lat": 41.3908805, "lon": 2.1783965, "tags": {"amenity": "bar", "name": "Mariona"}}, {"type": "node", "id": 10181211975, "lat": 41.3908292, "lon": 2.1782443, "tags": {"amenity": "bar", "name": "Baozi Bar"}}, {"type": "node", "id": 10202550005, "lat": 41.4009959, "lon": 2.1814915, "tags": {"amenity": "bar", "name": "Bar restaurante gaza"}}, {"type": "node", "id": 10208158317, "lat": 41.3962082, "lon": 2.151372, "tags": {"addr:housenumber": "19", "addr:street": "Carrer de Tuset", "amenity": "bar", "name": "Gatsby"}}, {"type": "node", "id": 10225441781, "lat": 41.3743758, "lon": 2.1673941, "tags": {"addr:city": "Barcelona", "addr:housenumber": "3", "addr:postcode": "08004", "addr:street": "Carrer del Roser", "amenity": "bar", "check_date:currency:XBT": "2022-11-29", "currency:XBT": "yes", "email": "Radionossafam@gmail.com", "name": "Radio Nossa", "payment:lightning": "yes", "payment:lightning_contactless": "no", "payment:onchain": "no", "phone": "+34 675 103 073", "website": "https://radionossa.com"}}, {"type": "node", "id": 10243372710, "lat": 41.379207, "lon": 2.1729736, "tags": {"amenity": "bar", "name": "Bodega Valls"}}, {"type": "node", "id": 10251700509, "lat": 41.4033498, "lon": 2.1535956, "tags": {"amenity": "bar", "name": "Mano a Mano"}}, {"type": "node", "id": 10282626825, "lat": 41.3984717, "lon": 2.1549883, "tags": {"addr:city": "Barcelona", "addr:housenumber": "59", "addr:postcode": "08006", "addr:street": "Carrer de la Riera de Sant Miquel", "air_conditioning": "yes", "amenity": "bar", "check_date": "2024-07-20", "contact:instagram": "https://www.instagram.com/oblicuohifibar", "min_age": "18", "name": "Oblicuo Hi-Fi", "opening_hours": "We 20:00-02:00; Th 21:00-02:00; Fr-Sa 21:00-03:00; Su 19:30-22:30", "outdoor_seating": "no", "payment:cash": "yes", "payment:credit_cards": "yes", "payment:debit_cards": "yes", "reservation": "no", "website": "https://www.oblicuohifibar.com"}}, {"type": "node", "id": 10287678246, "lat": 41.3831319, "lon": 2.1808369, "tags": {"amenity": "bar", "name": "Teranga"}}, {"type": "node", "id": 10314921311, "lat": 41.3902959, "lon": 2.1580769, "tags": {"addr:housenumber": "202", "addr:street": "Carrer d'Enric Granados", "amenity": "bar", "name": "Karamba", "opening_hours": "Tu-Th 17:30-00:30; Fr 17:30-01:00; Sa 12:00-01:00; Su 12:00-00:00", "phone": "+34934535012"}}, {"type": "node", "id": 10557306810, "lat": 41.3824953, "lon": 2.1659078, "tags": {"addr:housenumber": "36", "addr:street": "Carrer de Joaqu\u00edn Costa", "amenity": "bar", "name": "Lucky Schmuck"}}, {"type": "node", "id": 10624636006, "lat": 41.3888732, "lon": 2.1567155, "tags": {"amenity": "bar", "name": "Sips"}}, {"type": "node", "id": 10651341605, "lat": 41.3690547, "lon": 2.1654635, "tags": {"addr:city": "Barcelona", "addr:housenumber": "31", "addr:postcode": "08038", "addr:street": "Avinguda Miramar", "amenity": "bar", "check_date": "2023-04-07", "contact:email": "salts@saltsmontjuic.com", "contact:phone": "+34 938 065 515", "name": "Salts", "name:es": "Salts", "note": "Es fan reserves nom\u00e9s per a grups a partir de 10 persones o m\u00e9s i sempre amb men\u00fa concertat.", "opening_hours": "Mo-Th 11:00-19:00; Fr 11:00-20:00; Sa 10:30-20:00; Su 10:30-19:00", "opening_hours:live_music": "Sa 13:00-15:00; Su 13:00-15:00", "website": "https://www.saltsmontjuic.com/", "website:menu": "https://www.saltsmontjuic.com/carta/", "website:menu:ca": "https://www.saltsmontjuic.com/ca/carta/", "website:menu:en": "https://www.saltsmontjuic.com/en/carta/", "website:menu:es": "https://www.saltsmontjuic.com/carta/"}}, {"type": "node", "id": 10690659453, "lat": 41.3768861, "lon": 2.1511233, "tags": {"addr:city": "Barcelona", "addr:housenumber": "399", "addr:street": "Gran Via de les Corts Catalanes", "amenity": "bar", "email": "retruc_retruc@hotmail.es", "name": "Retruc", "phone": "+34 93 423 16 59", "sport": "billiards;table_soccer;darts"}}, {"type": "node", "id": 10712915305, "lat": 41.386245, "lon": 2.1590499, "tags": {"addr:postcode": "08011", "amenity": "bar", "name": "La Sastrer\u00eda Caf\u00e9", "opening_hours": "Mo-We 17:00-02:00; Th-Fr 17:00-03:00; Sa 16:00-03:00; Su 15:00-03:00"}}, {"type": "node", "id": 10721064807, "lat": 41.3893117, "lon": 2.1708667, "tags": {"addr:housenumber": "22", "addr:street": "Carrer de Casp", "amenity": "bar", "contact:facebook": "bonavidabar", "cuisine": "coffee_shop;tapas", "email": "info@bonavidabcn.com", "name": "Bonavida", "outdoor_seating": "yes", "phone": "+34 605 55 73 23", "toilets": "yes", "website": "https://www.bonavidabcn.com/"}}, {"type": "node", "id": 10725900581, "lat": 41.3879388, "lon": 2.1617272, "tags": {"amenity": "bar", "name": "Espit Chupitos", "website": "https://www.espitchupitos.com"}}, {"type": "node", "id": 10748371105, "lat": 41.3763587, "lon": 2.1529535, "tags": {"amenity": "bar", "name": "Bar Vilamari"}}, {"type": "node", "id": 10753029505, "lat": 41.3726691, "lon": 2.1673559, "tags": {"addr:housenumber": "34", "addr:street": "Carrer de Blesa", "amenity": "bar", "name": "Bar Restaurant Darling"}}, {"type": "node", "id": 10761759752, "lat": 41.4005098, "lon": 2.156857, "tags": {"addr:housenumber": "7", "addr:street": "Carrer de Matilde", "amenity": "bar", "check_date": "2024-02-22", "name": "Ballbreaker", "payment:cash": "yes", "payment:credit_cards": "yes", "payment:debit_cards": "yes", "wheelchair": "no"}}, {"type": "node", "id": 10763321959, "lat": 41.3994529, "lon": 2.1551148, "tags": {"amenity": "bar", "check_date": "2023-09-23", "name": "Bar de Gr\u00e0cia", "wheelchair": "no"}}, {"type": "node", "id": 10763427298, "lat": 41.404541, "lon": 2.1735047, "tags": {"amenity": "bar", "name": "Sagrades Tannines"}}, {"type": "node", "id": 10776435328, "lat": 41.3723066, "lon": 2.1671121, "tags": {"amenity": "bar", "name": "La Ra\u00edz"}}, {"type": "node", "id": 10780356542, "lat": 41.3736734, "lon": 2.1685129, "tags": {"amenity": "bar", "name": "Mala Hierba Coctel Bar"}}, {"type": "node", "id": 10785206630, "lat": 41.3947399, "lon": 2.1816521, "tags": {"amenity": "bar", "name": "La Llesca"}}, {"type": "node", "id": 10785247110, "lat": 41.3936986, "lon": 2.1789779, "tags": {"amenity": "bar", "name": "Bescuit"}}, {"type": "node", "id": 10805454505, "lat": 41.3781187, "lon": 2.1731479, "tags": {"addr:housenumber": "34", "addr:postcode": "08001", "addr:street": "Carrer Nou de la Rambla", "amenity": "bar", "contact:instagram": "londonbarbcn", "name:en": "London Bar", "opening_hours": "Su-Th 19:00-02:30; Fr-Sa 19:00-03:00", "phone": "938 08 21 87", "website": "https://londonbar-bar.negocio.site/", "wikidata": "Q24341148", "wikimedia_commons": "Category:London Bar", "wikipedia": "ca:London Bar"}}, {"type": "node", "id": 10834224105, "lat": 41.388072, "lon": 2.1672595, "tags": {"addr:housenumber": "15", "addr:street": "Rambla de Catalunya", "amenity": "bar", "name": "Belbo dos besos", "opening_hours": "Mo-Su 13:00-23:00"}}, {"type": "node", "id": 10846482663, "lat": 41.3735976, "lon": 2.1891724, "tags": {"amenity": "bar", "contact:instagram": "beachgardennassbcn", "name": "Beach Garden"}}, {"type": "node", "id": 10855981515, "lat": 41.3925304, "lon": 2.1701036, "tags": {"addr:housenumber": "286", "addr:postcode": "08009", "addr:street": "Carrer de la Diputaci\u00f3", "amenity": "bar", "contact:facebook": "borobarbcn", "contact:instagram": "borobarbcn", "email": "info@borobar.es", "name": "Boro Bar", "phone": "+34 933 17 57 05", "website": "https://www.borobar.es/"}}, {"type": "node", "id": 10858536757, "lat": 41.3909785, "lon": 2.1602158, "tags": {"addr:city": "Barcelona", "addr:street": "Carrer de Balmes", "amenity": "bar", "live_music": "yes", "name": "New Fizz"}}, {"type": "node", "id": 10858539312, "lat": 41.392897, "lon": 2.1575663, "tags": {"addr:city": "Barcelona", "addr:housenumber": "129", "addr:postcode": "08008", "addr:street": "Carrer de Balmes", "air_conditioning": "yes", "alt_name": "El Medi", "amenity": "bar", "check_date": "2024-10-26", "contact:instagram": "https://www.instagram.com/el_medi_bcn", "live_music": "yes", "name": "Bar Mediterraneo", "opening_hours": "Tu 22:30-03:00; We-Su 20:00-03:00", "outdoor_seating": "no", "payment:cash": "yes", "payment:credit_cards": "yes", "payment:debit_cards": "yes", "smoking": "no", "wheelchair": "no"}}, {"type": "node", "id": 11028575851, "lat": 41.3769132, "lon": 2.1511745, "tags": {"addr:housenumber": "399", "addr:street": "Gran Via de les Corts Catalanes", "amenity": "bar", "name": "Bar de Copes"}}, {"type": "node", "id": 11030312974, "lat": 41.3873567, "lon": 2.1520576, "tags": {"addr:city": "Barcelona", "addr:housenumber": "182", "addr:postcode": "08036", "addr:street": "Carrer del Comte d'Urgell", "addr:unit": "local 3", "amenity": "bar", "check_date": "2024-08-19", "contact:facebook": "https://www.facebook.com/people/COYOTE-D7-POOL/100064055981765/", "currency:XBT": "no", "name": "COYOTE D7 POOL", "payment:lightning": "no", "payment:lightning_contactless": "no", "payment:onchain": "no", "phone": "+34 669405530", "survey:date": "2023-07-06"}}, {"type": "node", "id": 11032312992, "lat": 41.3751894, "lon": 2.1645755, "tags": {"addr:street": "Avinguda del Paral\u00b7lel", "amenity": "bar", "name": "La nuit cocteler\u00eda"}}, {"type": "node", "id": 11052567962, "lat": 41.378057, "lon": 2.1789373, "tags": {"amenity": "bar", "name": "Gran Torino", "opening_hours": "Mo, Tu 09:00-17:00; We 09:00-00:00; Th 09:00-01:00; Fr, Sa 09:00-02:00"}}, {"type": "node", "id": 11076635705, "lat": 41.4057955, "lon": 2.1570609, "tags": {"addr:housenumber": "32", "addr:street": "Carrer del Rob\u00ed", "amenity": "bar", "name": "Las Vermudas"}}, {"type": "node", "id": 11089452500, "lat": 41.3836071, "lon": 2.1690886, "tags": {"amenity": "bar", "name": "Manoda"}}, {"type": "node", "id": 11100962505, "lat": 41.3955024, "lon": 2.1677449, "tags": {"addr:housenumber": "97", "addr:street": "Carrer del Bruc", "amenity": "bar", "name:en": "Bar Dow Jones", "website": "http://Dowjonesbar.com"}}, {"type": "node", "id": 11114801465, "lat": 41.3797828, "lon": 2.150227, "tags": {"amenity": "bar", "brewery": "yes", "check_date": "2023-08-14", "internet_access": "wlan", "internet_access:fee": "no", "name": "La Parchita Bar"}}, {"type": "node", "id": 11141876958, "lat": 41.3679758, "lon": 2.1904391, "tags": {"addr:state": "CT", "addr:street": "Pla\u00e7a de la Rosa dels Vents", "air_conditioning": "no", "amenity": "bar", "check_date": "2024-09-27", "name": "Jardinet del Mar", "outdoor_seating": "yes", "payment:mastercard": "yes", "payment:visa": "yes", "source": "survey", "wheelchair": "yes"}}, {"type": "node", "id": 11150233030, "lat": 41.3978501, "lon": 2.1608863, "tags": {"addr:housenumber": "339", "addr:street": "Carrer de C\u00f2rsega", "amenity": "bar", "check_date": "2024-07-13", "name": "mini pepita", "wheelchair": "no"}}, {"type": "node", "id": 11150234664, "lat": 41.3978138, "lon": 2.1608423, "tags": {"addr:housenumber": "339", "addr:street": "Carrer de C\u00f2rsega", "amenity": "bar", "check_date": "2024-07-13", "internet_access": "no", "name": "Bodega Solera"}}, {"type": "node", "id": 11165441444, "lat": 41.4064718, "lon": 2.1556565, "tags": {"addr:housenumber": "30", "addr:street": "Carrer de Verntallat", "amenity": "bar", "check_date": "2023-09-03", "description:en": "Cultural center with live jazz music", "live_music": "yes", "name": "La Muriel"}}, {"type": "node", "id": 11186236506, "lat": 41.3976893, "lon": 2.1656118, "tags": {"amenity": "bar", "level": "0", "name": "Bar Joan", "outdoor_seating": "yes", "wheelchair": "limited"}}, {"type": "node", "id": 11189068324, "lat": 41.3976002, "lon": 2.1649817, "tags": {"amenity": "bar", "check_date": "2024-05-18", "level": "0", "name": "Salto Alto", "outdoor_seating": "yes", "wheelchair": "limited"}}, {"type": "node", "id": 11210192009, "lat": 41.3821716, "lon": 2.1640706, "tags": {"addr:housenumber": "31", "addr:street": "Carrer del Tigre", "amenity": "bar", "contact:instagram": "https://instagram.com/barelpollo", "description": "Cocina tradicional Vasca con influencias de la Pen\u00ednsula Ib\u00e9rica", "name": "El Pollo", "opening_hours": "We, Th 18:30-01:00; Fr-Su 12:30-02:00", "phone": "+34611166276"}}, {"type": "node", "id": 11255870073, "lat": 41.3976154, "lon": 2.1568081, "tags": {"addr:housenumber": "23", "addr:street": "Carrer de la Riera de Sant Miquel", "amenity": "bar", "check_date": "2023-10-11", "name": "Tres T\u00edos"}}, {"type": "node", "id": 11255946463, "lat": 41.3997255, "lon": 2.1574973, "tags": {"amenity": "bar", "check_date": "2023-10-11", "description": "Ateneu Independentista i Popular de la Vila de Gr\u00e0cia", "name": "La Torna"}}, {"type": "node", "id": 11255946635, "lat": 41.3997879, "lon": 2.1575864, "tags": {"amenity": "bar", "check_date": "2023-10-11", "name": "Y & H"}}, {"type": "node", "id": 11255961498, "lat": 41.4004487, "lon": 2.1598594, "tags": {"addr:housenumber": "38", "addr:street": "Carrer del Progr\u00e9s", "amenity": "bar", "check_date": "2023-10-11", "contact:instagram": "https://www.instagram.com/pez_bruja", "description": "Live Music Bar", "live_music": "yes", "name": "Pez Bruja", "opening_hours": "We-Sa 21:30-02:00", "smoking": "no", "start_date": "2023", "website": "https://www.pezbruja.es"}}, {"type": "node", "id": 11262978005, "lat": 41.38129, "lon": 2.1831964, "tags": {"amenity": "bar", "check_date": "2023-10-14", "name": "La Cala"}}, {"type": "node", "id": 11297720038, "lat": 41.3792288, "lon": 2.1467864, "tags": {"addr:housenumber": "38-40", "addr:street": "Carrer de Llan\u00e7a", "amenity": "bar", "check_date": "2023-10-29", "cuisine": "tapas", "name": "Galicia", "outdoor_seating": "yes", "wheelchair": "limited"}}, {"type": "node", "id": 11301059521, "lat": 41.3797952, "lon": 2.1669738, "tags": {"amenity": "bar", "name": "Big Bang Bar"}}, {"type": "node", "id": 11308435590, "lat": 41.4006099, "lon": 2.164993, "tags": {"addr:housenumber": "416", "addr:street": "Carrer de C\u00f2rsega", "amenity": "bar", "check_date": "2023-11-02", "name": "Tapitas Bar"}}, {"type": "node", "id": 11308448562, "lat": 41.4005936, "lon": 2.1654911, "tags": {"amenity": "bar", "check_date": "2023-11-02", "name": "Schultz", "smoking": "outside"}}, {"type": "node", "id": 11309568626, "lat": 41.3731086, "lon": 2.1671059, "tags": {"addr:city": "Barcelona", "addr:country": "ES", "addr:housenumber": "23", "addr:postcode": "08004", "addr:street": "Carrer d'en Fontrodona", "amenity": "bar", "email": "contact@lilithandsons.com", "mobile": "+34 665890210", "name": "Lilith & sons", "opening_hours": "Mo-Su 19:00-23:59; Mo-Su 00:00-2:30;", "website": "https://www.lilithandsons.com/"}}, {"type": "node", "id": 11339601034, "lat": 41.4033032, "lon": 2.1584784, "tags": {"addr:housenumber": "39", "addr:street": "Carrer de Terol", "amenity": "bar", "check_date": "2024-10-20", "name": "Don Porfi", "wheelchair": "no"}}, {"type": "node", "id": 11339625300, "lat": 41.4043147, "lon": 2.1546801, "tags": {"addr:housenumber": "155", "addr:street": "Carrer de Torrent de l'Olla", "amenity": "bar", "check_date": "2023-11-10", "name": "Tasta Gr\u00e0cia"}}, {"type": "node", "id": 11341627793, "lat": 41.3852192, "lon": 2.1592787, "tags": {"addr:postcode": "08011", "amenity": "bar", "name": "Conese Beer Barcelona", "name:ca": "Conesa Beer Barcelona", "name:en": "Conesa Beer Barcelona", "name:es": "Conesa Beer Barcelona", "website": "https://conesabeerbarcelona.com/"}}, {"type": "node", "id": 11343845074, "lat": 41.4032321, "lon": 2.1590579, "tags": {"addr:housenumber": "30", "addr:street": "Carrer de Torrijos", "amenity": "bar", "check_date": "2023-11-12", "cuisine": "mexican", "name": "Chido One", "wheelchair": "no"}}, {"type": "node", "id": 11352239769, "lat": 41.3800163, "lon": 2.180179, "tags": {"addr:housenumber": "13", "addr:street": "Carrer de la Merc\u00e8", "amenity": "bar", "name": "Casa del Molinero"}}, {"type": "node", "id": 11358114297, "lat": 41.3932964, "lon": 2.1705787, "tags": {"amenity": "bar", "name": "Adlivitum", "opening_hours": "Mo-Fr 09:30-23:00"}}, {"type": "node", "id": 11358377944, "lat": 41.3937062, "lon": 2.1693831, "tags": {"amenity": "bar", "check_date": "2024-05-04", "name": "Animar"}}, {"type": "node", "id": 11359049486, "lat": 41.3844527, "lon": 2.1833081, "tags": {"amenity": "bar", "name": "Lying"}}, {"type": "node", "id": 11359142730, "lat": 41.3796065, "lon": 2.1878027, "tags": {"amenity": "bar", "name": "The Fastnet"}}, {"type": "node", "id": 11384477969, "lat": 41.4035628, "lon": 2.1600702, "tags": {"amenity": "bar", "name": "Canana"}}, {"type": "node", "id": 11425756169, "lat": 41.3858798, "lon": 2.1792822, "tags": {"amenity": "bar"}}, {"type": "node", "id": 11460202370, "lat": 41.3856632, "lon": 2.1541666, "tags": {"addr:postcode": "08011", "amenity": "bar", "cuisine": "tapas", "name": "La Mala Vermut & Tapas", "opening_hours": "Mo-Th 17:30-00:30; Fr-Su 12:30-00:30", "phone": "+34 936 78 62 93"}}, {"type": "node", "id": 11479641170, "lat": 41.3996132, "lon": 2.1592608, "tags": {"addr:postcode": "08012", "amenity": "bar", "cuisine": "mediterranean", "name": "El Villa \u2014 Vermuteria del mar", "opening_hours": "We-Fr 18:00-00:00; Sa 12:00-00:00; Su 12:00-18:00", "phone": "644 34 31 78", "website": "https://elvillavermuteria.com/"}}, {"type": "node", "id": 11480713288, "lat": 41.3744178, "lon": 2.1624159, "tags": {"addr:housenumber": "53", "addr:street": "Carrer de Blai", "amenity": "bar", "name": "Denassus", "opening_hours": "Fr, Sa 13:00-00:00; Tu-Th, Su 13:00-23:00", "website": "https://www.denassus.com/"}}, {"type": "node", "id": 11491702269, "lat": 41.3981735, "lon": 2.1704068, "tags": {"addr:postcode": "08009", "amenity": "bar", "contact:facebook": "LordByronBarcelona", "name": "Lord Byron", "opening_hours": "Su-Th 23:30-04:45; Fr-Sa 23:30-05:30"}}, {"type": "node", "id": 11522740226, "lat": 41.3988047, "lon": 2.1542335, "tags": {"amenity": "bar", "name": "Bar - Restaurant San Miguel"}}, {"type": "node", "id": 11522743412, "lat": 41.3984573, "lon": 2.1550698, "tags": {"amenity": "bar", "name": "Bella Bestia"}}, {"type": "node", "id": 11525759569, "lat": 41.383295, "lon": 2.1813087, "tags": {"amenity": "bar", "name": "Flip\u00e1 Gin", "name:es": "Flip\u00e1 Gin"}}, {"type": "node", "id": 11529081370, "lat": 41.3893364, "lon": 2.1559958, "tags": {"amenity": "bar", "name:en": "Hemingway Gin & Cocktail Bar"}}, {"type": "node", "id": 11551510843, "lat": 41.3980574, "lon": 2.1595018, "tags": {"amenity": "bar", "check_date": "2024-06-02", "name": "Mendrugo"}}, {"type": "node", "id": 11554658000, "lat": 41.3970077, "lon": 2.1555654, "tags": {"addr:housenumber": "7-8", "addr:street": "Pla\u00e7a de Narc\u00eds Oller", "amenity": "bar", "check_date": "2024-01-26", "name": "Demo"}}, {"type": "node", "id": 11555082324, "lat": 41.3789569, "lon": 2.1750386, "tags": {"amenity": "bar", "name": "The Old Irish Pub"}}, {"type": "node", "id": 11617295979, "lat": 41.3738796, "lon": 2.1690488, "tags": {"addr:city": "Barcelona", "addr:housenumber": "119", "addr:postcode": "08004", "addr:street": "Carrer Nou de la Rambla", "amenity": "bar", "contact:instagram": "https://www.instagram.com/stereobarcelona/", "name": "Stereo Bar", "opening_hours": "We-Sa 19:00-03:00", "outdoor_seating": "yes", "payment:cash": "yes", "payment:contactless": "yes", "payment:credit_cards": "yes"}}, {"type": "node", "id": 11653499822, "lat": 41.4004327, "lon": 2.1571155, "tags": {"addr:housenumber": "2", "addr:street": "Carrer de Matilde", "amenity": "bar", "check_date": "2024-02-22", "name": "Vinilo"}}, {"type": "node", "id": 11672379348, "lat": 41.4013812, "lon": 2.1568647, "tags": {"addr:housenumber": "2", "addr:street": "Pla\u00e7a del Sol", "amenity": "bar", "check_date": "2024-02-28", "name": "Marcelino"}}, {"type": "node", "id": 11684557639, "lat": 41.3876206, "lon": 2.1533627, "tags": {"amenity": "bar", "name": "Buc"}}, {"type": "node", "id": 11684558635, "lat": 41.4004935, "lon": 2.1631813, "tags": {"addr:city": "Barcelona", "addr:postcode": "08012", "addr:street": "Carrer de Mil\u00e0 i Fontanals", "amenity": "bar", "name": "Gracia's Bar"}}, {"type": "node", "id": 11684957082, "lat": 41.3893009, "lon": 2.1630481, "tags": {"amenity": "bar", "check_date": "2025-02-07", "name": "Bar Stop"}}, {"type": "node", "id": 11684957083, "lat": 41.3893019, "lon": 2.162955, "tags": {"amenity": "bar", "check_date": "2025-02-07", "name": "Pink Corner"}}, {"type": "node", "id": 11694294245, "lat": 41.3993606, "lon": 2.1583244, "tags": {"amenity": "bar", "check_date": "2024-04-17", "name": "Barravas"}}, {"type": "node", "id": 11694296035, "lat": 41.3984018, "lon": 2.1591421, "tags": {"addr:housenumber": "3", "addr:street": "Carrer de Ferrer de Blanes", "amenity": "bar", "check_date": "2024-06-02", "name": "Bloody Mary", "outdoor_seating": "no", "wheelchair": "no"}}, {"type": "node", "id": 11700913307, "lat": 41.3989754, "lon": 2.1538227, "tags": {"amenity": "bar", "name": "O'Xestal"}}, {"type": "node", "id": 11709564832, "lat": 41.3901347, "lon": 2.1574098, "tags": {"amenity": "bar", "name": "Parodia", "survey:date": "2024-03-10"}}, {"type": "node", "id": 11728773869, "lat": 41.4057074, "lon": 2.1700289, "tags": {"addr:housenumber": "361", "addr:postcode": "08025", "addr:street": "Carrer de Sardenya", "amenity": "bar", "cuisine": "tapas", "name": "Bodega Iturre", "opening_hours": "Mo-Fr 09:30-14:00, 17:30-22:00; Sa-Su 10:00-15:00"}}, {"type": "node", "id": 11761709250, "lat": 41.371872, "lon": 2.1475761, "tags": {"amenity": "bar", "check_date": "2024-03-25", "name": "Bodega Amposta"}}, {"type": "node", "id": 11880924678, "lat": 41.4055775, "lon": 2.1620441, "tags": {"addr:housenumber": "57", "addr:street": "Carrer de Bruniquer", "amenity": "bar", "check_date": "2024-05-05", "name": "La Sala"}}, {"type": "node", "id": 11881557269, "lat": 41.3917652, "lon": 2.1737085, "tags": {"amenity": "bar", "name": "La Whiskeria"}}, {"type": "node", "id": 11886487036, "lat": 41.4055774, "lon": 2.162044, "tags": {"addr:housenumber": "57", "addr:street": "Carrer de Bruniquer", "amenity": "bar", "check_date": "2024-05-05", "name": "La Sala"}}, {"type": "node", "id": 11940248363, "lat": 41.385687, "lon": 2.1816538, "tags": {"amenity": "bar", "name": "Bubita Sangria Bar", "opening_hours": "Su-Th 10:00-23:00, Fr,Sa 10:00-24:00"}}, {"type": "node", "id": 11945518362, "lat": 41.3902648, "lon": 2.1611361, "tags": {"addr:housenumber": "69", "addr:street": "Carrer de Balmes", "amenity": "bar", "check_date": "2024-05-30", "name": "Carita Bonita"}}, {"type": "node", "id": 11956563069, "lat": 41.3949723, "lon": 2.1483532, "tags": {"amenity": "bar", "name": "Gin Palau Barcelona"}}, {"type": "node", "id": 11964992970, "lat": 41.3842823, "lon": 2.1800016, "tags": {"addr:housenumber": "8", "addr:postcode": "08003", "addr:street": "Carrer dels Vigatans", "amenity": "bar", "name": "Animal del Vi"}}, {"type": "node", "id": 11967084934, "lat": 41.4048475, "lon": 2.1551277, "tags": {"addr:housenumber": "16", "addr:street": "Carrer de Topazi", "amenity": "bar", "check_date": "2024-06-09", "name": "Drunkat"}}, {"type": "node", "id": 11978457507, "lat": 41.3877438, "lon": 2.1610458, "tags": {"amenity": "bar", "name": "El Classic"}}, {"type": "node", "id": 11978457509, "lat": 41.3876718, "lon": 2.1609609, "tags": {"amenity": "bar", "name": "Priscilla Caf\u00e8"}}, {"type": "node", "id": 12020145686, "lat": 41.3704008, "lon": 2.1880974, "tags": {"amenity": "bar"}}, {"type": "node", "id": 12027885721, "lat": 41.3766178, "lon": 2.1570432, "tags": {"amenity": "bar", "name": "Cuba de Janeiro"}}, {"type": "node", "id": 12031405360, "lat": 41.3858082, "lon": 2.1815212, "tags": {"amenity": "bar", "name": "Bar Bodega Flassaders"}}, {"type": "node", "id": 12031425640, "lat": 41.3854803, "lon": 2.1562525, "tags": {"amenity": "bar", "name": "Nou Cent Quinze"}}, {"type": "node", "id": 12064891611, "lat": 41.3845406, "lon": 2.1824839, "tags": {"addr:housenumber": "13", "addr:street": "Passeig del Born", "alt_name": "Club Sauvage", "amenity": "bar", "capacity": "75", "check_date": "2024-07-20", "email": "bs@barsauvage.com", "name": "Bar Sauvage", "opening_hours": "Mo-Th,Su 20:00-03:00; Fr-Sa 19:00-03:30", "phone": "+34 938 32 51 84", "website": "https://www.barsauvage.com"}}, {"type": "node", "id": 12069703462, "lat": 41.3854345, "lon": 2.1786214, "tags": {"addr:city": "Barcelona", "addr:housenumber": "2", "addr:postcode": "08003", "addr:street": "Pla\u00e7a de Santa Caterina", "amenity": "bar", "cuisine": "mediterranean;local", "name": "Lupara", "opening_hours": "Tu-Sa 10:00-01:00, Sun 12:00-18:00"}}, {"type": "node", "id": 12069715583, "lat": 41.3854153, "lon": 2.1787973, "tags": {"addr:city": "Barcelona", "addr:housenumber": "1", "addr:postcode": "08003", "addr:street": "Pla\u00e7a de Santa Caterina", "air_conditioning": "yes", "amenity": "bar", "cuisine": "mediterranean;local", "description": "Cocktail bar with authentic food in the heart of Barcelona. We blend the art of mixology with the warmth of friendly, but top-tier service, ensuring every visit is memorable. Our menu is not your usual tapas - more elaborate and with our twist.", "email": "mail@magma.barcelona", "internet_access": "wlan", "name": "Magma Bar", "opening_hours": "Tu-Sa 18:00-02:30", "phone": "+34645960430", "website": "https://magma.barcelona/"}}, {"type": "node", "id": 12090218723, "lat": 41.4020152, "lon": 2.2009443, "tags": {"addr:city": "Barcelona", "addr:housenumber": "177", "addr:postcode": "08005", "addr:street": "Carrer de Pujades", "air_conditioning": "yes", "amenity": "bar", "brewery": "yes", "description": "Botanicus is an evolutionary cocktail bar born with the ambition of combining the world of botany with that of fermented products.", "email": "botanicusbarcelona@gmail.com", "image": "https://assets.zyrosite.com/m2WlapXP9Bh4zlZ9/logo-botanist-2023-mjEQqqpy4nCg6DLO.svg", "internet_access": "wlan", "name": "Botanicus Cocktail Bar", "opening_hours": "Mo-Su 18:00-03:00", "outdoor_seating": "yes", "payment:cards": "yes", "payment:cash": "yes", "website": "https://www.botanicusbcn.com/", "wheelchair": "yes"}}, {"type": "node", "id": 12118365701, "lat": 41.3757857, "lon": 2.1622698, "tags": {"addr:housenumber": "17", "addr:street": "Carrer de Viladomat", "amenity": "bar", "name": "Bitter"}}, {"type": "node", "id": 12118391602, "lat": 41.3825553, "lon": 2.1815383, "tags": {"addr:housenumber": "4", "addr:street": "Carrer dels Consellers", "amenity": "bar", "name": "Collage Cocktail Bar"}}, {"type": "node", "id": 12168124671, "lat": 41.3794097, "lon": 2.1460527, "tags": {"amenity": "bar", "check_date": "2024-09-10", "name": "Bar Antoxo", "outdoor_seating": "yes"}}, {"type": "node", "id": 12200399501, "lat": 41.3749476, "lon": 2.1819379, "tags": {"amenity": "bar", "name": "Paradiso - Time Out Market"}}, {"type": "node", "id": 12205467236, "lat": 41.3672985, "lon": 2.1893426, "tags": {"addr:state": "CT", "addr:street": "Pla\u00e7a de la Rosa dels Vents", "amenity": "bar", "indoor_seating": "yes", "name": "Anita's Bar Vela", "outdoor_seating": "yes", "wheelchair": "limited"}}, {"type": "node", "id": 12222704601, "lat": 41.3990948, "lon": 2.1747046, "tags": {"addr:housenumber": "196", "addr:postcode": "08013", "addr:street": "Carrer de N\u00e0pols", "amenity": "bar", "check_date": "2024-10-22", "contact:facebook": "milanesabarcelona", "contact:instagram": "milanesabarcelona", "cuisine": "argentinian", "email": "milanesabarcelona@gmail.com", "fixme": "duplicate", "name": "Milanesa", "opening_hours": "Mo-Sa 11:00-00:00; Su 13:00-23:00", "phone": "607958726", "website": "https://milanesabarcelona.com/", "website:menu": "http://milanesabarcelona.com/cartamilanesabar"}}, {"type": "node", "id": 12222871101, "lat": 41.384104, "lon": 2.1566271, "tags": {"addr:housenumber": "192", "addr:postcode": "08011", "addr:street": "Carrer del Consell de Cent", "amenity": "bar", "name": "Espiga Craft Beer Shop", "opening_hours": "Mo-Sa 11:00-14:30, 17:00-22:00"}}, {"type": "node", "id": 12279064242, "lat": 41.3989837, "lon": 2.168096, "tags": {"amenity": "bar", "check_date": "2024-10-22", "name": "La Tasca d'Or"}}, {"type": "node", "id": 12290777298, "lat": 41.3989883, "lon": 2.1587557, "tags": {"addr:housenumber": "4", "addr:street": "Carrer de Mozart", "amenity": "bar", "check_date": "2024-10-26", "name": "Jardinets de Gr\u00e0cia", "wheelchair": "no"}}, {"type": "node", "id": 12299278928, "lat": 41.4034432, "lon": 2.1613955, "tags": {"addr:housenumber": "210", "addr:street": "Travessera de Gr\u00e0cia", "amenity": "bar", "check_date": "2024-10-30", "level": "0", "name": "Bar Costa Rica"}}, {"type": "node", "id": 12373326001, "lat": 41.3766244, "lon": 2.1630259, "tags": {"amenity": "bar", "contact:city": "Barcelona", "contact:housenumber": "36", "contact:phone": "+34 911 67 09 05", "contact:postcode": "8015", "contact:street": "Carrer Del Parlament", "name": "Cristis Cocktail Bar", "website": "https://www.privateaser.es/local/51142-Cristis-cocktail-bar"}}, {"type": "node", "id": 12373442124, "lat": 41.3774478, "lon": 2.1753125, "tags": {"amenity": "bar", "contact:city": "Barcelona", "contact:housenumber": "2", "contact:phone": "+34 910 78 06 65", "contact:postcode": "8001", "contact:street": "Calle de Santa M\u00f3nica", "name": "WILD ROVER", "website": "https://www.privateaser.es/local/50062-wild-rover-bar"}}, {"type": "node", "id": 12384358374, "lat": 41.400399, "lon": 2.1823507, "tags": {"amenity": "bar"}}, {"type": "node", "id": 12419933161, "lat": 41.3906401, "lon": 2.1581174, "tags": {"amenity": "bar", "check_date": "2024-12-13", "name": "Tellarer"}}, {"type": "node", "id": 12419933162, "lat": 41.3905104, "lon": 2.1584021, "tags": {"amenity": "bar", "check_date": "2024-12-13", "name": "Cerveseria DNI"}}, {"type": "node", "id": 12461428227, "lat": 41.3991021, "lon": 2.1708201, "tags": {"addr:city": "Barcelona", "addr:country": "ES", "addr:housenumber": "323", "addr:postcode": "08009", "addr:street": "Avinguda Diagonal", "amenity": "bar", "mobile": "+34 649 73 24 84", "name": "La clave", "opening_hours": "Tu-Su 20:00-03:00;"}}, {"type": "node", "id": 12496161861, "lat": 41.3856024, "lon": 2.1542408, "tags": {"amenity": "bar", "check_date": "2025-01-12", "name": "La Guapa"}}, {"type": "node", "id": 12496218375, "lat": 41.3872748, "lon": 2.156503, "tags": {"amenity": "bar", "check_date": "2025-01-12", "name": "Wen Zhang Bar"}}, {"type": "node", "id": 12621219101, "lat": 41.371142, "lon": 2.1463835, "tags": {"amenity": "bar", "cuisine": "mediterranean;spanish", "name": "Caldeira"}}, {"type": "node", "id": 12685592801, "lat": 41.3916665, "lon": 2.1916656, "tags": {"amenity": "bar", "name": "agachaito"}}, {"type": "node", "id": 12691526801, "lat": 41.3976648, "lon": 2.1567645, "tags": {"amenity": "bar", "name": "Via Fora"}}, {"type": "way", "id": 132513778, "nodes": [1457557311, 1457557312, 1457557314, 1457557313, 1457557311], "tags": {"amenity": "bar", "building": "yes"}}, {"type": "way", "id": 136527051, "nodes": [1497569360, 1497569361, 1497569350, 1497569348, 1497569346, 1497569360], "tags": {"amenity": "bar", "building": "yes", "name": "Quiosc-bar Ciutadella Cascades", "name:ca": "Quiosc-bar Ciutadella Cascades"}}, {"type": "way", "id": 306577676, "nodes": [3115377555, 6286303537, 6286303568, 3115377558, 3115377557, 3115377554, 3115377555], "tags": {"amenity": "bar", "name": "Banker's Bar", "operator": "Mandarin Oriental", "source": "Survey of 2014-08-01"}}, {"type": "way", "id": 655182341, "nodes": [6138906835, 6138906836, 5522265621, 6138906566, 6138906896, 6138906883, 6138906835], "tags": {"amenity": "bar", "building": "industrial", "building:levels": "2", "name": "Comtu bar"}}]}