{"version": 0.6, "generator": "Overpass API 0.7.62.5 1bd436f1", "osm3s": {"timestamp_osm_base": "2025-03-24T09:18:00Z", "copyright": "The data included in this document is from www.openstreetmap.org. The data is made available under ODbL."}, "elements": [{"type": "node", "id": 192325938, "lat": 41.3764247, "lon": 2.1715874, "tags": {"addr:city": "Barcelona", "addr:full": "carrer Nou de Les Rambles, 75", "addr:housenumber": "75", "addr:postcode": "08001", "addr:street": "carrer Nou de Les Rambles", "amenity": "pharmacy", "contact:phone": "+34932410377", "dispensing": "yes", "healthcare": "pharmacy", "name": "Farm\u00e0cia Bombardo Vial, Miquel", "ref": "3622782", "source": "Generalitat de Catalunya", "source:date": "03/11/2020 07:58:31 AM +0000"}}, {"type": "node", "id": 194526301, "lat": 41.3782412, "lon": 2.1732928, "tags": {"addr:city": "Barcelona", "addr:full": "carrer Nou de Les Rambles, 28", "addr:housenumber": "28", "addr:postcode": "08001", "addr:street": "carrer Nou de Les Rambles", "amenity": "pharmacy", "contact:phone": "+34933184942", "dispensing": "yes", "healthcare": "pharmacy", "name": "Farm\u00e0cia Nieto Calm, Maria Dolors", "ref": "3621013", "source": "Generalitat de Catalunya", "source:date": "03/11/2020 07:58:14 AM +0000"}}, {"type": "node", "id": 194528211, "lat": 41.3822988, "lon": 2.1725153, "tags": {"addr:city": "Barcelona", "addr:full": "rambla La Rambla, 98", "addr:housenumber": "98", "addr:postcode": "08002", "addr:street": "La Rambla", "amenity": "pharmacy", "contact:phone": "+34933012843", "dispensing": "yes", "healthcare": "pharmacy", "name": "Farm\u00e0cia Clap\u00e9s Antoja, Josep", "opening_hours": "24/7", "ref": "3621814", "source": "Generalitat de Catalunya", "source:date": "03/11/2020 07:58:28 AM +0000"}}, {"type": "node", "id": 194528925, "lat": 41.3753821, "lon": 2.1671991, "tags": {"addr:city": "Barcelona", "addr:full": "ronda Sant Pau, 3", "addr:housenumber": "3", "addr:postcode": "08015", "addr:street": "ronda Sant Pau", "amenity": "pharmacy", "contact:phone": "+34932315995", "dispensing": "yes", "healthcare": "pharmacy", "name": "Farm\u00e0cia Vives S\u00e1nchez, Adela", "name:ca": "Farm\u00e0cia Vives S\u00e1nchez, Adela", "ref": "3621798", "source": "Generalitat de Catalunya", "source:date": "03/11/2020 07:58:01 AM +0000"}}, {"type": "node", "id": 196333977, "lat": 41.3774283, "lon": 2.1674957, "tags": {"addr:city": "Barcelona", "addr:full": "carrer Carretes, 35", "addr:housenumber": "35", "addr:postcode": "08001", "addr:street": "carrer Carretes", "amenity": "pharmacy", "contact:phone": "+34934417184", "dispensing": "yes", "healthcare": "pharmacy", "name": "Farm\u00e0cia Genis de Arana, Ignasi", "ref": "3620868", "source": "Generalitat de Catalunya", "source:date": "03/11/2020 07:58:22 AM +0000"}}, {"type": "node", "id": 506236252, "lat": 41.3942532, "lon": 2.1784533, "tags": {"addr:city": "Barcelona", "addr:full": "carrer Roger De Flor, 87", "addr:housenumber": "87", "addr:postcode": "08013", "addr:street": "carrer Roger De Flor", "amenity": "pharmacy", "contact:phone": "+34933716877", "dispensing": "yes", "healthcare": "pharmacy", "name": "Farm\u00e0cia Masagu\u00e9 Ramonell, Anna", "ref": "3623704", "source": "Generalitat de Catalunya", "source:date": "03/11/2020 07:58:16 AM +0000"}}, {"type": "node", "id": 672769835, "lat": 41.3835968, "lon": 2.1696695, "tags": {"addr:city": "Barcelona", "addr:full": "carrer Xucla, 21", "addr:housenumber": "21", "addr:postcode": "08001", "addr:street": "carrer Xucla", "amenity": "pharmacy", "contact:phone": "+34933019335", "dispensing": "yes", "healthcare": "pharmacy", "name": "Farm\u00e0cia Rosenfeld Barrenechea, Ricard", "name:ca": "Farm\u00e0cia Rosenfeld Barrenechea, Ricard", "name:it": "Parafarmacia", "ref": "3622669", "source": "Generalitat de Catalunya", "source:date": "03/11/2020 07:58:08 AM +0000"}}, {"type": "node", "id": 691581801, "lat": 41.3845322, "lon": 2.170421, "tags": {"addr:city": "Barcelona", "addr:full": "rambla Canaletes, 121", "addr:housenumber": "121", "addr:postcode": "08002", "addr:street": "La Rambla", "amenity": "pharmacy", "contact:phone": "+34933174942", "dispensing": "yes", "healthcare": "pharmacy", "name": "Farm\u00e0cia Nadal Casas, Manuel", "ref": "3620992", "source": "Generalitat de Catalunya", "source:date": "03/11/2020 07:58:14 AM +0000"}}, {"type": "node", "id": 1043786413, "lat": 41.3764198, "lon": 2.1690953, "tags": {"addr:city": "Barcelona", "addr:full": "carrer de Sant Pau, 112", "addr:housenumber": "112", "addr:postcode": "08001", "addr:street": "Carrer de Sant Pau", "alt_name": "Farm\u00e0cia Rojo Arribas, Itziar", "amenity": "pharmacy", "contact:phone": "+34932417586", "dispensing": "yes", "healthcare": "pharmacy", "name": "Farm\u00e0cia Sant Pau del Camp", "opening_hours": "Mo-Su 09:00-22:00", "ref": "3620720", "source": "Generalitat de Catalunya", "source:date": "03/11/2020 07:58:09 AM +0000"}}, {"type": "node", "id": 1043786520, "lat": 41.378022, "lon": 2.1708742, "tags": {"addr:city": "Barcelona", "addr:full": "carrer Sant Pau, 70", "addr:housenumber": "70", "addr:postcode": "08001", "addr:street": "Carrer de Sant Pau", "amenity": "pharmacy", "contact:phone": "+34932417525", "dispensing": "yes", "entrance": "yes", "healthcare": "pharmacy", "name": "Farm\u00e0cia Montaner Rogado, Yolanda", "ref": "3621317", "source": "Generalitat de Catalunya", "source:date": "03/11/2020 07:58:15 AM +0000"}}, {"type": "node", "id": 1072737446, "lat": 41.3845553, "lon": 2.1752838, "tags": {"addr:city": "Barcelona", "addr:full": "avinguda Catedral, 1", "addr:housenumber": "1", "addr:postcode": "08002", "addr:street": "Avinguda de la Catedral", "amenity": "pharmacy", "contact:instagram": "farmacia.catedral", "contact:phone": "+34933018127", "dispensing": "yes", "healthcare": "pharmacy", "name": "Farm\u00e0cia Lasmarias Palos, Arturo", "name:ca": "Farm\u00e0cia Catedral", "name:en": "Farm\u00e0cia Catedral", "name:es": "Farm\u00e0cia Catedral", "opening_hours": "Mo-Fr 08:30-22:00; Sa-Su 09:00-22:00", "ref": "3621958", "source": "Generalitat de Catalunya", "source:date": "03/11/2020 07:58:19 AM +0000"}}, {"type": "node", "id": 1374637982, "lat": 41.3850083, "lon": 2.1619319, "tags": {"addr:city": "Barcelona", "addr:full": "gv corts catalanes, 00571", "addr:housenumber": "571", "addr:postcode": "08011", "addr:street": "Gran Via de les Corts Catalanes", "amenity": "pharmacy", "check_date": "2025-02-19", "dispensing": "yes", "healthcare": "pharmacy", "name": "Farm\u00e0cia Caus Ruiz, Isabel - Basora Farr\u00e9, Carles", "opening_hours": "Mo-Sa 09:00-21:00", "phone": "+34 934545362", "ref": "3622765", "source": "Generalitat de Catalunya", "source:date": "03/11/2020 07:58:28 AM +0000", "wheelchair": "yes"}}, {"type": "node", "id": 1636937802, "lat": 41.387509, "lon": 2.1680412, "tags": {"addr:city": "Barcelona", "addr:full": "rambla Catalunya, 1", "addr:housenumber": "1", "addr:postcode": "08007", "addr:street": "rambla Catalunya", "amenity": "pharmacy", "contact:phone": "+34933171446", "dispensing": "yes", "emergency": "defibrillator", "healthcare": "pharmacy", "name": "Farm\u00e0cia Espona Meseguer, N\u00faria", "opening_hours": "Mo-Fr 08:00-21:45; Sa 09:00-22:00", "ref": "3620977", "source": "Generalitat de Catalunya", "source:date": "03/11/2020 07:58:26 AM +0000"}}, {"type": "node", "id": 1804156486, "lat": 41.381529, "lon": 2.1787601, "tags": {"addr:city": "Barcelona", "addr:full": "pla\u00e7a Regomir, 3", "addr:housenumber": "3", "addr:postcode": "08002", "addr:street": "pla\u00e7a Regomir", "amenity": "pharmacy", "contact:phone": "+34933150305", "dispensing": "yes", "healthcare": "pharmacy", "name": "Farm\u00e0cia Paricio Toledo, Jesus Carlos", "ref": "3620885", "source": "Generalitat de Catalunya", "source:date": "03/11/2020 07:58:13 AM +0000"}}, {"type": "node", "id": 2086329631, "lat": 41.3910479, "lon": 2.1877373, "tags": {"addr:full": "carrer Wellington, 52", "addr:housenumber": "52", "addr:postcode": "08005", "addr:street": "Carrer de Wellington", "amenity": "pharmacy", "check_date": "2024-06-19", "contact:phone": "+34933094013", "dispensing": "yes", "healthcare": "pharmacy", "name": "Farm\u00e0cia Wellington", "old_name": "Farm\u00e0cia Villar Mateo, Fernando del", "ref": "3623899", "source": "Generalitat de Catalunya", "source:date": "03/11/2020 07:58:01 AM +0000"}}, {"type": "node", "id": 2264573383, "lat": 41.3931931, "lon": 2.1737232, "tags": {"addr:city": "Barcelona", "addr:full": "gv corts catalanes, 688", "addr:housenumber": "688", "addr:postcode": "08010", "addr:street": "Gran Via de les Corts Catalanes", "amenity": "pharmacy", "check_date": "2025-02-19", "contact:phone": "+34932650127", "dispensing": "yes", "emergency": "defibrillator", "healthcare": "pharmacy", "name": "Farm\u00e0cia \u00c0lvarez P\u00e9rez, E - Higueras Casares, JM", "name:ca": "Farm\u00e0cia \u00c0lvarez P\u00e9rez, E - Higueras Casares, JM", "name:es": "Farm\u00e0cia \u00c0lvarez P\u00e9rez, E - Higueras Casares, JM", "opening_hours": "Mo-Su 09:00-22:00", "ref": "3622757", "source": "Generalitat de Catalunya", "source:date": "03/11/2020 07:58:34 AM +0000"}}, {"type": "node", "id": 2360847337, "lat": 41.3797958, "lon": 2.1737548, "tags": {"addr:city": "Barcelona", "addr:full": "carrer Uni\u00f3, 5", "addr:housenumber": "5", "addr:postcode": "08001", "addr:street": "carrer Uni\u00f3", "amenity": "pharmacy", "contact:phone": "+34933026933", "dispensing": "yes", "healthcare": "pharmacy", "name": "Farm\u00e0cia Tenorio Ripoll, Maria Isabel", "ref": "3621965", "source": "Generalitat de Catalunya", "source:date": "03/11/2020 07:58:03 AM +0000"}}, {"type": "node", "id": 2435574780, "lat": 41.3800201, "lon": 2.1795829, "tags": {"addr:city": "Barcelona", "addr:full": "carrer Ample, 25", "addr:housenumber": "25", "addr:postcode": "08002", "addr:street": "carrer Ample", "amenity": "pharmacy", "contact:phone": "+34933011643", "dispensing": "yes", "healthcare": "pharmacy", "name": "Farm\u00e0cia Pujol Cid, Joan Llu\u00eds", "name:ca": "Farm\u00e0cia Pujol Cid, Joan Llu\u00eds", "ref": "3622742", "source": "Generalitat de Catalunya", "source:date": "03/11/2020 07:58:11 AM +0000"}}, {"type": "node", "id": 2435574781, "lat": 41.3805617, "lon": 2.1783411, "tags": {"addr:city": "Barcelona", "addr:full": "carrer Avinyo, 27", "addr:housenumber": "27", "addr:postcode": "08002", "addr:street": "carrer Avinyo", "amenity": "pharmacy", "contact:phone": "+34933152459", "dispensing": "yes", "healthcare": "pharmacy", "name": "Farm\u00e0cia Marimon Puigmart\u00ed, Beatriz", "ref": "3621809", "source": "Generalitat de Catalunya", "source:date": "03/11/2020 07:58:17 AM +0000"}}, {"type": "node", "id": 2435574782, "lat": 41.380757, "lon": 2.1775538, "tags": {"addr:city": "Barcelona", "addr:full": "carrer Aviny\u00f3, 32", "addr:housenumber": "32", "addr:postcode": "08002", "addr:street": "carrer Aviny\u00f3", "amenity": "pharmacy", "contact:phone": "+34933179198", "dispensing": "yes", "healthcare": "pharmacy", "name": "Farm\u00e0cia Casanelles Mart\u00ed, M. Teresa", "ref": "3620601", "source": "Generalitat de Catalunya", "source:date": "03/11/2020 07:58:29 AM +0000", "wheelchair": "yes"}}, {"type": "node", "id": 2437908873, "lat": 41.3807427, "lon": 2.1796725, "tags": {"addr:city": "Barcelona", "addr:full": "carrer Gignas, 5", "addr:housenumber": "5", "addr:postcode": "08002", "addr:street": "carrer Gignas", "amenity": "pharmacy", "contact:phone": "+34933150059", "dispensing": "yes", "healthcare": "pharmacy", "name": "Farm\u00e0cia Vilaplana Comin, Joan", "name:ca": "Farm\u00e0cia Vilaplana Comin, Joan", "ref": "3621471", "source": "Generalitat de Catalunya", "source:date": "03/11/2020 07:58:01 AM +0000"}}, {"type": "node", "id": 2457812283, "lat": 41.3844482, "lon": 2.1792509, "tags": {"addr:city": "Barcelona", "addr:full": "carrer Princesa, 7", "addr:housenumber": "7", "addr:postcode": "08003", "addr:street": "Carrer de la Princesa", "amenity": "pharmacy", "contact:phone": "+34933192801", "dispensing": "yes", "healthcare": "pharmacy", "name": "Farm\u00e0cia Romero Ruiz, M. Rosa", "name:ca": "Farm\u00e0cia Romero Ruiz, M. Rosa", "ref": "3620737", "source": "Generalitat de Catalunya", "source:date": "03/11/2020 07:58:08 AM +0000"}}, {"type": "node", "id": 2487149447, "lat": 41.3828782, "lon": 2.162395, "tags": {"addr:city": "Barcelona", "addr:full": "carrer Sepulveda, 170", "addr:housenumber": "170", "addr:postcode": "08011", "addr:street": "Carrer de Sep\u00falveda", "amenity": "pharmacy", "check_date": "2025-02-19", "contact:phone": "+34932231022", "dispensing": "yes", "name": "Farm\u00e0cia Rives, Isabelle Marie Therese", "ref": "3620999", "source": "Generalitat de Catalunya", "source:date": "03/11/2020 07:58:09 AM +0000", "wheelchair": "no"}}, {"type": "node", "id": 2879016202, "lat": 41.3848853, "lon": 2.167877, "tags": {"addr:city": "Barcelona", "addr:full": "carrer Tallers, 42", "addr:housenumber": "42", "addr:postcode": "08001", "addr:street": "Carrer dels Tallers", "amenity": "pharmacy", "contact:phone": "+34933180988", "dispensing": "yes", "name": "Farm\u00e0cia Bernabeu Bala\u00f1a, I. Concepci\u00f3", "ref": "3620736", "source": "Generalitat de Catalunya", "source:date": "03/11/2020 07:58:32 AM +0000"}}, {"type": "node", "id": 2971984060, "lat": 41.380776, "lon": 2.1713169, "tags": {"addr:city": "Barcelona", "addr:full": "carrer Hospital, 42", "addr:housenumber": "42", "addr:postcode": "08001", "addr:street": "carrer Hospital", "amenity": "pharmacy", "contact:phone": "+34933014792", "dispensing": "yes", "healthcare": "pharmacy", "name": "Farm\u00e0cia Ram\u00f3n Mauri, Sergio", "ref": "3620630", "source": "Generalitat de Catalunya", "source:date": "03/11/2020 07:58:10 AM +0000"}}, {"type": "node", "id": 3068103255, "lat": 41.3918651, "lon": 2.1790957, "tags": {"addr:city": "Barcelona", "addr:full": "passeig de Sant Joan, 3", "addr:housenumber": "3", "addr:postcode": "08010", "addr:street": "Passeig de Sant Joan", "amenity": "pharmacy", "check_date": "2023-10-10", "contact:facebook": "https://www.facebook.com/Farm%C3%A0cia-Morera-755259281245776/?fref=nf&_fb_noscript=1", "dispensing": "yes", "emergency": "defibrillator", "healthcare": "pharmacy", "indoor": "yes", "name": "Farm\u00e0cia Josep M. Morera Ingl\u00e9s", "opening_hours": "Mo-Su 09:00-22:00", "phone": "+34 932 32 42 10", "ref": "3620990", "source": "Generalitat de Catalunya", "source:date": "03/11/2020 07:58:15 AM +0000"}}, {"type": "node", "id": 3193826561, "lat": 41.3813166, "lon": 2.1830542, "tags": {"addr:city": "Barcelona", "addr:full": "carrer Reina Cristina, 1", "addr:housenumber": "1", "addr:postcode": "08003", "addr:street": "Carrer de la Reina Cristina", "amenity": "pharmacy", "check_date": "2023-10-14", "contact:phone": "+34933105461", "dispensing": "yes", "healthcare": "pharmacy", "name": "Farm\u00e0cia Condal Espinal, Rosa Maria", "name:ca": "Farm\u00e0cia Condal Espinal, Rosa Maria", "ref": "3622001", "source": "Generalitat de Catalunya", "source:date": "03/11/2020 07:58:27 AM +0000", "wheelchair": "yes"}}, {"type": "node", "id": 3288174366, "lat": 41.393373, "lon": 2.1667564, "tags": {"addr:city": "Barcelona", "addr:full": "carrer Arago, 286", "addr:housenumber": "286", "addr:postcode": "08009", "addr:street": "Carrer d'Arag\u00f3", "amenity": "pharmacy", "contact:phone": "+34933025272", "dispensing": "yes", "name": "Farm\u00e0cia Riera Alib\u00e9s, Francisco", "ref": "3620889", "source": "Generalitat de Catalunya", "source:date": "03/11/2020 07:58:10 AM +0000"}}, {"type": "node", "id": 3288177865, "lat": 41.3915476, "lon": 2.1664908, "tags": {"addr:city": "Barcelona", "addr:full": "carrer Consell De Cent, 312", "addr:housenumber": "312", "addr:postcode": "08007", "addr:street": "Carrer del Consell de Cent", "alt_name": "Farm\u00e0cia Soler Gornals, Pep Llu\u00eds", "amenity": "pharmacy", "contact:phone": "+34934878094", "dispensing": "yes", "name": "Internacional", "ref": "3620618", "source": "Generalitat de Catalunya", "source:date": "03/11/2020 07:58:04 AM +0000", "website": "https://www.farmacia-internacional.net/es/"}}, {"type": "node", "id": 3288657964, "lat": 41.3852883, "lon": 2.1805047, "tags": {"addr:city": "Barcelona", "addr:full": "carrer Princesa, 20", "addr:housenumber": "20", "addr:postcode": "08003", "addr:street": "carrer Princesa", "amenity": "pharmacy", "check_date": "2024-07-20", "contact:phone": "+34933197711", "dispensing": "yes", "healthcare": "pharmacy", "name": "Farm\u00e0cia Xalabarder Torrents, Marc", "name:ca": "Farm\u00e0cia Xalabarder Torrents, Marc", "ref": "3621824", "source": "Generalitat de Catalunya", "source:date": "03/11/2020 07:58:00 AM +0000", "wheelchair": "yes"}}, {"type": "node", "id": 3288657966, "lat": 41.3861045, "lon": 2.1813213, "tags": {"addr:city": "Barcelona", "addr:full": "carrer Princesa, 39", "addr:housenumber": "39", "addr:postcode": "08003", "addr:street": "Carrer de la Princesa", "amenity": "pharmacy", "check_date": "2023-04-27", "contact:phone": "+34933198393", "dispensing": "yes", "healthcare": "pharmacy", "name": "Farm\u00e0cia Sentelles Monill, Anna", "ref": "3621480", "source": "Generalitat de Catalunya", "source:date": "03/11/2020 07:58:06 AM +0000"}}, {"type": "node", "id": 3328694988, "lat": 41.3896811, "lon": 2.1708452, "tags": {"addr:city": "Barcelona", "addr:full": "carrer Pau Claris, 83", "addr:housenumber": "83", "addr:postcode": "08010", "addr:street": "Carrer de Pau Claris", "amenity": "pharmacy", "contact:phone": "+34933177283", "dispensing": "yes", "healthcare": "pharmacy", "name": "Farm\u00e0cia Galup Russines, Mireia", "ref": "3620746", "source": "Generalitat de Catalunya", "source:date": "03/11/2020 07:58:23 AM +0000"}}, {"type": "node", "id": 3369147993, "lat": 41.3858274, "lon": 2.1775183, "tags": {"addr:city": "Barcelona", "addr:full": "avinguda Francesc Camb\u00f3, 12", "addr:housenumber": "12", "addr:postcode": "08003", "addr:street": "avinguda Francesc Camb\u00f3", "amenity": "pharmacy", "contact:phone": "+34933191748", "dispensing": "yes", "healthcare": "pharmacy", "name": "Farm\u00e0cia Carbonell Peris, Beatriu", "name:ca": "Farm\u00e0cia Carbonell Peris, Beatriu", "opening_hours": "Mo-Fr 09:00-20:00; Sa 09:00-13:00", "ref": "3621285", "source": "Generalitat de Catalunya", "source:date": "03/11/2020 07:58:29 AM +0000"}}, {"type": "node", "id": 3940075728, "lat": 41.3773148, "lon": 2.1646625, "tags": {"addr:city": "Barcelona", "addr:full": "ronda Sant Pau, 51", "addr:housenumber": "51", "addr:postcode": "08015", "addr:street": "Ronda de Sant Pau", "amenity": "pharmacy", "contact:phone": "+34932412525", "dispensing": "yes", "healthcare": "pharmacy", "name": "Farm\u00e0cia Almor Andreu, M\u00edriam", "name:ca": "Farm\u00e0cia Almor Andreu, M\u00edriam", "opening_hours": "Mo-Fr 09:00-21:00; Sa 09:00-14:00", "ref": "3621960", "source": "Generalitat de Catalunya", "source:date": "03/11/2020 07:58:34 AM +0000", "wheelchair": "yes"}}, {"type": "node", "id": 4120640594, "lat": 41.3948108, "lon": 2.1668457, "tags": {"addr:city": "Barcelona", "addr:full": "carrer Roger De Lluria, 74", "addr:housenumber": "74", "addr:postcode": "08009", "addr:street": "Carrer de Roger de Ll\u00faria", "alt_name": "Farm\u00e0cia Uny\u00f3 Bover, Sandra", "amenity": "pharmacy", "contact:phone": "+34934576544", "dispensing": "yes", "name": "Antigua Farmacia Robert", "ref": "3621315", "source": "Generalitat de Catalunya", "source:date": "03/11/2020 07:58:02 AM +0000", "start_date": "1906"}}, {"type": "node", "id": 4254686751, "lat": 41.3926937, "lon": 2.1850181, "tags": {"addr:city": "Barcelona", "addr:full": "carrer Wellington, 27", "addr:housenumber": "27", "addr:postcode": "08018", "addr:street": "carrer Wellington", "amenity": "pharmacy", "contact:phone": "+34933001427", "dispensing": "yes", "healthcare": "pharmacy", "name": "Farm\u00e0cia Subias Solanas, Laura", "ref": "3624278", "source": "Generalitat de Catalunya", "source:date": "03/11/2020 07:58:04 AM +0000"}}, {"type": "node", "id": 4254698177, "lat": 41.3917027, "lon": 2.1803061, "tags": {"addr:city": "Barcelona", "addr:full": "passeig de Sant Joan, 2", "addr:housenumber": "2", "addr:postcode": "08010", "addr:street": "passeig de Sant Joan", "amenity": "pharmacy", "check_date": "2023-04-25", "contact:phone": "+34932364105", "dispensing": "yes", "healthcare": "pharmacy", "name": "Farm\u00e0cia \u00c0ngels Salvad\u00f3 Llad\u00f3", "opening_hours": "Mo-Sa 11:00-19:30", "ref": "3621324", "source": "Generalitat de Catalunya", "source:date": "03/11/2020 07:58:07 AM +0000"}}, {"type": "node", "id": 4322554797, "lat": 41.3925039, "lon": 2.1875524, "tags": {"addr:city": "Barcelona", "addr:full": "carrer Sardenya, 61", "addr:housenumber": "61", "addr:postcode": "08018", "addr:street": "carrer Sardenya", "amenity": "pharmacy", "contact:phone": "+34933095180", "dispensing": "yes", "healthcare": "pharmacy", "name": "Farm\u00e0cia Berbel Fenoy, Andr\u00e9s", "ref": "3620719", "source": "Generalitat de Catalunya", "source:date": "03/11/2020 07:58:32 AM +0000"}}, {"type": "node", "id": 4370146581, "lat": 41.3799498, "lon": 2.1630682, "tags": {"addr:city": "Barcelona", "addr:full": "ronda Sant Antoni, 15", "addr:housenumber": "15", "addr:postcode": "08011", "addr:street": "Ronda de Sant Antoni", "amenity": "pharmacy", "check_date": "2024-01-16", "contact:phone": "+34932422961", "dispensing": "yes", "healthcare": "pharmacy", "name": "Farm\u00e0cia Ventura Cebri\u00e0,Enric", "name:ca": "Farm\u00e0cia Ventura Cebri\u00e0,Enric", "opening_hours": "Mo-Fr 09:00-13:30,16:30-20:00; Sa 09:00-13:30", "ref": "3621302", "source": "Generalitat de Catalunya", "source:date": "03/11/2020 07:58:01 AM +0000", "wheelchair": "yes"}}, {"type": "node", "id": 4370146660, "lat": 41.3793289, "lon": 2.1633671, "tags": {"addr:city": "Barcelona", "addr:full": "ronda Sant Antoni, 12", "addr:housenumber": "12", "addr:postcode": "08001", "addr:street": "Ronda de Sant Antoni", "amenity": "pharmacy", "check_date": "2024-01-16", "contact:phone": "+34932322582", "dispensing": "yes", "healthcare": "pharmacy", "name": "Farm\u00e0cia Barraquer Moner, Mercedes", "name:ca": "Farm\u00e0cia Barraquer Moner, Mercedes", "name:es": "Farmacia", "ref": "3620727", "source": "Generalitat de Catalunya", "source:date": "03/11/2020 07:58:32 AM +0000", "wheelchair": "limited"}}, {"type": "node", "id": 4375237802, "lat": 41.3953251, "lon": 2.187176, "tags": {"addr:city": "Barcelona", "addr:full": "avinguda Meridiana, 30", "addr:housenumber": "30", "addr:postcode": "08018", "addr:street": "avinguda Meridiana", "amenity": "pharmacy", "contact:phone": "+34933007718", "dispensing": "yes", "drive_through": "no", "healthcare": "pharmacy", "name": "Farm\u00e0cia Parejo Cuesta, Anna M.", "opening_hours:signed": "no", "ref": "3623095", "source": "Generalitat de Catalunya", "source:date": "03/11/2020 07:58:13 AM +0000"}}, {"type": "node", "id": 4482541721, "lat": 41.389258, "lon": 2.1794733, "tags": {"addr:city": "Barcelona", "addr:full": "pla\u00e7a Sant Pere, 5", "addr:housenumber": "5", "addr:postcode": "08003", "addr:street": "Pla\u00e7a de Sant Pere", "amenity": "pharmacy", "contact:phone": "+34933191238", "dispensing": "yes", "healthcare": "pharmacy", "name": "Farm\u00e0cia Comas Castell\u00e0, Maria Nieves", "opening_hours": "Mo-Sa 09:00-21:00; Su 10:00-14:30", "ref": "3621018", "source": "Generalitat de Catalunya", "source:date": "03/11/2020 07:58:27 AM +0000"}}, {"type": "node", "id": 4511533789, "lat": 41.3859602, "lon": 2.1762822, "tags": {"addr:city": "Barcelona", "addr:full": "vi laietana, 00040", "addr:housenumber": "40", "addr:postcode": "08003", "addr:street": "vi laietana", "amenity": "pharmacy", "contact:phone": "+34932681579", "dispensing": "yes", "healthcare": "pharmacy", "name": "Farm\u00e0cia de Vilarrubia Goula, Maria Carlota", "name:en": "Barcelona Pharmacy", "ref": "3620876", "source": "Generalitat de Catalunya", "source:date": "03/11/2020 07:58:26 AM +0000"}}, {"type": "node", "id": 4568324389, "lat": 41.3755377, "lon": 2.1648364, "tags": {"addr:city": "Barcelona", "addr:full": "carrer Compte Borrell, 7", "addr:housenumber": "7", "addr:postcode": "08015", "addr:street": "carrer Compte Borrell", "amenity": "pharmacy", "contact:phone": "+34934419411", "dispensing": "yes", "healthcare": "pharmacy", "name": "Farm\u00e0cia Carbonell Roger, Guillem", "name:ca": "Farm\u00e0cia Carbonell", "ref": "3624702", "source": "Generalitat de Catalunya", "source:date": "03/11/2020 07:58:29 AM +0000"}}, {"type": "node", "id": 4653464390, "lat": 41.376026, "lon": 2.1617649, "tags": {"addr:city": "Barcelona", "addr:full": "carrer Parlament, 17", "addr:housenumber": "17", "addr:postcode": "08015", "addr:street": "Carrer del Parlament", "amenity": "pharmacy", "contact:phone": "+34934233830", "dispensing": "yes", "healthcare": "pharmacy", "name": "Farm\u00e0cia Mart\u00ednez Garc\u00eda, Almudena", "ref": "3620855", "source": "Generalitat de Catalunya", "source:date": "03/11/2020 07:58:17 AM +0000"}}, {"type": "node", "id": 4653476589, "lat": 41.3767872, "lon": 2.1613134, "tags": {"addr:city": "Barcelona", "addr:full": "carrer Viladomat, 40", "addr:housenumber": "40", "addr:postcode": "08015", "addr:street": "Carrer de Viladomat", "amenity": "pharmacy", "contact:phone": "+34932411567", "dispensing": "yes", "healthcare": "pharmacy", "name": "Farm\u00e0cia Torrens Cort\u00e9s, Inmaculada", "name:ca": "Torrens", "ref": "3621310", "source": "Generalitat de Catalunya", "source:date": "03/11/2020 07:58:02 AM +0000"}}, {"type": "node", "id": 4653496989, "lat": 41.3777959, "lon": 2.162387, "tags": {"addr:city": "Barcelona", "addr:housenumber": "64", "addr:postcode": "08015", "addr:street": "Carrer de Manso", "amenity": "pharmacy", "check_date": "2023-04-27", "healthcare": "pharmacy", "name": "Vives Ferrer", "name:ca": "Vives Ferrer", "opening_hours": "Mo-Fr 08:30-20:30; Sa 09:00-14:00", "phone": "+34 648 50 62 81;+34 934 41 02 77", "wheelchair": "yes"}}, {"type": "node", "id": 4668670695, "lat": 41.3771312, "lon": 2.1627146, "tags": {"addr:city": "Barcelona", "addr:housenumber": "43", "addr:postcode": "08015", "addr:street": "Carrer del Comte Borrell", "amenity": "pharmacy", "healthcare": "pharmacy", "name": "Bala\u00f1\u00e1", "name:es": "Bala\u00f1\u00e1", "opening_hours": "Mo-Fr 09:00-13:00,16:30-20:00; Sa 09:00-14:00"}}, {"type": "node", "id": 4668716291, "lat": 41.3747922, "lon": 2.1595012, "tags": {"addr:city": "Barcelona", "addr:full": "avinguda Paral Lel, 131", "addr:housenumber": "131", "addr:postcode": "08004", "addr:street": "Avinguda del Paral\u00b7lel", "amenity": "pharmacy", "check_date": "2023-04-26", "contact:phone": "+34 932236501", "dispensing": "yes", "healthcare": "pharmacy", "name": "Farm\u00e0cia Iglesias", "name:es": "Iglesias", "operator": "Llic. Francesca Iglesias Huix", "ref": "3620852", "source": "Generalitat de Catalunya", "source:date": "03/11/2020 07:58:19 AM +0000"}}, {"type": "node", "id": 4711659155, "lat": 41.3869997, "lon": 2.174919, "tags": {"addr:city": "Barcelona", "addr:full": "vi laietana, 00050", "addr:housenumber": "50", "addr:postcode": "08003", "addr:street": "Via Laietana", "amenity": "pharmacy", "contact:phone": "+34933015750", "dispensing": "yes", "healthcare": "pharmacy", "name": "Farm\u00e0cia Moragrega Estrany, L - Rojas Estrany, ME", "opening_hours": "Mo-Sa 09:00-21:00; PH,Su 10:00-21:00", "ref": "3621478", "source": "Generalitat de Catalunya", "source:date": "03/11/2020 07:58:15 AM +0000", "wheelchair": "limited"}}, {"type": "node", "id": 4726582792, "lat": 41.3919899, "lon": 2.1744, "tags": {"addr:city": "Barcelona", "addr:full": "carrer Casp, 68", "addr:housenumber": "68", "addr:postcode": "08010", "addr:street": "Carrer de Casp", "amenity": "pharmacy", "contact:phone": "+34933020696", "dispensing": "yes", "healthcare": "pharmacy", "name": "Farm\u00e0cia Veciana Garc\u00eda-Boente", "name:es": "Veciana", "ref": "3620733", "source": "Generalitat de Catalunya", "source:date": "03/11/2020 07:58:01 AM +0000", "wheelchair": "limited"}}, {"type": "node", "id": 4726582793, "lat": 41.3912657, "lon": 2.1753215, "tags": {"addr:city": "Barcelona", "addr:full": "carrer Ausias March, 31", "addr:housenumber": "31", "addr:postcode": "08010", "addr:street": "Carrer d'Ausi\u00e0s Marc", "amenity": "pharmacy", "contact:phone": "+34933170291", "dispensing": "yes", "healthcare": "pharmacy", "name": "Farm\u00e0cia Aguilar P\u00e9rez, M. Francisca", "name:ca": "Farm\u00e0cia Aguilar P\u00e9rez, M. Francisca", "name:es": "Aguilar", "ref": "3620848", "source": "Generalitat de Catalunya", "source:date": "03/11/2020 07:58:34 AM +0000"}}, {"type": "node", "id": 4726583194, "lat": 41.3940236, "lon": 2.1716855, "tags": {"addr:city": "Barcelona", "addr:full": "carrer Diputacio, 331", "addr:housenumber": "331", "addr:postcode": "08009", "addr:street": "Carrer de la Diputaci\u00f3", "amenity": "pharmacy", "contact:phone": "+34933178594", "dispensing": "yes", "healthcare": "pharmacy", "name": "Farm\u00e0cia Rodr\u00edguez Villamur, M. Llu\u00efsa", "opening_hours": "Mo-Fr 09:00-20:30; Sa 10:00-14:00", "ref": "3621465", "source": "Generalitat de Catalunya", "source:date": "03/11/2020 07:58:09 AM +0000"}}, {"type": "node", "id": 4762934628, "lat": 41.3946829, "lon": 2.174656, "tags": {"addr:city": "Barcelona", "addr:full": "pla\u00e7a Tetuan, 15", "addr:housenumber": "15", "addr:postcode": "08010", "addr:street": "Pla\u00e7a de Tetuan", "amenity": "pharmacy", "contact:phone": "+34932252612", "dispensing": "yes", "healthcare": "pharmacy", "name": "Farm\u00e0cia Del Arco Casanovas, Anna Maria", "opening_hours": "Mo-Fr 08:00-21:00; Sa 09:00-21:00", "ref": "3621505", "source": "Generalitat de Catalunya", "source:date": "03/11/2020 07:58:26 AM +0000"}}, {"type": "node", "id": 4776901739, "lat": 41.3867509, "lon": 2.1618025, "tags": {"addr:city": "Barcelona", "addr:full": "carrer Aribau, 20", "addr:housenumber": "20", "addr:postcode": "08011", "addr:street": "Carrer d'Aribau", "amenity": "pharmacy", "contact:phone": "+34932541624", "dispensing": "yes", "drive_through": "no", "healthcare": "pharmacy", "name": "Farm\u00e0cia Feriche Bartra, Ivone", "ref": "3621005", "source": "Generalitat de Catalunya", "source:date": "03/11/2020 07:58:24 AM +0000"}}, {"type": "node", "id": 4776902559, "lat": 41.3873253, "lon": 2.161076, "tags": {"addr:city": "Barcelona", "addr:full": "carrer Aribau, 36", "addr:housenumber": "36", "addr:postcode": "08011", "addr:street": "Carrer d'Aribau", "amenity": "pharmacy", "contact:phone": "+34934540905", "dispensing": "yes", "healthcare": "pharmacy", "name": "Farm\u00e0cia Urgell\u00e9s Esquerra - F\u00e0bregas Ferrer", "opening_hours": "Mo-Fr 09:00-21:00; Sa 09:00-14:00", "ref": "3621461", "source": "Generalitat de Catalunya", "source:date": "03/11/2020 07:58:02 AM +0000"}}, {"type": "node", "id": 4776903119, "lat": 41.3864603, "lon": 2.1621718, "tags": {"addr:city": "Barcelona", "addr:full": "carrer Aribau, 18", "addr:housenumber": "18", "addr:postcode": "08011", "addr:street": "Carrer d'Aribau", "amenity": "pharmacy", "check_date:opening_hours": "2022-12-31", "contact:phone": "+34933174684", "dispensing": "yes", "drive_through": "no", "healthcare": "pharmacy", "name": "Farmacia Franquesa Sol\u00e9", "opening_hours": "Mo-Su 09:00-22:00", "ref": "3620972", "source": "Generalitat de Catalunya", "source:date": "03/11/2020 07:58:23 AM +0000", "website": "https://aribaufarmacia.com"}}, {"type": "node", "id": 4789890699, "lat": 41.382366, "lon": 2.1705766, "tags": {"addr:city": "Barcelona", "addr:full": "carrer Carme, 23", "addr:housenumber": "23", "addr:postcode": "08001", "addr:street": "Carrer del Carme", "amenity": "pharmacy", "contact:phone": "+34933014776", "dispensing": "yes", "healthcare": "pharmacy", "name": "Farm\u00e0cia Mas Docampo, Montserrat", "ref": "3620888", "source": "Generalitat de Catalunya", "source:date": "03/11/2020 07:58:16 AM +0000"}}, {"type": "node", "id": 4893834222, "lat": 41.385231, "lon": 2.1834787, "tags": {"addr:city": "Barcelona", "addr:full": "pla\u00e7a Comercial, 9", "addr:housenumber": "9", "addr:postcode": "08003", "addr:street": "Pla\u00e7a Comercial", "amenity": "pharmacy", "contact:phone": "+34933195255", "dispensing": "yes", "healthcare": "pharmacy", "name": "Farm\u00e0cia Teixidor Capalleras - Ventura Blasco", "name:es": "Farmacia Folguera", "opening_hours": "Mo-Fr 09:00-20:30; Sa 09:00-14:00", "ref": "3620740", "source": "Generalitat de Catalunya", "source:date": "03/11/2020 07:58:04 AM +0000"}}, {"type": "node", "id": 5082607262, "lat": 41.3873009, "lon": 2.1805323, "tags": {"addr:city": "Barcelona", "addr:full": "carrer Carders, 44", "addr:housenumber": "44", "addr:postcode": "08003", "addr:street": "Carrer dels Carders", "amenity": "pharmacy", "contact:phone": "+34933198855", "dispensing": "yes", "healthcare": "pharmacy", "name": "Farm\u00e0cia Schmid Bosch, Elisenda", "ref": "3621510", "source": "Generalitat de Catalunya", "source:date": "03/11/2020 07:58:06 AM +0000"}}, {"type": "node", "id": 5082607324, "lat": 41.3872764, "lon": 2.1789023, "tags": {"addr:city": "Barcelona", "addr:full": "carrer Fonollar, 26", "addr:housenumber": "26", "addr:postcode": "08003", "addr:street": "carrer Fonollar", "amenity": "pharmacy", "contact:phone": "+34932689143", "dispensing": "yes", "healthcare": "pharmacy", "name": "Farm\u00e0cia Cardona Arenas, Beatriu", "ref": "3620598", "source": "Generalitat de Catalunya", "source:date": "03/11/2020 07:58:29 AM +0000"}}, {"type": "node", "id": 5168258286, "lat": 41.3839547, "lon": 2.1615242, "tags": {"addr:city": "Barcelona", "addr:full": "gv corts catalanes, 00566", "addr:housenumber": "566", "addr:postcode": "08011", "addr:street": "Gran Via de les Corts Catalanes (lateral mar)", "amenity": "pharmacy", "contact:phone": "+34934547277", "dispensing": "yes", "emergency": "defibrillator", "indoor": "yes", "name": "Farm\u00e0cia Costa Codina, Josep", "name:ca": "Costa Copina", "ref": "3621470", "source": "Generalitat de Catalunya", "source:date": "03/11/2020 07:58:27 AM +0000"}}, {"type": "node", "id": 5466534641, "lat": 41.385882, "lon": 2.1798478, "tags": {"addr:city": "Barcelona", "addr:full": "carrer Carders, 3", "addr:housenumber": "3", "addr:postcode": "08003", "addr:street": "Carrer dels Corders", "amenity": "pharmacy", "contact:phone": "+34933199379", "dispensing": "yes", "healthcare": "pharmacy", "name": "Farm\u00e0cia \u00dabeda Fern\u00e1ndez, Nieves", "ref": "3620712", "source": "Generalitat de Catalunya", "source:date": "03/11/2020 07:58:02 AM +0000"}}, {"type": "node", "id": 5466540223, "lat": 41.3851505, "lon": 2.1806768, "tags": {"addr:city": "Barcelona", "addr:full": "carrer Montcada, 10", "addr:housenumber": "10", "addr:postcode": "08003", "addr:street": "carrer Montcada", "amenity": "pharmacy", "check_date": "2024-07-02", "contact:phone": "+34933197632", "dispensing": "yes", "healthcare": "pharmacy", "name": "Farm\u00e0cia Cerra, Mario", "ref": "3621010", "source": "Generalitat de Catalunya", "source:date": "03/11/2020 07:58:28 AM +0000"}}, {"type": "node", "id": 5484179922, "lat": 41.3949749, "lon": 2.1802269, "tags": {"addr:city": "Barcelona", "addr:housenumber": "93", "addr:postcode": "08013", "addr:street": "Carrer d'Ausi\u00e0s Marc", "amenity": "pharmacy", "healthcare": "pharmacy", "name": "Farm\u00e0cia Nebot Salabert, Alex", "opening_hours": "Mo-Fr 09:00-20:30; Sa 09:00-14:00", "phone": "+34 935 33 99 84"}}, {"type": "node", "id": 5484245221, "lat": 41.3921971, "lon": 2.1697132, "tags": {"addr:city": "Barcelona", "addr:full": "carrer Roger De Lluria, 37", "addr:housenumber": "37", "addr:postcode": "08009", "addr:street": "Carrer de Roger de Ll\u00faria", "amenity": "pharmacy", "contact:phone": "+34933183626", "dispensing": "yes", "name": "Farm\u00e0cia Morral Suarez, Clara", "ref": "3620580", "source": "Generalitat de Catalunya", "source:date": "03/11/2020 07:58:14 AM +0000"}}, {"type": "node", "id": 5484245823, "lat": 41.3931841, "lon": 2.1712342, "tags": {"addr:city": "Barcelona", "addr:full": "carrer Bruc, 64", "addr:housenumber": "64", "addr:postcode": "08009", "addr:street": "carrer Bruc", "amenity": "pharmacy", "contact:phone": "+34933177491", "dispensing": "yes", "name": "Farm\u00e0cia Alarc\u00f3n Ru\u00edz, M. Llu\u00efsa i Andreu", "opening_hours": "Mo-Fr 08:00-22:00; PH,Sa,Su 09:00-22:00", "ref": "3622752", "source": "Generalitat de Catalunya", "source:date": "03/11/2020 07:58:34 AM +0000", "wheelchair": "yes"}}, {"type": "node", "id": 5504856564, "lat": 41.3877874, "lon": 2.1781198, "tags": {"addr:city": "Barcelona", "addr:full": "carrer Sant Pere M\u00e9s Baix, 52", "addr:housenumber": "52", "addr:postcode": "08003", "addr:street": "carrer Sant Pere M\u00e9s Baix", "amenity": "pharmacy", "contact:phone": "+34933190329", "dispensing": "yes", "healthcare": "pharmacy", "name": "Farm\u00e0cia Fonoll Piqu\u00e9, Josep", "name:ca": "Farm\u00e0cia Fonoll Piqu\u00e9, Josep", "ref": "3622761", "source": "Generalitat de Catalunya", "source:date": "03/11/2020 07:58:24 AM +0000"}}, {"type": "node", "id": 5504881221, "lat": 41.3938965, "lon": 2.1599398, "tags": {"addr:city": "Barcelona", "addr:full": "rambla Catalunya, 102", "addr:housenumber": "102", "addr:postcode": "08008", "addr:street": "Rambla de Catalunya", "amenity": "pharmacy", "contact:phone": "+34932150999", "dispensing": "yes", "name": "Farm\u00e0cia Rbla de Catalunya, 102", "name:es": "Rba catalunya 102", "operator": "Llic. Torres Cambra - Garc\u00eda Valc\u00e1rcel", "ref": "3621287", "source": "Generalitat de Catalunya", "source:date": "03/11/2020 07:58:02 AM +0000"}}, {"type": "node", "id": 5504881321, "lat": 41.3929005, "lon": 2.1615027, "tags": {"addr:city": "Barcelona", "addr:full": "carrer de Mallorca, 240", "addr:housenumber": "240", "addr:postcode": "08008", "addr:street": "carrer de Mallorca", "amenity": "pharmacy", "contact:phone": "+34932151793", "dispensing": "yes", "healthcare": "pharmacy", "name": "Farm\u00e0cia Jaume Enrich Murt", "ref": "3621473", "source": "Generalitat de Catalunya", "source:date": "03/11/2020 07:58:26 AM +0000"}}, {"type": "node", "id": 5504881921, "lat": 41.3916482, "lon": 2.1622028, "tags": {"amenity": "pharmacy", "name": "Bolos", "wheelchair": "yes", "wikidata": "Q11681784", "wikimedia_commons": "Category:Farm\u00e0cia Bol\u00f3s", "wikipedia": "ca:Farm\u00e0cia Bol\u00f3s"}}, {"type": "node", "id": 5504882021, "lat": 41.3915943, "lon": 2.1630051, "tags": {"addr:city": "Barcelona", "addr:full": "rambla Catalunya, 66", "addr:housenumber": "66", "addr:postcode": "08007", "addr:street": "Rambla de Catalunya", "amenity": "pharmacy", "dispensing": "yes", "healthcare": "pharmacy", "name": "Farm\u00e0cia Gelabert Colom-Noguera, Anna", "name:ca": "Farm\u00e0cia Gelabert Colom-Noguera, Anna", "opening_hours": "Mo-Fr 09:00-21:00; Sa 09:00-15:00,16:00-21:00", "phone": "+34 646074318;+34 932154453", "ref": "3622744", "source": "Generalitat de Catalunya", "source:date": "03/11/2020 07:58:22 AM +0000", "website": "https://www.farmafamily.com/", "wheelchair": "limited"}}, {"type": "node", "id": 5518088922, "lat": 41.3834728, "lon": 2.1607964, "tags": {"addr:city": "Barcelona", "addr:full": "gv corts catalanes, 00560", "addr:housenumber": "560", "addr:postcode": "08011", "addr:street": "Gran Via de les Corts Catalanes", "amenity": "pharmacy", "contact:phone": "+34934549629", "dispensing": "yes", "healthcare": "pharmacy", "name": "Farm\u00e0cia Mart\u00ednez Vaya, Juan Carlos", "ref": "3620730", "source": "Generalitat de Catalunya", "source:date": "03/11/2020 07:58:16 AM +0000"}}, {"type": "node", "id": 5518094721, "lat": 41.3867738, "lon": 2.1590262, "tags": {"addr:city": "Barcelona", "addr:full": "carrer Muntaner, 67 bis", "addr:housenumber": "67 bis", "addr:postcode": "08011", "addr:street": "Carrer de Muntaner", "amenity": "pharmacy", "contact:phone": "+34 932535854", "dispensing": "yes", "name": "Farm\u00e0cia Focardell Berenguer, Yolanda", "ref": "3621016", "source": "Generalitat de Catalunya", "source:date": "03/11/2020 07:58:24 AM +0000"}}, {"type": "node", "id": 5518120841, "lat": 41.3890967, "lon": 2.1739136, "tags": {"addr:city": "Barcelona", "addr:full": "pla\u00e7a Urquinaona, 8", "addr:housenumber": "8", "addr:postcode": "08010", "addr:street": "Pla\u00e7a d'Urquinaona", "amenity": "pharmacy", "contact:phone": "+34933019643", "dispensing": "yes", "healthcare": "pharmacy", "name": "Farm\u00e0cia Mart\u00ednez Campos, Juan Jos\u00e9", "opening_hours": "Mo-Fr 08:00-21:30+; Sa 09:00-21:00+; PH,Su 10:00-21:00+", "ref": "3622770", "source": "Generalitat de Catalunya", "source:date": "03/11/2020 07:58:17 AM +0000"}}, {"type": "node", "id": 5518127221, "lat": 41.3825804, "lon": 2.1600692, "tags": {"addr:city": "Barcelona", "addr:full": "carrer Villarroel, 53", "addr:housenumber": "53", "addr:postcode": "08011", "addr:street": "Carrer de Villarroel", "amenity": "pharmacy", "contact:phone": "+34 932548475", "dispensing": "yes", "healthcare": "pharmacy", "name": "Farm\u00e0cia Garc\u00eda Pastor, Adelina", "ref": "3620836", "source": "Generalitat de Catalunya", "source:date": "03/11/2020 07:58:22 AM +0000", "wheelchair": "limited"}}, {"type": "node", "id": 5518154123, "lat": 41.3853601, "lon": 2.1715048, "tags": {"addr:city": "Barcelona", "addr:full": "carrer Santa Anna, 21", "addr:housenumber": "21", "addr:postcode": "08002", "addr:street": "Carrer de Santa Anna", "amenity": "pharmacy", "contact:phone": "+34933027184", "dispensing": "yes", "healthcare": "pharmacy", "name": "Farm\u00e0cia Matas Boet, N\u00faria", "ref": "3621305", "source": "Generalitat de Catalunya", "source:date": "03/11/2020 07:58:16 AM +0000", "wikidata": "Q23817622", "wikimedia_commons": "Category:Casa Elena Castellano", "wikipedia": "ca:Casa Elena Castellana"}}, {"type": "node", "id": 5522158823, "lat": 41.3829715, "lon": 2.1850031, "tags": {"addr:city": "Barcelona", "addr:full": "carrer Marquesa, 3", "addr:housenumber": "3", "addr:postcode": "08003", "addr:street": "Carrer de la Marquesa", "amenity": "pharmacy", "contact:phone": "+34933199143", "dispensing": "yes", "healthcare": "pharmacy", "name": "Farm\u00e0cia Rodr\u00edguez Mart\u00ednez, Juan Antonio", "ref": "3621800", "source": "Generalitat de Catalunya", "source:date": "03/11/2020 07:58:09 AM +0000"}}, {"type": "node", "id": 5552038421, "lat": 41.3887676, "lon": 2.1718063, "tags": {"addr:city": "Barcelona", "addr:full": "ronda Sant Pere, 15", "addr:housenumber": "15", "addr:postcode": "08010", "addr:street": "Ronda de Sant Pere", "amenity": "pharmacy", "contact:phone": "+34933173938", "dispensing": "yes", "healthcare": "pharmacy", "name": "Farm\u00e0cia Lafarga Mestre, Jordi", "ref": "3620856", "source": "Generalitat de Catalunya", "source:date": "03/11/2020 07:58:19 AM +0000"}}, {"type": "node", "id": 5552068121, "lat": 41.3870956, "lon": 2.1657968, "tags": {"addr:city": "Barcelona", "addr:full": "carrer Balmes, 18", "addr:housenumber": "18", "addr:postcode": "08007", "addr:street": "Carrer de Balmes", "amenity": "pharmacy", "contact:phone": "+34933179347", "dispensing": "yes", "healthcare": "pharmacy", "name": "Farm\u00e0cia Alegre Valls, J. - Rodr\u00edguez Pareja, J.", "ref": "3620845", "source": "Generalitat de Catalunya", "source:date": "03/11/2020 07:58:34 AM +0000"}}, {"type": "node", "id": 5599331321, "lat": 41.3886399, "lon": 2.1591832, "tags": {"addr:city": "Barcelona", "addr:full": "carrer Aribau, 62", "addr:housenumber": "62", "addr:postcode": "08011", "addr:street": "Carrer d'Aribau", "amenity": "pharmacy", "check_date": "2024-10-26", "contact:phone": "+34932539220", "dispensing": "yes", "drive_through": "no", "level": "0", "name": "Farm\u00e0cia Torres", "official_name": "Farm\u00e0cia Torres Vergara, Antoni", "opening_hours": "24/7", "payment:cash": "yes", "payment:credit_cards": "yes", "payment:debit_cards": "yes", "ref": "3621284", "source": "Generalitat de Catalunya", "source:date": "03/11/2020 07:58:02 AM +0000", "wheelchair": "yes"}}, {"type": "node", "id": 5725013523, "lat": 41.3867335, "lon": 2.1767622, "tags": {"addr:city": "Barcelona", "addr:full": "carrer Sant Pere M\u00e9s Baix, 17", "addr:housenumber": "17", "addr:postcode": "08003", "addr:street": "carrer Sant Pere M\u00e9s Baix", "amenity": "pharmacy", "contact:phone": "+34932190397", "dispensing": "yes", "healthcare": "pharmacy", "name": "Farm\u00e0cia Pedragosa Cacha, Santiago", "ref": "3622751", "source": "Generalitat de Catalunya", "source:date": "03/11/2020 07:58:13 AM +0000"}}, {"type": "node", "id": 5772411453, "lat": 41.3903947, "lon": 2.1786497, "tags": {"addr:city": "Barcelona", "addr:full": "carrer Lluis El Piedos, 10", "addr:housenumber": "10", "addr:postcode": "08003", "addr:street": "carrer Lluis El Piedos", "amenity": "pharmacy", "contact:phone": "+34933011984", "dispensing": "yes", "healthcare": "pharmacy", "name": "Farm\u00e0cia Marin Loscertales, Mariano", "opening_hours": "Mo-Fr 09:00-21:00+; Sa 09:00-14:00+; PH,Su off", "ref": "3621488", "source": "Generalitat de Catalunya", "source:date": "03/11/2020 07:58:17 AM +0000"}}, {"type": "node", "id": 6052329517, "lat": 41.3834647, "lon": 2.1782179, "tags": {"addr:city": "Barcelona", "addr:full": "carrer Jaume I, 14", "addr:housenumber": "14", "addr:postcode": "08002", "addr:street": "carrer Jaume I", "amenity": "pharmacy", "contact:phone": "+34933154057", "dispensing": "yes", "healthcare": "pharmacy", "name": "Farm\u00e0cia Soler Alonso, Eduard", "name:ca": "Farm\u00e0cia Soler Alonso, Eduard", "ref": "3621825", "source": "Generalitat de Catalunya", "source:date": "03/11/2020 07:58:05 AM +0000"}}, {"type": "node", "id": 6089810114, "lat": 41.3956147, "lon": 2.1628618, "tags": {"addr:city": "Barcelona", "addr:full": "carrer Proven\u00e7a, 306", "addr:housenumber": "306", "addr:postcode": "08037", "addr:street": "Carrer de Proven\u00e7a", "amenity": "pharmacy", "check_date": "2023-09-28", "contact:phone": "+34932153706", "dispensing": "yes", "healthcare": "pharmacy", "name": "Farm\u00e0cia Valls Julia", "operator": "Llic. Valls Castellv\u00ed, M. \u00c0ngels", "ref": "3621961", "source": "Generalitat de Catalunya", "source:date": "03/11/2020 07:58:02 AM +0000"}}, {"type": "node", "id": 6110253449, "lat": 41.3806166, "lon": 2.1744498, "tags": {"addr:city": "Barcelona", "addr:full": "carrer Ferran, 7", "addr:housenumber": "7", "addr:postcode": "08002", "addr:street": "carrer Ferran", "amenity": "pharmacy", "contact:phone": "+34933172282", "dispensing": "yes", "healthcare": "pharmacy", "name": "Farm\u00e0cia Enrich Esteve, Anna", "ref": "3620633", "source": "Generalitat de Catalunya", "source:date": "03/11/2020 07:58:26 AM +0000"}}, {"type": "node", "id": 6188914395, "lat": 41.3948371, "lon": 2.1620876, "tags": {"addr:city": "Barcelona", "addr:full": "passeig de Gr\u00e0cia, 90", "addr:housenumber": "90", "addr:postcode": "08008", "addr:street": "Passeig de Gr\u00e0cia", "amenity": "pharmacy", "contact:phone": "+34932153427", "dispensing": "yes", "drive_through": "no", "name": "Farm\u00e0cia Teresa Castells Soler", "name:ca": "Farm\u00e0cia Teresa Castells Soler", "opening_hours": "24/7", "ref": "3620741", "source": "Generalitat de Catalunya", "source:date": "03/11/2020 07:58:28 AM +0000", "wheelchair": "limited"}}, {"type": "node", "id": 6204016786, "lat": 41.3919711, "lon": 2.1656695, "tags": {"addr:city": "Barcelona", "addr:full": "passeig de Gr\u00e0cia, 50", "addr:housenumber": "50", "addr:postcode": "08007", "addr:street": "Passeig de Gr\u00e0cia", "amenity": "pharmacy", "contact:phone": "+34932160365", "dispensing": "yes", "drive_through": "no", "healthcare": "pharmacy", "name": "Farm\u00e0cia N\u00faria Massot Moner", "name:ca": "Farm\u00e0cia N\u00faria Massot Moner", "ref": "3620873", "source": "Generalitat de Catalunya", "source:date": "03/11/2020 07:58:16 AM +0000", "wheelchair": "limited"}}, {"type": "node", "id": 6204016788, "lat": 41.3934587, "lon": 2.1645136, "tags": {"addr:city": "Barcelona", "addr:full": "carrer Valencia, 278", "addr:housenumber": "278", "addr:postcode": "08007", "addr:street": "Carrer de Val\u00e8ncia", "alt_name": "Farm\u00e0cia \u00c1lvarez Hern\u00e1ndez, Olga", "alt_name:ca": "Farm\u00e0cia \u00c1lvarez Hern\u00e1ndez, Olga", "amenity": "pharmacy", "contact:phone": "+34932153633", "dispensing": "yes", "healthcare": "pharmacy", "name": "Farm\u00e0cia 1896", "name:ca": "Farm\u00e0cia 1896", "ref": "3621294", "source": "Generalitat de Catalunya", "source:date": "03/11/2020 07:58:34 AM +0000"}}, {"type": "node", "id": 6537958576, "lat": 41.3851434, "lon": 2.1641943, "tags": {"addr:city": "Barcelona", "addr:housenumber": "106", "addr:postcode": "08001", "addr:street": "Ronda de Sant Antoni", "amenity": "pharmacy", "dispensing": "yes", "healthcare": "pharmacy", "name": "Farm\u00e0cia Universitat", "name:ca": "Farm\u00e0cia Universitat", "opening_hours": "Mo-Su 09:00-22:00", "phone": "+34 933 17 56 74"}}, {"type": "node", "id": 6814009599, "lat": 41.3824544, "lon": 2.1748596, "tags": {"addr:city": "Barcelona", "addr:full": "carrer Banys Nous, 14", "addr:housenumber": "14", "addr:postcode": "08002", "addr:street": "carrer Banys Nous", "amenity": "pharmacy", "contact:phone": "+34933014431", "dispensing": "yes", "healthcare": "pharmacy", "name": "Farm\u00e0cia Guilera Barba, Marc", "name:ca": "Farm\u00e0cia Guilera Barba, Marc", "ref": "3620631", "source": "Generalitat de Catalunya", "source:date": "03/11/2020 07:58:20 AM +0000"}}, {"type": "node", "id": 6982273986, "lat": 41.3839868, "lon": 2.1818508, "tags": {"addr:city": "Barcelona", "addr:full": "carrer Sombrerers, 19", "addr:housenumber": "19", "addr:postcode": "08003", "addr:street": "Carrer dels Sombrerers", "amenity": "pharmacy", "contact:phone": "+34933103460", "dispensing": "yes", "healthcare": "pharmacy", "name": "Farm\u00e0cia Rodr\u00edguez Basciano, Alain Adolfo", "ref": "3622749", "source": "Generalitat de Catalunya", "source:date": "03/11/2020 07:58:09 AM +0000"}}, {"type": "node", "id": 6982276285, "lat": 41.3844867, "lon": 2.1823975, "tags": {"addr:city": "Barcelona", "addr:full": "passeig del Born, 11", "addr:housenumber": "11", "addr:postcode": "08003", "addr:street": "passeig del Born", "amenity": "pharmacy", "check_date": "2024-07-20", "contact:phone": "+34933195393", "dispensing": "yes", "healthcare": "pharmacy", "name": "Farm\u00e0cia Patr\u00edcia Alomar Ferrer", "name:ca": "Farm\u00e0cia Patr\u00edcia Alomar Ferrer", "ref": "3621007", "source": "Generalitat de Catalunya", "source:date": "03/11/2020 07:58:34 AM +0000"}}, {"type": "node", "id": 7056238087, "lat": 41.3795773, "lon": 2.1677891, "tags": {"addr:city": "Barcelona", "addr:full": "rambla Del Raval, 2", "addr:housenumber": "2", "addr:postcode": "08001", "addr:street": "rambla Del Raval", "amenity": "pharmacy", "contact:phone": "+34934415079", "dispensing": "yes", "healthcare": "pharmacy", "name": "Sastre Marques", "operator": "Llic. Sastre Marqu\u00e9s Peix, Francesc", "ref": "3621811", "source": "Generalitat de Catalunya", "source:date": "03/11/2020 07:58:06 AM +0000"}}, {"type": "node", "id": 7056238088, "lat": 41.3806316, "lon": 2.1674752, "tags": {"addr:city": "Barcelona", "addr:full": "carrer Carme, 84", "addr:housenumber": "84", "addr:postcode": "08001", "addr:street": "carrer Carme", "amenity": "pharmacy", "contact:phone": "+34932325733", "dispensing": "yes", "healthcare": "pharmacy", "name": "Farm\u00e0cia del Carmen", "operator": "Llic. Agn\u00e9s Tarr\u00e9s Oller", "ref": "3621834", "source": "Generalitat de Catalunya", "source:date": "03/11/2020 07:58:04 AM +0000"}}, {"type": "node", "id": 7056282485, "lat": 41.3776938, "lon": 2.1601524, "tags": {"addr:city": "Barcelona", "addr:full": "carrer de Viladomat, 60 bis", "addr:housenumber": "60 bis", "addr:postcode": "08015", "addr:street": "carrer de Viladomat", "amenity": "pharmacy", "contact:phone": "+34 932234467", "dispensing": "yes", "healthcare": "pharmacy", "name": "Farm\u00e0cia Maria Merc\u00e8 Guillem\u00ed Bast\u00e9", "ref": "3621277", "source": "Generalitat de Catalunya", "source:date": "03/11/2020 07:58:20 AM +0000"}}, {"type": "node", "id": 7056286186, "lat": 41.3806957, "lon": 2.1612445, "tags": {"addr:city": "Barcelona", "addr:full": "carrer Floridablanca, 117", "addr:housenumber": "117", "addr:postcode": "08011", "addr:street": "Carrer de Floridablanca", "amenity": "pharmacy", "contact:phone": "+34932231757", "dispensing": "yes", "healthcare": "pharmacy", "name": "Farm\u00e0cia Barraquer Moner, Mercedes", "opening_hours": "Mo-Sa 09:00-21:30", "ref": "3621959", "source": "Generalitat de Catalunya", "source:date": "03/11/2020 07:58:32 AM +0000", "wheelchair": "yes"}}, {"type": "node", "id": 7125906653, "lat": 41.3907436, "lon": 2.1632578, "tags": {"addr:city": "Barcelona", "addr:full": "carrer Arago, 260", "addr:housenumber": "260", "addr:postcode": "08007", "addr:street": "Carrer d'Arag\u00f3", "amenity": "pharmacy", "check_date": "2024-05-30", "contact:phone": "+34933176788", "dispensing": "yes", "healthcare": "pharmacy", "name": "Farm\u00e0cia Le\u00f3n Alonso, Yolanda", "opening_hours": "Mo-Fr 08:30-21:00; Sa 09:00-14:00", "ref": "3620757", "source": "Generalitat de Catalunya", "source:date": "03/11/2020 07:58:19 AM +0000", "wheelchair": "yes"}}, {"type": "node", "id": 7194929488, "lat": 41.3790002, "lon": 2.1640542, "tags": {"addr:city": "Barcelona", "addr:full": "carrer Sant Antoni Abat, 44", "addr:housenumber": "44", "addr:postcode": "08001", "addr:street": "Carrer de Sant Antoni Abat", "amenity": "pharmacy", "contact:phone": "+34932422134", "dispensing": "yes", "healthcare": "pharmacy", "name": "Farm\u00e0cia Gallart Marti, Maria Antonia", "ref": "3621319", "source": "Generalitat de Catalunya", "source:date": "03/11/2020 07:58:23 AM +0000"}}, {"type": "node", "id": 7237375571, "lat": 41.395277, "lon": 2.1708492, "tags": {"addr:city": "Barcelona", "addr:full": "carrer Girona, 72", "addr:housenumber": "72", "addr:postcode": "08009", "addr:street": "Carrer de Girona", "amenity": "pharmacy", "check_date": "2025-02-16", "check_date:opening_hours": "2023-09-02", "dispensing": "yes", "healthcare": "pharmacy", "name": "Farm\u00e0cia Puchol Jambert / Garcia-Miranda Rojas", "opening_hours": "Mo-Fr 08:30-20:30; Sa 09:00-14:00", "phone": "+34 932 65 23 69", "ref": "3621290", "source": "Generalitat de Catalunya", "source:date": "03/11/2020 07:58:11 AM +0000", "wheelchair": "limited"}}, {"type": "node", "id": 7323747625, "lat": 41.3907897, "lon": 2.1717513, "tags": {"addr:city": "Barcelona", "addr:full": "carrer Roger De Lluria, 17", "addr:housenumber": "17", "addr:postcode": "08010", "addr:street": "Carrer de Roger de Ll\u00faria", "amenity": "pharmacy", "check_date": "2024-03-06", "contact:phone": "+34933173791", "dispensing": "yes", "healthcare": "pharmacy", "name": "Farm\u00e0cia Bouffard Fita, Carina", "ref": "3620596", "source": "Generalitat de Catalunya", "source:date": "03/11/2020 07:58:31 AM +0000"}}, {"type": "node", "id": 7323747626, "lat": 41.3866909, "lon": 2.1737568, "tags": {"addr:city": "Barcelona", "addr:full": "carrer Comtal, 25", "addr:housenumber": "25", "addr:postcode": "08002", "addr:street": "carrer Comtal", "alt_name": "Farm\u00e0cia Barenys de Lacha, Llu\u00eds", "amenity": "pharmacy", "contact:phone": "+34933178344", "dispensing": "yes", "healthcare": "pharmacy", "name": "Farm\u00e0cia Barenys", "ref": "3622760", "source": "Generalitat de Catalunya", "source:date": "03/11/2020 07:58:33 AM +0000"}}, {"type": "node", "id": 7323749405, "lat": 41.3934027, "lon": 2.1682985, "tags": {"addr:city": "Barcelona", "addr:full": "carrer Roger De Lluria, 51", "addr:housenumber": "51", "addr:postcode": "08009", "addr:street": "Carrer de Roger de Ll\u00faria", "amenity": "pharmacy", "dispensing": "yes", "healthcare": "pharmacy", "name": "Farm\u00e0cia Miserachs Lalanda, Marta", "ref": "3620982", "source": "Generalitat de Catalunya", "source:date": "03/11/2020 07:58:15 AM +0000"}}, {"type": "node", "id": 7323749406, "lat": 41.3918346, "lon": 2.1681233, "tags": {"addr:city": "Barcelona", "addr:full": "carrer Pau Claris, 111", "addr:housenumber": "111", "addr:postcode": "08009", "addr:street": "Carrer de Pau Claris", "amenity": "pharmacy", "contact:phone": "+34933172093", "dispensing": "yes", "healthcare": "pharmacy", "name": "Farm\u00e0cia Roson Rio, Santiago", "opening_hours": "Mo-Sa 08:00-21:00", "ref": "3622759", "source": "Generalitat de Catalunya", "source:date": "03/11/2020 07:58:08 AM +0000"}}, {"type": "node", "id": 7323749407, "lat": 41.3943714, "lon": 2.1743069, "tags": {"addr:city": "Barcelona", "addr:full": "gv corts catalanes, 00669", "addr:housenumber": "669", "addr:postcode": "08013", "addr:street": "Gran Via de les Corts Catalanes", "amenity": "pharmacy", "contact:phone": "+34932452038", "dispensing": "yes", "healthcare": "pharmacy", "name": "Farm\u00e0cia Mateu Bell\u00e9s, M. Joana", "ref": "3622753", "source": "Generalitat de Catalunya", "source:date": "03/11/2020 07:58:16 AM +0000"}}, {"type": "node", "id": 7323749408, "lat": 41.3945131, "lon": 2.1694553, "tags": {"addr:city": "Barcelona", "addr:full": "carrer Bruc, 88", "addr:housenumber": "88", "addr:postcode": "08009", "addr:street": "Carrer del Bruc", "amenity": "pharmacy", "check_date": "2024-03-06", "contact:phone": "+34933010134", "dispensing": "yes", "name": "Farm\u00e0cia Gilaberte Velasco, Lydia", "ref": "3621487", "source": "Generalitat de Catalunya", "source:date": "03/11/2020 07:58:22 AM +0000"}}, {"type": "node", "id": 7323785307, "lat": 41.3934118, "lon": 2.1808171, "tags": {"addr:city": "Barcelona", "addr:full": "carrer Ali-Bei, 38", "addr:housenumber": "38", "addr:postcode": "08013", "addr:street": "Carrer d'Al\u00ed Bei", "amenity": "pharmacy", "contact:phone": "+34932314256", "dispensing": "yes", "healthcare": "pharmacy", "name": "Farm\u00e0cia Bainad Caball\u00e9, Jacint", "ref": "3624279", "source": "Generalitat de Catalunya", "source:date": "03/11/2020 07:58:33 AM +0000", "wheelchair": "yes"}}, {"type": "node", "id": 7323785308, "lat": 41.3903305, "lon": 2.183641, "tags": {"addr:city": "Barcelona", "addr:full": "carrer Roger De Flor, 9 bis", "addr:housenumber": "9 bis", "addr:postcode": "08018", "addr:street": "Carrer de Roger de Flor", "amenity": "pharmacy", "contact:phone": "+34933099270", "dispensing": "yes", "healthcare": "pharmacy", "name": "Farm\u00e0cia Malaspina Casulleras, Anna M.", "ref": "3623626", "source": "Generalitat de Catalunya", "source:date": "03/11/2020 07:58:18 AM +0000"}}, {"type": "node", "id": 7323785309, "lat": 41.3910603, "lon": 2.1852869, "tags": {"addr:city": "Barcelona", "addr:full": "carrer Napols, 4", "addr:housenumber": "4", "addr:postcode": "08018", "addr:street": "Carrer de N\u00e0pols", "amenity": "pharmacy", "contact:phone": "+34933094001", "dispensing": "yes", "healthcare": "pharmacy", "name": "Farm\u00e0cia Jov\u00e9 Ysanta, M. Teresa", "ref": "3621995", "source": "Generalitat de Catalunya", "source:date": "03/11/2020 07:58:19 AM +0000"}}, {"type": "node", "id": 7323785310, "lat": 41.3937007, "lon": 2.1763177, "tags": {"addr:city": "Barcelona", "addr:full": "carrer Casp, 67", "addr:housenumber": "67", "addr:postcode": "08010", "addr:street": "Carrer de Casp", "amenity": "pharmacy", "contact:phone": "+34932320057", "dispensing": "yes", "name": "Farm\u00e0cia Ortu\u00f1o Gobern, M. Pilar", "ref": "3624653", "source": "Generalitat de Catalunya", "source:date": "03/11/2020 07:58:14 AM +0000"}}, {"type": "node", "id": 7323785311, "lat": 41.3902055, "lon": 2.1807867, "tags": {"addr:city": "Barcelona", "addr:full": "passeig de Llu\u00eds Companys, 7", "addr:housenumber": "7", "addr:postcode": "08003", "addr:street": "Passeig de Llu\u00eds Companys", "amenity": "pharmacy", "contact:phone": "+34933092937", "dispensing": "yes", "healthcare": "pharmacy", "name": "Farm\u00e0cia Montserrat Villar Merch\u00e1n", "ref": "3621821", "source": "Generalitat de Catalunya", "source:date": "03/11/2020 07:58:01 AM +0000"}}, {"type": "node", "id": 7323785312, "lat": 41.3881124, "lon": 2.1806893, "tags": {"addr:city": "Barcelona", "addr:full": "pla\u00e7a Sant Agust\u00ed Vell, 11", "addr:housenumber": "11", "addr:postcode": "08003", "addr:street": "pla\u00e7a Sant Agust\u00ed Vell", "amenity": "pharmacy", "contact:phone": "+34933198507", "dispensing": "yes", "healthcare": "pharmacy", "name": "Farm\u00e0cia S\u00e1nchez Garc\u00eda, Jos\u00e9", "ref": "3620734", "source": "Generalitat de Catalunya", "source:date": "03/11/2020 07:58:07 AM +0000"}}, {"type": "node", "id": 7323809852, "lat": 41.3852524, "lon": 2.1794549, "tags": {"addr:city": "Barcelona", "addr:full": "pla\u00e7a Llana, 11", "addr:housenumber": "11", "addr:postcode": "08003", "addr:street": "pla\u00e7a Llana", "amenity": "pharmacy", "contact:phone": "+34933195921", "dispensing": "yes", "healthcare": "pharmacy", "name": "Farm\u00e0cia Agramonte Bucho, Zoila Adelfa", "ref": "3620603", "source": "Generalitat de Catalunya", "source:date": "03/11/2020 07:58:34 AM +0000"}}, {"type": "node", "id": 7323809854, "lat": 41.3838959, "lon": 2.1840961, "tags": {"addr:city": "Barcelona", "addr:full": "avinguda Marqu\u00e8s de L'Argentera, 5", "addr:housenumber": "5", "addr:postcode": "08003", "addr:street": "Avinguda del Marqu\u00e8s de l'Argentera", "amenity": "pharmacy", "contact:phone": "+34933192006", "dispensing": "yes", "healthcare": "pharmacy", "name": "Farm\u00e0cia Allu\u00e9 Mugarra, Alejandro", "ref": "3622771", "source": "Generalitat de Catalunya", "source:date": "03/11/2020 07:58:34 AM +0000"}}, {"type": "node", "id": 7323809855, "lat": 41.3789519, "lon": 2.175506, "tags": {"addr:city": "Barcelona", "addr:full": "rambla La Rambla, 38", "addr:housenumber": "38", "addr:postcode": "08002", "addr:street": "La Rambla", "amenity": "pharmacy", "contact:phone": "+34933172192", "dispensing": "yes", "healthcare": "pharmacy", "name": "Farm\u00e0cia Hern\u00e1ndez de la Rosa, Carme", "name:ca": "Farm\u00e0cia Hern\u00e1ndez de la Rosa, Carme", "ref": "3622778", "source": "Generalitat de Catalunya", "source:date": "03/11/2020 07:58:19 AM +0000"}}, {"type": "node", "id": 7323813053, "lat": 41.3750474, "lon": 2.1718901, "tags": {"addr:city": "Barcelona", "addr:full": "avinguda Paral Lel, 48", "addr:housenumber": "48", "addr:postcode": "08001", "addr:street": "avinguda Paral Lel", "amenity": "pharmacy", "check_date": "2023-04-26", "contact:phone": "+34932410223", "dispensing": "yes", "healthcare": "pharmacy", "name": "Farm\u00e0cia Llenas Just, F. - Vilardell Williges, I.", "ref": "3620986", "source": "Generalitat de Catalunya", "source:date": "03/11/2020 07:58:18 AM +0000"}}, {"type": "node", "id": 7323813055, "lat": 41.3793006, "lon": 2.1722387, "tags": {"addr:city": "Barcelona", "addr:full": "carrer de Sant Pau, 44", "addr:housenumber": "44", "addr:postcode": "08001", "addr:street": "carrer de Sant Pau", "amenity": "pharmacy", "contact:phone": "+34933020748", "dispensing": "yes", "healthcare": "pharmacy", "name": "Farm\u00e0cia Camprub\u00ed Ribalta, M. Falgas", "ref": "3621472", "source": "Generalitat de Catalunya", "source:date": "03/11/2020 07:58:29 AM +0000", "wheelchair": "limited"}}, {"type": "node", "id": 7323813056, "lat": 41.3794972, "lon": 2.1750305, "tags": {"addr:city": "Barcelona", "addr:full": "rambla La Rambla, 44", "addr:housenumber": "44", "addr:postcode": "08002", "addr:street": "rambla La Rambla", "amenity": "pharmacy", "contact:phone": "+34933020391", "dispensing": "yes", "healthcare": "pharmacy", "name": "Farm\u00e0cia Aguilar Peyra, M. Vict\u00f2ria", "ref": "3620979", "source": "Generalitat de Catalunya", "source:date": "03/11/2020 07:58:34 AM +0000"}}, {"type": "node", "id": 7323813057, "lat": 41.3792218, "lon": 2.1760437, "tags": {"addr:city": "Barcelona", "addr:full": "carrer Escudellers, 8", "addr:housenumber": "8", "addr:postcode": "08002", "addr:street": "carrer Escudellers", "amenity": "pharmacy", "contact:phone": "+34933018630", "dispensing": "yes", "healthcare": "pharmacy", "name": "Farm\u00e0cia Giron\u00e8s Saderra, Montserrat", "name:ca": "Farm\u00e0cia Giron\u00e8s Saderra, Montserrat", "ref": "3621507", "source": "Generalitat de Catalunya", "source:date": "03/11/2020 07:58:21 AM +0000"}}, {"type": "node", "id": 7323813058, "lat": 41.3768896, "lon": 2.1775928, "tags": {"addr:city": "Barcelona", "addr:full": "carrer Josep Anselm Clav\u00e9, 3", "addr:housenumber": "3", "addr:postcode": "08002", "addr:street": "carrer Josep Anselm Clav\u00e9", "amenity": "pharmacy", "contact:phone": "+34933171181", "dispensing": "yes", "healthcare": "pharmacy", "name": "Farm\u00e0cia Rodr\u00edguez Vilar, Javier", "opening_hours": "Mo-Su 09:30-14:00,16:30-20:30", "ref": "3620860", "source": "Generalitat de Catalunya", "source:date": "03/11/2020 07:58:09 AM +0000"}}, {"type": "node", "id": 7323899885, "lat": 41.3831792, "lon": 2.1719978, "tags": {"addr:city": "Barcelona", "addr:full": "carrer Portaferrissa, 1", "addr:housenumber": "1-3", "addr:postcode": "08002", "addr:street": "Carrer de la Portaferrissa", "amenity": "pharmacy", "contact:phone": "+34933024345", "dispensing": "yes", "healthcare": "pharmacy", "name": "Farm\u00e0cia Toledo Fern\u00e1ndez, Esther", "ref": "3622769", "source": "Generalitat de Catalunya", "source:date": "03/11/2020 07:58:03 AM +0000"}}, {"type": "node", "id": 7323899887, "lat": 41.3801677, "lon": 2.1692778, "tags": {"addr:city": "Barcelona", "addr:full": "carrer Hospital, 70", "addr:housenumber": "70", "addr:postcode": "08001", "addr:street": "carrer Hospital", "amenity": "pharmacy", "check_date": "2023-04-27", "contact:phone": "+34932423415", "dispensing": "yes", "healthcare": "pharmacy", "name": "Farm\u00e0cia Guerrero Agust\u00ed, Adriana", "name:ca": "Farm\u00e0cia Guerrero Agust\u00ed, Adriana", "ref": "3622774", "source": "Generalitat de Catalunya", "source:date": "03/11/2020 07:58:20 AM +0000"}}, {"type": "node", "id": 7323899888, "lat": 41.3822757, "lon": 2.1688139, "tags": {"addr:city": "Barcelona", "addr:full": "carrer Pintor Fortuny, 31", "addr:housenumber": "31", "addr:postcode": "08001", "addr:street": "Carrer del Pintor Fortuny", "amenity": "pharmacy", "contact:phone": "+34933182233", "dispensing": "yes", "healthcare": "pharmacy", "name": "Farm\u00e0cia S\u00e1nchez Mart\u00ednez, Socorro", "name:ca": "Farm\u00e0cia S\u00e1nchez Mart\u00ednez, Socorro", "ref": "3621299", "source": "Generalitat de Catalunya", "source:date": "03/11/2020 07:58:07 AM +0000"}}, {"type": "node", "id": 7323899889, "lat": 41.3785545, "lon": 2.1656099, "tags": {"addr:city": "Barcelona", "addr:full": "carrer Cera, 30", "addr:housenumber": "30", "addr:postcode": "08001", "addr:street": "Carrer de la Cera", "amenity": "pharmacy", "check_date": "2023-04-27", "contact:phone": "+34932410593", "dispensing": "yes", "healthcare": "pharmacy", "name": "Farm\u00e0cia Mandianes, Anna - Vallcorba, Gisela", "ref": "3621839", "source": "Generalitat de Catalunya", "source:date": "03/11/2020 07:58:17 AM +0000"}}, {"type": "node", "id": 7323899890, "lat": 41.38221, "lon": 2.1660796, "tags": {"addr:city": "Barcelona", "addr:full": "carrer Joaquim Costa, 31", "addr:housenumber": "31", "addr:postcode": "08001", "addr:street": "Carrer de Joaqu\u00edn Costa", "amenity": "pharmacy", "contact:phone": "+34932424945", "dispensing": "yes", "healthcare": "pharmacy", "name": "Farm\u00e0cia Benavides Helbig, Santiago", "ref": "3620996", "source": "Generalitat de Catalunya", "source:date": "03/11/2020 07:58:32 AM +0000"}}, {"type": "node", "id": 7323899891, "lat": 41.3793909, "lon": 2.1657757, "tags": {"addr:city": "Barcelona", "addr:full": "carrer Sant Antoni Abat, 1", "addr:housenumber": "1", "addr:postcode": "08001", "addr:street": "carrer Sant Antoni Abat", "amenity": "pharmacy", "contact:phone": "+34934410903", "dispensing": "yes", "healthcare": "pharmacy", "name": "Farm\u00e0cia Benedid Costa, Montserrat", "ref": "3620973", "source": "Generalitat de Catalunya", "source:date": "03/11/2020 07:58:32 AM +0000"}}, {"type": "node", "id": 7323899892, "lat": 41.3783535, "lon": 2.1692541, "tags": {"addr:city": "Barcelona", "addr:full": "rambla Del Raval, 14", "addr:housenumber": "14", "addr:postcode": "08001", "addr:street": "rambla Del Raval", "amenity": "pharmacy", "contact:phone": "+34934415393", "dispensing": "yes", "healthcare": "pharmacy", "name": "Farm\u00e0cia Beltran Rovira, Jordi", "name:ca": "Farm\u00e0cia Beltran Rovira, Jordi", "ref": "3620588", "source": "Generalitat de Catalunya", "source:date": "03/11/2020 07:58:32 AM +0000"}}, {"type": "node", "id": 7340367483, "lat": 41.3896688, "lon": 2.1595037, "tags": {"addr:city": "Barcelona", "addr:full": "carrer Valencia, 224", "addr:housenumber": "224", "addr:postcode": "08007", "addr:street": "Carrer de Val\u00e8ncia", "amenity": "pharmacy", "contact:phone": "+34932538763", "dispensing": "yes", "name": "Farm\u00e0cia Gimeno Fit\u00e9, Mercedes", "opening_hours": "Mo-Fr 09:30-13:30,16:30-20:00; Sa 10:00-13:30", "ref": "3620756", "source": "Generalitat de Catalunya", "source:date": "03/11/2020 07:58:22 AM +0000"}}, {"type": "node", "id": 7340393698, "lat": 41.3914926, "lon": 2.1599169, "tags": {"addr:city": "Barcelona", "addr:full": "carrer Balmes, 94", "addr:housenumber": "94", "addr:postcode": "08008", "addr:street": "Carrer de Balmes", "amenity": "pharmacy", "check_date": "2023-04-25", "contact:phone": "+34932152185", "dispensing": "yes", "healthcare": "pharmacy", "name": "Farm\u00e0cia de Mir Tubert, M.J / Navarro de Mir, I.", "ref": "3620981", "source": "Generalitat de Catalunya", "source:date": "03/11/2020 07:58:26 AM +0000"}}, {"type": "node", "id": 7340393719, "lat": 41.3885308, "lon": 2.1597786, "tags": {"addr:city": "Barcelona", "addr:full": "carrer Arago, 207", "addr:housenumber": "207", "addr:postcode": "08011", "addr:street": "Carrer d'Arag\u00f3", "amenity": "pharmacy", "check_date": "2024-10-26", "contact:phone": "+34934537385", "dispensing": "yes", "name": "Farm\u00e0cia Castell Fores, M. Carme", "name:ca": "Farm\u00e0cia Castell Fores, M. Carme", "ref": "3621499", "source": "Generalitat de Catalunya", "source:date": "03/11/2020 07:58:28 AM +0000"}}, {"type": "node", "id": 7340456325, "lat": 41.3867462, "lon": 2.1596693, "tags": {"addr:city": "Barcelona", "addr:full": "carrer Consell De Cent, 253", "addr:housenumber": "253", "addr:postcode": "08011", "addr:street": "Carrer del Consell de Cent", "amenity": "pharmacy", "contact:phone": "+34 932534704", "dispensing": "yes", "name": "Farm\u00e0cia Marrugat Fontanals, \u00d2scar", "ref": "3622763", "source": "Generalitat de Catalunya", "source:date": "03/11/2020 07:58:17 AM +0000"}}, {"type": "node", "id": 7340456329, "lat": 41.3763475, "lon": 2.1592684, "tags": {"addr:city": "Barcelona", "addr:full": "carrer Calabria, 27", "addr:housenumber": "27", "addr:postcode": "08015", "addr:street": "Carrer de Cal\u00e0bria", "amenity": "pharmacy", "contact:phone": "+34 933255325", "dispensing": "yes", "healthcare": "pharmacy", "name": "Farm\u00e0cia Ciurana Ribas, Teresa", "ref": "3624014", "source": "Generalitat de Catalunya", "source:date": "03/11/2020 07:58:28 AM +0000"}}, {"type": "node", "id": 7342515225, "lat": 41.3803182, "lon": 2.1644355, "tags": {"addr:city": "Barcelona", "addr:full": "carrer Riera Alta, 59", "addr:housenumber": "59", "addr:postcode": "08001", "addr:street": "Carrer de la Riera Alta", "amenity": "pharmacy", "contact:phone": "+34932423327", "dispensing": "yes", "healthcare": "pharmacy", "name": "Farm\u00e0cia Mart\u00ednez Ma\u00f1as, Maria Rosario", "ref": "3621306", "source": "Generalitat de Catalunya", "source:date": "03/11/2020 07:58:17 AM +0000"}}, {"type": "node", "id": 7342515227, "lat": 41.3839696, "lon": 2.1640011, "tags": {"addr:city": "Barcelona", "addr:full": "ronda Sant Antoni, 88", "addr:housenumber": "88", "addr:postcode": "08001", "addr:street": "Ronda de Sant Antoni", "amenity": "pharmacy", "contact:phone": "+34933014946", "dispensing": "yes", "healthcare": "pharmacy", "name": "Farm\u00e0cia Gallardo Sauret, Montserrat", "ref": "3620747", "source": "Generalitat de Catalunya", "source:date": "03/11/2020 07:58:23 AM +0000"}}, {"type": "node", "id": 7342515228, "lat": 41.3751746, "lon": 2.1620893, "tags": {"addr:city": "Barcelona", "addr:full": "avinguda Paral.Lel, 124, porta b", "addr:housenumber": "124", "addr:postcode": "08015", "addr:street": "Avinguda del Paral\u00b7lel", "amenity": "pharmacy", "check_date": "2023-12-25", "contact:phone": "+34933299140", "dispensing": "yes", "healthcare": "pharmacy", "name": "Farm\u00e0cia De Dou Reales, B.-Ni\u00f1erola Mora, M.", "ref": "3621837", "source": "Generalitat de Catalunya", "source:date": "03/11/2020 07:58:27 AM +0000"}}, {"type": "node", "id": 7342515229, "lat": 41.3806385, "lon": 2.1635729, "tags": {"addr:city": "Barcelona", "addr:full": "ronda Sant Antoni, 40", "addr:housenumber": "40", "addr:postcode": "08001", "addr:street": "Ronda de Sant Antoni", "amenity": "pharmacy", "check_date": "2024-01-16", "contact:phone": "+34932422650", "dispensing": "yes", "healthcare": "pharmacy", "name": "Farm\u00e0cia Rodr\u00edguez Rubio, Jos\u00e9 Lu\u00eds", "ref": "3621014", "source": "Generalitat de Catalunya", "source:date": "03/11/2020 07:58:09 AM +0000", "wheelchair": "yes"}}, {"type": "node", "id": 7342515230, "lat": 41.3745211, "lon": 2.1632815, "tags": {"addr:city": "Barcelona", "addr:full": "pla\u00e7a Blasco Garay, 7", "addr:housenumber": "7", "addr:postcode": "08004", "addr:street": "Carrer de Blasco de Garay", "amenity": "pharmacy", "contact:phone": "+34934416487", "dispensing": "yes", "healthcare": "pharmacy", "name": "Farm\u00e0cia Calsina Calsina, M. Teresa", "ref": "3620585", "source": "Generalitat de Catalunya", "source:date": "03/11/2020 07:58:29 AM +0000"}}, {"type": "node", "id": 9310057717, "lat": 41.3758173, "lon": 2.1748667, "tags": {"addr:housenumber": "13", "addr:postcode": "08001", "addr:street": "Carrer de Peracamps", "amenity": "pharmacy", "email": "farmaciaom18@gmail.com", "healthcare": "pharmacy", "name": "I. Mart\u00ednez Montero", "name:es": "Farm\u00e0cia Mart\u00ednez", "phone": "+34 934410546;+34 610003904", "website": "https://www.farmamiramar.com/"}}, {"type": "node", "id": 10944128305, "lat": 41.3889645, "lon": 2.1626764, "tags": {"addr:door": "1 1", "addr:housenumber": "309", "addr:postcode": "08007", "addr:street": "Carrer del Consell de Cent", "amenity": "pharmacy", "check_date": "2024-05-31", "healthcare": "pharmacy", "name": "Farm\u00e0cia Gonz\u00e1lez-Meneses", "phone": "+34 933 17 65 83", "wheelchair": "yes"}}, {"type": "node", "id": 11949628470, "lat": 41.3894928, "lon": 2.1762664, "tags": {"amenity": "pharmacy"}}, {"type": "node", "id": 12076490169, "lat": 41.3791341, "lon": 2.1604807, "tags": {"amenity": "pharmacy"}}]}