{"version": 0.6, "generator": "Overpass API 0.7.62.5 1bd436f1", "osm3s": {"timestamp_osm_base": "2025-03-24T01:42:16Z", "copyright": "The data included in this document is from www.openstreetmap.org. The data is made available under ODbL."}, "elements": [{"type": "node", "id": 2056514582, "lat": 41.3755945, "lon": 2.1702374, "tags": {"amenity": "nightclub", "name": "Hell awaits"}}, {"type": "node", "id": 2056517880, "lat": 41.3805565, "lon": 2.1752496, "tags": {"amenity": "nightclub", "harassment_prevention": "No Callem", "name": "Sidecar", "sexual_antiharassment_policy": "yes", "sexual_antiharassment_policy:name": "NoCallem"}}, {"type": "node", "id": 2247772387, "lat": 41.3786292, "lon": 2.1752978, "tags": {"addr:housenumber": "27", "addr:street": "la Rambla", "amenity": "nightclub", "name": "Boulevard Culture Club", "name:cs": "caramba", "source": "+34 662 30 43 01"}}, {"type": "node", "id": 2457866965, "lat": 41.3797128, "lon": 2.1751933, "tags": {"addr:housenumber": "18", "addr:street": "Pla\u00e7a Reial", "amenity": "nightclub", "check_date": "2024-07-20", "harassment_prevention": "No Callem", "name": "Jamboree", "sexual_antiharassment_policy": "yes", "sexual_antiharassment_policy:name": "NoCallem"}}, {"type": "node", "id": 2457874856, "lat": 41.3811234, "lon": 2.1784298, "tags": {"addr:city": "Barcelona", "addr:housenumber": "8", "addr:postcode": "08002", "addr:street": "Carrer de la Comtessa de Sobradiel", "amenity": "nightclub", "name": "Harlem Jazz Club", "phone": "+34 933 10 07 55", "smoking": "no", "website": "https://www.harlemjazzclub.es/"}}, {"type": "node", "id": 2498389550, "lat": 41.3884428, "lon": 2.1639901, "tags": {"amenity": "nightclub", "harassment_prevention": "No Callem", "name": "Ocean", "sexual_antiharassment_policy": "yes", "sexual_antiharassment_policy:name": "NoCallem"}}, {"type": "node", "id": 2498389551, "lat": 41.3884327, "lon": 2.1642261, "tags": {"amenity": "nightclub", "harassment_prevention": "No Callem", "lgbtq": "primary", "name": "Aire / Arena Cl\u00e0ssic", "sexual_antiharassment_policy": "yes", "sexual_antiharassment_policy:name": "NoCallem", "website": "https://grupoarena.com/sala-arena-classic/", "wheelchair": "no"}}, {"type": "node", "id": 2498389557, "lat": 41.3840336, "lon": 2.1634161, "tags": {"amenity": "nightclub", "lgbtq:men": "only", "name": "Metro"}}, {"type": "node", "id": 2879811887, "lat": 41.3794046, "lon": 2.1768641, "tags": {"addr:city": "Barcelona", "addr:housenumber": "5", "addr:postcode": "08002", "addr:street": "Carrer Nou de Sant Francesc", "amenity": "nightclub", "name": "Macarena Club", "website": "https://www.macarenaclub.com/"}}, {"type": "node", "id": 3072968504, "lat": 41.3743908, "lon": 2.1695606, "tags": {"amenity": "nightclub", "harassment_prevention": "No Callem", "name": "Sala Apolo", "name:ca": "Sala Apolo", "sexual_antiharassment_policy": "yes", "sexual_antiharassment_policy:name": "NoCallem", "website": "https://www.sala-apolo.com", "wikidata": "Q20103353", "wikimedia_commons": "Category:Sala Apolo (Barcelona)", "wikipedia": "ca:Sala Apolo"}}, {"type": "node", "id": 3892711667, "lat": 41.3831657, "lon": 2.162742, "tags": {"addr:city": "Barcelona", "addr:housenumber": "178", "addr:postcode": "08011", "addr:street": "Carrer de Sep\u00falveda", "amenity": "nightclub", "check_date": "2025-02-19", "lgbtq": "primary", "name": "Museum", "opening_hours": "Fr-Sa 23:00-03:00", "wheelchair": "no"}}, {"type": "node", "id": 4708595789, "lat": 41.3799209, "lon": 2.1862228, "tags": {"amenity": "nightclub", "name:en": "OneOcean Club"}}, {"type": "node", "id": 4773217122, "lat": 41.3852951, "lon": 2.172046, "tags": {"amenity": "nightclub", "name": "Rainbow Dragon", "name:es": "Rainbow Dragon"}}, {"type": "node", "id": 4958889874, "lat": 41.3877311, "lon": 2.1682772, "tags": {"addr:housenumber": "2-4", "addr:postcode": "08007", "addr:street": "Rambla de Catalunya", "amenity": "nightclub", "name": "The Black Room", "name:en": "The Black Room", "name:es": "The Black Room", "opening_hours": "Sa-Su 23:00-05:00"}}, {"type": "node", "id": 5663248080, "lat": 41.3788563, "lon": 2.1749439, "tags": {"addr:street": "La Rambla, el Raval", "amenity": "nightclub", "name": "R33"}}, {"type": "node", "id": 10649981205, "lat": 41.3895686, "lon": 2.1739427, "tags": {"addr:housenumber": "19-21", "addr:postcode": "08010", "addr:street": "Ronda de Sant Pere", "amenity": "nightclub", "name": "Arena", "name:en": "Arena Xperience", "name:es": "Arena Xperience", "name:fr": "Arena Xperience", "opening_hours": "Su-Th 23:59-05:00; Fr-Sa 23:59-06:00", "phone": "+34934875140", "website": "https://grupoarena.com/"}}, {"type": "node", "id": 12077033449, "lat": 41.3743555, "lon": 2.1695179, "tags": {"amenity": "nightclub", "contact:instagram": "nitsa_club", "live_music": "yes", "name": "Nitsa Club"}}, {"type": "node", "id": 12246183831, "lat": 41.382371, "lon": 2.1642234, "tags": {"addr:city": "Barcelona", "addr:housenumber": "27", "addr:postcode": "08001", "addr:street": "Carrer del Tigre", "amenity": "nightclub", "email": "info@lapaloma.com", "name": "La Paloma", "phone": "+34 933 016 897", "website": "https://lapaloma.com"}}]}