{"version": 0.6, "generator": "Overpass API 0.7.62.5 1bd436f1", "osm3s": {"timestamp_osm_base": "2025-03-24T01:08:45Z", "copyright": "The data included in this document is from www.openstreetmap.org. The data is made available under ODbL."}, "elements": [{"type": "node", "id": 847716885, "lat": 41.417609, "lon": 2.1694012, "tags": {"addr:city": "Barcelona", "addr:full": "carrer de Brusel\u00b7les, 43", "addr:housenumber": "43", "addr:postcode": "08041", "addr:street": "Carrer de Brusel\u00b7les", "amenity": "pharmacy", "contact:phone": "+34933470685", "dispensing": "yes", "healthcare": "pharmacy", "name": "Farm\u00e0cia San Martin Pel\u00e1ez, Maria Montserrat", "opening_hours": "Mo-Fr 09:00-13:30,16:30-20:00; Sa 09:00-13:30", "ref": "3623578", "source": "Generalitat de Catalunya", "source:date": "03/11/2020 07:58:07 AM +0000"}}, {"type": "node", "id": 847721560, "lat": 41.4167971, "lon": 2.1704461, "tags": {"addr:city": "Barcelona", "addr:full": "Avinguda Mare de D\u00e9u de Montserrat, 143", "addr:housenumber": "143", "addr:postcode": "08041", "addr:street": "Avinguda de la Mare de D\u00e9u de Montserrat", "amenity": "pharmacy", "contact:phone": "+34934555139", "dispensing": "yes", "healthcare": "pharmacy", "name": "Farm\u00e0cia G\u00f3mez Mart\u00ednez, Jesus Carlos", "opening_hours": "Mo-Fr 09:00-21:00; Sa 09:00-14:30,16:30-20:30", "ref": "3621637", "source": "Generalitat de Catalunya", "source:date": "03/11/2020 07:58:21 AM +0000"}}, {"type": "node", "id": 847721562, "lat": 41.4158266, "lon": 2.1685072, "tags": {"addr:city": "Barcelona", "addr:full": "avinguda Mare de D\u00e9u de Montserrat, 109", "addr:housenumber": "109", "addr:postcode": "08024", "addr:street": "Avinguda de la Mare de D\u00e9u de Montserrat", "amenity": "pharmacy", "contact:phone": "+34932358865", "dispensing": "yes", "name": "Farm\u00e0cia Mancho Mu\u00f1oz, Amparo", "ref": "3624701", "source": "Generalitat de Catalunya", "source:date": "03/11/2020 07:58:17 AM +0000"}}, {"type": "node", "id": 863150513, "lat": 41.4188827, "lon": 2.1723734, "tags": {"addr:city": "Barcelona", "addr:full": "avinguda Mare de D\u00e9u de Montserrat, 158", "addr:housenumber": "158", "addr:postcode": "08041", "addr:street": "avinguda Mare de D\u00e9u de Montserrat", "amenity": "pharmacy", "contact:phone": "+34932368634", "dispensing": "yes", "name": "Farm\u00e0cia Palacio Bescos, Maria del Pilar", "opening_hours": "Mo-Sa 09:00-14:00; Mo-Fr 16:30-20:30", "ref": "3621990", "source": "Generalitat de Catalunya", "source:date": "03/11/2020 07:58:13 AM +0000"}}, {"type": "node", "id": 1017920065, "lat": 41.4318264, "lon": 2.1767217, "tags": {"addr:city": "Barcelona", "addr:full": "carrer Maladeta, 7", "addr:housenumber": "7", "addr:postcode": "08016", "addr:street": "Carrer de la Maladeta", "amenity": "pharmacy", "contact:phone": "+34933527804", "dispensing": "yes", "healthcare": "pharmacy", "name": "Farm\u00e0cia Lozano Salvatella, Joan Josep", "name:ca": "Farm\u00e0cia Lozano Salvatella, Joan Josep", "ref": "3624703", "source": "Generalitat de Catalunya", "source:date": "03/11/2020 07:58:18 AM +0000"}}, {"type": "node", "id": 1017920109, "lat": 41.4303951, "lon": 2.1780111, "tags": {"addr:city": "Barcelona", "addr:full": "passeig de Fabra i Puig, 210", "addr:housenumber": "210", "addr:postcode": "08016", "addr:street": "Passeig de Fabra i Puig", "amenity": "pharmacy", "contact:phone": "+34934084708", "dispensing": "yes", "healthcare": "pharmacy", "name": "Farm\u00e0cia Aranda", "name:ca": "Farm\u00e0cia Aranda", "operator": "Farm\u00e0cia R. Aranda Guerra - D. Guerra Maurici", "ref": "3620851", "source": "Generalitat de Catalunya", "source:date": "03/11/2020 07:58:34 AM +0000"}}, {"type": "node", "id": 1320545234, "lat": 41.4262731, "lon": 2.187383, "tags": {"addr:city": "Barcelona", "addr:full": "carrer Pac\u00edfic, 61", "addr:housenumber": "61", "addr:postcode": "08027", "addr:street": "carrer Pac\u00edfic", "amenity": "pharmacy", "contact:phone": "+34933409520", "dispensing": "yes", "name": "Farm\u00e0cia Serra Sim\u00f3n, Susanna", "ref": "3623416", "source": "Generalitat de Catalunya", "source:date": "03/11/2020 07:58:06 AM +0000"}}, {"type": "node", "id": 1458911238, "lat": 41.4303531, "lon": 2.1812194, "tags": {"addr:city": "Barcelona", "addr:full": "passeig de Fabra i Puig, 136", "addr:housenumber": "136", "addr:postcode": "08016", "addr:street": "Passeig de Fabra i Puig", "amenity": "pharmacy", "contact:phone": "+34933493282", "dispensing": "yes", "healthcare": "pharmacy", "name": "Farm\u00e0cia Maria Loreto Cardell\u00e0 Pou", "name:ca": "Farm\u00e0cia Maria Loreto Cardell\u00e0 Pou", "ref": "3621993", "source": "Generalitat de Catalunya", "source:date": "03/11/2020 07:58:29 AM +0000"}}, {"type": "node", "id": 1635399808, "lat": 41.4306264, "lon": 2.1745367, "tags": {"addr:city": "Barcelona", "addr:full": "carrer Doctor Pi I Molist, 1", "addr:housenumber": "1", "addr:postcode": "08031", "addr:street": "Carrer del Doctor Pi i Molist", "amenity": "pharmacy", "brand": "ecoceutics", "contact:phone": "+34 933524556", "dispensing": "yes", "healthcare": "pharmacy", "name": "Farm\u00e0cia Picas", "operator": "Llic. Valero Barlab\u00e9, Raimont", "ref": "3621633", "source": "Generalitat de Catalunya", "source:date": "03/11/2020 07:58:02 AM +0000"}}, {"type": "node", "id": 2192117823, "lat": 41.4152692, "lon": 2.1825205, "tags": {"addr:city": "Barcelona", "addr:full": "carrer Freser, 194-8", "addr:housenumber": "194-8", "addr:postcode": "08026", "addr:street": "carrer Freser", "amenity": "pharmacy", "contact:phone": "+34934353191", "dispensing": "yes", "name": "Farm\u00e0cia Esquerra Guixa, Ramon", "name:ca": "Farm\u00e0cia Esquerra Guixa, Ramon", "opening_hours": "Mo-Fr 08:30-15:00; Sa 09:00-14:00; Mo-Fr 16:30-20:30", "ref": "3624242", "source": "Generalitat de Catalunya", "source:date": "03/11/2020 07:58:25 AM +0000", "wheelchair": "yes"}}, {"type": "node", "id": 2192119095, "lat": 41.4153507, "lon": 2.1796834, "tags": {"addr:city": "Barcelona", "addr:full": "carrer Sant Antoni Maria Claret, 229", "addr:housenumber": "229", "addr:postcode": "08041", "addr:street": "carrer Sant Antoni Maria Claret", "amenity": "pharmacy", "contact:phone": "+34932369840", "dispensing": "yes", "name": "Farm\u00e0cia Fust\u00e9 Jubert, S\u00edlvia", "ref": "3620859", "source": "Generalitat de Catalunya", "source:date": "03/11/2020 07:58:23 AM +0000"}}, {"type": "node", "id": 2349711088, "lat": 41.4145634, "lon": 2.1898093, "tags": {"addr:city": "Barcelona", "addr:housenumber": "663", "addr:postcode": "08027", "addr:street": "Carrer de Mallorca", "amenity": "pharmacy", "healthcare": "pharmacy", "name": "Llda C. Casanovas Casado", "opening_hours": "Mo-Su 09:00-22:00"}}, {"type": "node", "id": 2627845564, "lat": 41.4147666, "lon": 2.1878888, "tags": {"addr:city": "Barcelona", "addr:full": "carrer Navas de Tolosa, 270", "addr:housenumber": "270", "addr:postcode": "08027", "addr:street": "carrer Navas de Tolosa", "amenity": "pharmacy", "contact:phone": "+34933523900", "dispensing": "yes", "healthcare": "pharmacy", "name": "Farm\u00e0cia Faura Vendrell, Rosa M.", "name:ca": "Farm\u00e0cia Faura Vendrell, Rosa M.", "opening_hours": "Mo-Fr 09:00-13:30,16:30-20:00; Sa 09:00-13:30", "ref": "3624530", "source": "Generalitat de Catalunya;survey", "source:date": "03/11/2020 07:58:25 AM +0000"}}, {"type": "node", "id": 2627845568, "lat": 41.4165696, "lon": 2.1849973, "tags": {"addr:city": "Barcelona", "addr:full": "carrer Navas de Tolosa, 329", "addr:housenumber": "329", "addr:postcode": "08026", "addr:street": "Carrer de Las Navas de Tolosa", "amenity": "pharmacy", "contact:phone": "+34933517364", "dispensing": "yes", "name": "Farm\u00e0cia Blanch Boris, Maria Josep", "name:ca": "Farm\u00e0cia Blanch Boris, Maria Josep", "ref": "3621134", "source": "Generalitat de Catalunya", "source:date": "03/11/2020 07:58:31 AM +0000"}}, {"type": "node", "id": 2627845573, "lat": 41.4178191, "lon": 2.1851236, "tags": {"addr:city": "Barcelona", "addr:full": "carrer de la Ind\u00fastria, 339", "addr:housenumber": "339", "addr:postcode": "08027", "addr:street": "carrer de la Ind\u00fastria", "amenity": "pharmacy", "contact:phone": "+34933524402", "dispensing": "yes", "name": "Farm\u00e0cia Brillas Elias, Pere", "ref": "3623104", "source": "Generalitat de Catalunya", "source:date": "03/11/2020 07:58:30 AM +0000", "wheelchair": "yes"}}, {"type": "node", "id": 3011015936, "lat": 41.4122977, "lon": 2.1933087, "tags": {"addr:city": "Barcelona", "addr:full": "carrer Lope de Vega, 282", "addr:housenumber": "282", "addr:postcode": "08018", "addr:street": "carrer Lope de Vega", "amenity": "pharmacy", "contact:phone": "+34933083958", "dispensing": "yes", "healthcare": "pharmacy", "name": "Farm\u00e0cia Plana Mendo, Joan Josep", "ref": "3624093", "shop": "chemist", "source": "Generalitat de Catalunya", "source:date": "03/11/2020 07:58:12 AM +0000", "website": "http://farmaciadelclotdelamel.com/"}}, {"type": "node", "id": 3040074233, "lat": 41.4171648, "lon": 2.1938763, "tags": {"addr:city": "Barcelona", "addr:full": "carrer Menorca, 6", "addr:housenumber": "6", "addr:postcode": "08020", "addr:street": "carrer Menorca", "amenity": "pharmacy", "dispensing": "yes", "healthcare": "pharmacy", "name": "Farm\u00e0cia Laura Safont-Tria Jov\u00e9", "opening_hours": "Mo-Fr 09:00-13:30,16:30-20:30; Sa 09:00-13:30", "phone": "+34 933074934", "ref": "3624107", "source": "Generalitat de Catalunya", "source:date": "03/11/2020 07:58:19 AM +0000", "wheelchair": "yes"}}, {"type": "node", "id": 3080109634, "lat": 41.4161511, "lon": 2.1904557, "tags": {"addr:city": "Barcelona", "addr:full": "carrer d'Espronceda, 308", "addr:housenumber": "308", "addr:postcode": "08027", "addr:street": "carrer d'Espronceda", "amenity": "pharmacy", "contact:phone": "+34933492842", "dispensing": "yes", "name": "Farm\u00e0cia Josep Maria Muntan\u00e9 Rodrigo", "ref": "3623132", "source": "Generalitat de Catalunya", "source:date": "03/11/2020 07:58:14 AM +0000"}}, {"type": "node", "id": 3103545160, "lat": 41.417563, "lon": 2.1882145, "tags": {"addr:city": "Barcelona", "addr:full": "carrer Espronceda, 363-365", "addr:housenumber": "363-365", "addr:postcode": "08027", "addr:street": "Carrer d'Espronceda", "amenity": "pharmacy", "contact:phone": "+34933523760", "dispensing": "yes", "emergency": "defibrillator", "name": "Farm\u00e0cia Jose Ramon Tico Grau", "ref": "3621123", "source": "Generalitat de Catalunya", "source:date": "03/11/2020 07:58:03 AM +0000", "wheelchair": "yes"}}, {"type": "node", "id": 3140388329, "lat": 41.4142278, "lon": 2.1939015, "tags": {"addr:city": "Barcelona", "addr:full": "carrer Guipuzcoa, 21 BI", "addr:housenumber": "21", "addr:postcode": "08018", "addr:street": "Rambla de Guip\u00fascoa", "amenity": "pharmacy", "contact:phone": "+34933077064", "dispensing": "yes", "healthcare": "pharmacy", "name": "Llic. Carles Domingo Ortega", "opening_hours": "Mo-Fr 09:00-20:30; Sa 09:00-14:00", "ref": "3624667", "source": "Generalitat de Catalunya", "source:date": "03/11/2020 07:58:26 AM +0000", "wheelchair": "yes"}}, {"type": "node", "id": 3165823562, "lat": 41.4130628, "lon": 2.1879832, "tags": {"addr:city": "Barcelona", "addr:full": "carrer Mallorca, 621", "addr:housenumber": "621", "addr:postcode": "08026", "addr:street": "Carrer de Mallorca", "amenity": "pharmacy", "contact:phone": "+34933527054", "dispensing": "yes", "healthcare": "pharmacy", "name": "Farm\u00e0cia Andr\u00e9s Perera, Anna M.", "ref": "3624547", "source": "Generalitat de Catalunya", "source:date": "03/11/2020 07:58:34 AM +0000"}}, {"type": "node", "id": 3416765896, "lat": 41.4217718, "lon": 2.18537, "tags": {"addr:city": "Barcelona", "addr:full": "carrer Felip Ii, 112", "addr:housenumber": "112", "addr:postcode": "08027", "addr:street": "Carrer de Felip II", "amenity": "pharmacy", "contact:phone": "+34932527759", "dispensing": "yes", "healthcare": "pharmacy", "name": "Farm\u00e0cia Balcells Valls, Luis", "ref": "3624829", "source": "Generalitat de Catalunya", "source:date": "03/11/2020 07:58:33 AM +0000"}}, {"type": "node", "id": 3416766494, "lat": 41.423508, "lon": 2.1796255, "tags": {"addr:city": "Barcelona", "addr:full": "carrer Garcilaso, 213", "addr:housenumber": "213", "addr:postcode": "08027", "addr:street": "carrer Garcilaso", "amenity": "pharmacy", "contact:phone": "+34933529703", "dispensing": "yes", "healthcare": "pharmacy", "name": "Farm\u00e0cia Losa Gasp\u00e0, Esther", "ref": "3624548", "source": "Generalitat de Catalunya", "source:date": "03/11/2020 07:58:18 AM +0000", "toilets:wheelchair": "no", "wheelchair": "yes"}}, {"type": "node", "id": 3419546595, "lat": 41.428518, "lon": 2.1710669, "tags": {"addr:city": "Barcelona", "addr:full": "carrer Santa Matilde, 8", "addr:housenumber": "8", "addr:postcode": "08031", "addr:street": "Carrer de Santa Matilde", "amenity": "pharmacy", "contact:phone": "+34933574894", "dispensing": "yes", "healthcare": "pharmacy", "name": "Farm\u00e0cia Aranda Guerra, M. Dolores", "ref": "3623993", "source": "Generalitat de Catalunya", "source:date": "03/11/2020 07:58:34 AM +0000"}}, {"type": "node", "id": 3612155093, "lat": 41.430333, "lon": 2.1848722, "tags": {"addr:city": "Barcelona", "addr:full": "carrer Llenguadoc, 118", "addr:housenumber": "118", "addr:postcode": "08030", "addr:street": "carrer Llenguadoc", "amenity": "pharmacy", "contact:phone": "+34933966056", "dispensing": "yes", "name": "Farm\u00e0cia Peris Grau, Joaquim", "name:ca": "Farm\u00e0cia Peris Grau, Joaquim", "ref": "3621008", "source": "Generalitat de Catalunya", "source:date": "03/11/2020 07:58:12 AM +0000"}}, {"type": "node", "id": 3612155197, "lat": 41.4302523, "lon": 2.1895477, "tags": {"addr:city": "Barcelona", "addr:full": "rambla Fabra I Puig, 2", "addr:housenumber": "2", "addr:postcode": "08030", "addr:street": "rambla Fabra I Puig", "amenity": "pharmacy", "contact:phone": "+34933459058", "dispensing": "yes", "healthcare": "pharmacy", "name": "Farm\u00e0cia Castellanos Llorens, Xavier", "ref": "3620606", "source": "Generalitat de Catalunya", "source:date": "03/11/2020 07:58:28 AM +0000"}}, {"type": "node", "id": 3762048668, "lat": 41.4176314, "lon": 2.1741037, "tags": {"addr:city": "Barcelona", "addr:full": "carrer Juliol, 27", "addr:housenumber": "27", "addr:postcode": "08041", "addr:street": "carrer Juliol", "amenity": "pharmacy", "check_date": "2025-03-18", "contact:phone": "+34932368842", "dispensing": "yes", "name": "Farm\u00e0cia Granch\u00e9 Garc\u00eda, Sara", "ref": "3624241", "source": "Generalitat de Catalunya", "source:date": "03/11/2020 07:58:21 AM +0000"}}, {"type": "node", "id": 4304733920, "lat": 41.4149508, "lon": 2.1848867, "tags": {"addr:city": "Barcelona", "addr:full": "carrer de Trinxant, 65", "addr:housenumber": "65", "addr:postcode": "08026", "addr:street": "Carrer de Trinxant", "amenity": "pharmacy", "contact:phone": "+34932361920", "dispensing": "yes", "name": "Farm\u00e0cia Jordi Jimenez Bonet", "ref": "3620861", "source": "Generalitat de Catalunya", "source:date": "03/11/2020 07:58:19 AM +0000", "wheelchair": "no"}}, {"type": "node", "id": 4719207293, "lat": 41.4174872, "lon": 2.1802127, "tags": {"addr:city": "Barcelona", "addr:full": "passeig de Maragall, 75", "addr:housenumber": "75", "addr:postcode": "08041", "addr:street": "passeig de Maragall", "alt_name": "Farm\u00e0cia M. Gr\u00e0cia Alcalde Orellana", "amenity": "pharmacy", "dispensing": "yes", "name": "Farm\u00e0cia Alcalde", "opening_hours": "Mo-Su 09:00-20:00", "phone": "+34 934369201", "ref": "3621671", "source": "Generalitat de Catalunya", "source:date": "03/11/2020 07:58:34 AM +0000"}}, {"type": "node", "id": 4721520699, "lat": 41.4193195, "lon": 2.1802186, "tags": {"addr:city": "Barcelona", "addr:full": "carrer de Teodor Llorente, 4", "addr:housenumber": "4", "addr:postcode": "08041", "addr:street": "carrer de Teodor Llorente", "amenity": "pharmacy", "contact:phone": "+34933517484", "dispensing": "yes", "name": "Farm\u00e0cia Maria Rosa Cedr\u00e1n L\u00f3pez", "ref": "3621996", "source": "Generalitat de Catalunya", "source:date": "03/11/2020 07:58:28 AM +0000"}}, {"type": "node", "id": 4721521997, "lat": 41.421044, "lon": 2.180347, "tags": {"addr:city": "Barcelona", "addr:full": "passeig de Maragall, 106", "addr:housenumber": "106", "addr:postcode": "08027", "addr:street": "Passeig de Maragall", "amenity": "pharmacy", "contact:phone": "+34933518414", "dispensing": "yes", "name": "Farm\u00e0cia M. Carme Carta\u00f1\u00e1 G\u00e1mez", "ref": "3621635", "source": "Generalitat de Catalunya", "source:date": "03/11/2020 07:58:29 AM +0000"}}, {"type": "node", "id": 4723606389, "lat": 41.4200091, "lon": 2.1836585, "tags": {"addr:city": "Barcelona", "addr:full": "carrer Juan de Garay, 59", "addr:housenumber": "59", "addr:postcode": "08027", "addr:street": "carrer Juan de Garay", "amenity": "pharmacy", "contact:phone": "+34933499369", "dispensing": "yes", "healthcare": "pharmacy", "name": "Farm\u00e0cia P\u00e9rez Abio, Gerard", "ref": "3624112", "source": "Generalitat de Catalunya", "source:date": "03/11/2020 07:58:12 AM +0000"}}, {"type": "node", "id": 4726080191, "lat": 41.4204757, "lon": 2.174767, "tags": {"addr:city": "Barcelona", "addr:full": "carrer Vinyals, 38", "addr:housenumber": "38", "addr:postcode": "08041", "addr:street": "carrer Vinyals", "amenity": "pharmacy", "contact:phone": "+34932564675", "dispensing": "yes", "name": "Farm\u00e0cia Hern\u00e1ndez Auladell, Laura", "name:es": "Vinyals 38", "opening_hours": "Mo-Fr 08:30-20:30; Sa 09:00-14:00", "ref": "3624203", "source": "Generalitat de Catalunya", "source:date": "03/11/2020 07:58:19 AM +0000"}}, {"type": "node", "id": 4726092889, "lat": 41.4188182, "lon": 2.1765831, "tags": {"addr:city": "Barcelona", "addr:full": "ronda Guinard\u00f3, 156", "addr:housenumber": "156", "addr:postcode": "08041", "addr:street": "ronda Guinard\u00f3", "amenity": "pharmacy", "contact:phone": "+34934553070", "dispensing": "yes", "name": "Farm\u00e0cia Garc\u00eda Belmonte, M. del Roc\u00edo", "opening_hours": "Mo-Sa 09:00-13:15, 16:00-20:00", "ref": "3624244", "source": "Generalitat de Catalunya", "source:date": "03/11/2020 07:58:23 AM +0000"}}, {"type": "node", "id": 4728103193, "lat": 41.4144358, "lon": 2.1810765, "tags": {"addr:city": "Barcelona", "addr:full": "passeig de Maragall, 20", "addr:housenumber": "20", "addr:postcode": "08026", "addr:street": "Passeig de Maragall", "amenity": "pharmacy", "contact:phone": "+34934363365", "dispensing": "yes", "name": "Farm\u00e0cia Laia Borr\u00e0s Sampere", "ref": "3622785", "source": "Generalitat de Catalunya", "source:date": "03/11/2020 07:58:31 AM +0000"}}, {"type": "node", "id": 4729077293, "lat": 41.418943, "lon": 2.1818292, "tags": {"addr:city": "Barcelona", "addr:full": "carrer de Navas de Tolosa, 375", "addr:housenumber": "375", "addr:postcode": "08041", "addr:street": "carrer de Navas de Tolosa", "amenity": "pharmacy", "contact:phone": "+34933518164", "dispensing": "yes", "healthcare": "pharmacy", "name": "Farm\u00e0cia Esther Aguilar Hern\u00e1ndez", "ref": "3622767", "source": "Generalitat de Catalunya", "source:date": "03/11/2020 07:58:34 AM +0000"}}, {"type": "node", "id": 4729330992, "lat": 41.4172302, "lon": 2.17856, "tags": {"addr:city": "Barcelona", "addr:housenumber": "16", "addr:postcode": "08041", "addr:street": "Carrer del Xiprer", "amenity": "pharmacy", "healthcare": "pharmacy", "name": "Gal\u00ed, S.c.p.", "opening_hours": "Mo-Fr 09:00-13:00,16:00-20:00"}}, {"type": "node", "id": 4762934622, "lat": 41.4259246, "lon": 2.1825869, "tags": {"addr:city": "Barcelona", "addr:full": "carrer Pardo, 4", "addr:housenumber": "4", "addr:postcode": "08027", "addr:street": "Carrer de Pardo", "amenity": "pharmacy", "contact:phone": "+34933526058", "dispensing": "yes", "healthcare": "pharmacy", "name": "Farm\u00e0cia Jorba Ylla, M. Ant\u00f2nia", "ref": "3623242", "source": "Generalitat de Catalunya", "source:date": "03/11/2020 07:58:19 AM +0000"}}, {"type": "node", "id": 5271863065, "lat": 41.4327147, "lon": 2.1835275, "tags": {"addr:city": "Barcelona", "addr:full": "avinguda Meridiana, 422", "addr:housenumber": "422", "addr:postcode": "08030", "addr:street": "Avinguda Meridiana", "amenity": "pharmacy", "check_date": "2025-03-18", "contact:phone": "+34933110201", "dispensing": "yes", "healthcare": "pharmacy", "name": "Farm\u00e0cia Marcet Fern\u00e1ndez, Ignasi", "name:ca": "Farm\u00e0cia Marcet Fern\u00e1ndez, Ignasi", "operator": "ecoceutics", "ref": "3623506", "source": "Generalitat de Catalunya", "source:date": "03/11/2020 07:58:17 AM +0000"}}, {"type": "node", "id": 5453781021, "lat": 41.4330099, "lon": 2.1893771, "tags": {"addr:city": "Barcelona", "addr:full": "carrer Gran de Sant Andreu, 186", "addr:housenumber": "186", "addr:postcode": "08030", "addr:street": "carrer Gran de Sant Andreu", "amenity": "pharmacy", "contact:phone": "+34933366351", "dispensing": "yes", "name": "Farm\u00e0cia Mor Puig, Marta-Rodr\u00edguez Mur, Cristina", "name:ca": "Farm\u00e0cia Mor Puig, Marta-Rodr\u00edguez Mur, Cristina", "ref": "3621006", "source": "Generalitat de Catalunya", "source:date": "03/11/2020 07:58:15 AM +0000"}}, {"type": "node", "id": 5453933822, "lat": 41.4313193, "lon": 2.1892986, "tags": {"addr:city": "Barcelona", "addr:full": "carrer Gran de Sant Andreu, 125", "addr:housenumber": "125", "addr:postcode": "08030", "addr:street": "carrer Gran de Sant Andreu", "alt_name": "Farm\u00e0cia Anna Benasco Buscat\u00f3", "amenity": "pharmacy", "contact:phone": "+34933468803", "dispensing": "yes", "name": "Farm\u00e0cia Buscat\u00f3", "ref": "3621481", "source": "Generalitat de Catalunya", "source:date": "03/11/2020 07:58:32 AM +0000"}}, {"type": "node", "id": 5453985621, "lat": 41.4241686, "lon": 2.1912086, "tags": {"addr:city": "Barcelona", "addr:full": "carrer de la Sagrera, 110", "addr:housenumber": "110", "addr:postcode": "08027", "addr:street": "carrer de la Sagrera", "amenity": "pharmacy", "contact:phone": "+34933522909", "dispensing": "yes", "healthcare": "pharmacy", "name": "Farm\u00e0cia Montserrat Ru\u00edz Sentis", "ref": "3622781", "source": "Generalitat de Catalunya", "source:date": "03/11/2020 07:58:08 AM +0000"}}, {"type": "node", "id": 5453985721, "lat": 41.4238636, "lon": 2.1916532, "tags": {"addr:city": "Barcelona", "addr:full": "carrer Berenguer de Palou, 37", "addr:housenumber": "37", "addr:postcode": "08027", "addr:street": "carrer Berenguer de Palou", "amenity": "pharmacy", "check_date": "2023-12-18", "contact:phone": "+34933492928", "dispensing": "yes", "healthcare": "pharmacy", "level": "0", "name": "Farm\u00e0cia Taoudi Benkirane, Anasse", "payment:cash": "yes", "payment:credit_cards": "yes", "payment:debit_cards": "yes", "ref": "3624110", "source": "Generalitat de Catalunya;local knowledge", "source:date": "03/11/2020 07:58:04 AM +0000", "wheelchair": "yes"}}, {"type": "node", "id": 5537626525, "lat": 41.412451, "lon": 2.1901389, "tags": {"addr:city": "Barcelona", "addr:full": "carrer Clot, 184", "addr:housenumber": "184", "addr:postcode": "08026", "addr:street": "carrer Clot", "amenity": "pharmacy", "contact:phone": "+34932321666", "dispensing": "yes", "healthcare": "pharmacy", "name": "Farm\u00e0cia Capdevila Ar\u00fas, Ram\u00f3n", "ref": "3620882", "source": "Generalitat de Catalunya", "source:date": "03/11/2020 07:58:29 AM +0000"}}, {"type": "node", "id": 5790146853, "lat": 41.413364, "lon": 2.1846913, "tags": {"addr:city": "Barcelona", "addr:full": "carrer Nacio, 42", "addr:housenumber": "42", "addr:postcode": "08026", "addr:street": "Carrer de la Naci\u00f3", "amenity": "pharmacy", "contact:phone": "+34932361828", "dispensing": "yes", "healthcare": "pharmacy", "name": "Farm\u00e0cia Armengol Torrella - Silvestre Pons", "ref": "3620593", "source": "Generalitat de Catalunya", "source:date": "03/11/2020 07:58:33 AM +0000", "wheelchair": "no"}}, {"type": "node", "id": 5820816653, "lat": 41.4250304, "lon": 2.1911644, "tags": {"addr:city": "Barcelona", "addr:full": "carrer de la Sagrera, 146", "addr:housenumber": "146", "addr:postcode": "08027", "addr:street": "carrer de la Sagrera", "amenity": "pharmacy", "contact:phone": "+34933525709", "dispensing": "yes", "healthcare": "pharmacy", "name": "Farm\u00e0cia Xavier L\u00f3pez Linares", "name:ca": "Farm\u00e0cia Xavier L\u00f3pez Linares", "ref": "3620604", "source": "Generalitat de Catalunya", "source:date": "03/11/2020 07:58:18 AM +0000"}}, {"type": "node", "id": 6002346086, "lat": 41.4208037, "lon": 2.1899284, "tags": {"addr:city": "Barcelona", "addr:full": "carrer Ciutat D'Elx, 11", "addr:housenumber": "11", "addr:postcode": "08027", "addr:street": "carrer Ciutat D'Elx", "amenity": "pharmacy", "contact:phone": "+34932515297", "dispensing": "yes", "healthcare": "pharmacy", "name": "Farm\u00e0cia Rodr\u00edguez Albacete - Ruiz Fern\u00e1ndez", "ref": "3623604", "source": "Generalitat de Catalunya", "source:date": "03/11/2020 07:58:09 AM +0000"}}, {"type": "node", "id": 6172548388, "lat": 41.4257119, "lon": 2.1803469, "tags": {"addr:city": "Barcelona", "addr:full": "carrer Felip Ii, 186", "addr:housenumber": "186", "addr:postcode": "08027", "addr:street": "Carrer de Felip II", "amenity": "pharmacy", "contact:phone": "+34933528102", "dispensing": "yes", "healthcare": "pharmacy", "name": "Farm\u00e0cia Llicenciat J. Fern\u00e1ndez Orom\u00ed", "ref": "3621662", "source": "Generalitat de Catalunya", "source:date": "03/11/2020 07:58:24 AM +0000"}}, {"type": "node", "id": 6202968288, "lat": 41.4288669, "lon": 2.1886916, "tags": {"addr:city": "Barcelona", "addr:full": "carrer Nadal, 7-8", "addr:housenumber": "7-8", "addr:postcode": "08030", "addr:street": "carrer Nadal", "alt_name": "Farm\u00e0cia Ganvini Asencios, Hugo Ernesto", "amenity": "pharmacy", "contact:phone": "+34933469356", "dispensing": "yes", "name": "Farmaxnadal", "ref": "3624849", "source": "Generalitat de Catalunya", "source:date": "03/11/2020 07:58:23 AM +0000"}}, {"type": "node", "id": 6202998685, "lat": 41.4280046, "lon": 2.1897978, "tags": {"amenity": "pharmacy", "name": "Santiago G\u00f3mes Facundo"}}, {"type": "node", "id": 6203004488, "lat": 41.4298077, "lon": 2.1942984, "tags": {"addr:city": "Barcelona", "addr:full": "rambla de L'Onze de Setembre, 15", "addr:housenumber": "15", "addr:postcode": "08030", "addr:street": "rambla de L'Onze de Setembre", "amenity": "pharmacy", "contact:phone": "+34933111451", "dispensing": "yes", "name": "Farm\u00e0cia Fern\u00e1ndez Retuerto, M. Carme", "ref": "3624135", "source": "Generalitat de Catalunya", "source:date": "03/11/2020 07:58:24 AM +0000"}}, {"type": "node", "id": 6203018085, "lat": 41.4280502, "lon": 2.1943516, "tags": {"addr:city": "Barcelona", "addr:full": "carrer Pare Manyanet, 46", "addr:housenumber": "46", "addr:postcode": "08030", "addr:street": "carrer Pare Manyanet", "amenity": "pharmacy", "contact:phone": "+34933118206", "dispensing": "yes", "name": "Farm\u00e0cia Ramos Ontiveros, Eloisa", "ref": "3621466", "source": "Generalitat de Catalunya", "source:date": "03/11/2020 07:58:10 AM +0000"}}, {"type": "node", "id": 6346002390, "lat": 41.4292887, "lon": 2.167011, "tags": {"addr:city": "Barcelona", "addr:full": "carrer Espiell, 13", "addr:housenumber": "150", "addr:postcode": "08031", "addr:street": "Carrer de Cartell\u00e0", "amenity": "pharmacy", "contact:phone": "+34932294653", "dispensing": "yes", "healthcare": "pharmacy", "name": "Farm\u00e0cia Barrachina C\u00e0novas, Ana\u00efs", "ref": "3624388", "source": "Generalitat de Catalunya", "source:date": "03/11/2020 07:58:32 AM +0000"}}, {"type": "node", "id": 6420556785, "lat": 41.4266774, "lon": 2.1722007, "tags": {"addr:city": "Barcelona", "addr:full": "passeig de Maragall, 248", "addr:housenumber": "248", "addr:postcode": "08031", "addr:street": "Passeig de Maragall", "amenity": "pharmacy", "contact:phone": "+34932290823", "dispensing": "yes", "name": "Farm\u00e0cia Catalina Bover Ferrer", "name:ca": "Farm\u00e0cia Catalina Bover Ferrer", "ref": "3622008", "source": "Generalitat de Catalunya", "source:date": "03/11/2020 07:58:31 AM +0000"}}, {"type": "node", "id": 6420561937, "lat": 41.4228977, "lon": 2.178266, "tags": {"addr:city": "Barcelona", "addr:full": "passeig de Maragall, 177", "addr:housenumber": "177", "addr:postcode": "08041", "addr:street": "Passeig de Maragall", "amenity": "pharmacy", "contact:email": "farmaciamaragall177@gmail.com", "contact:phone": "+34933519507", "dispensing": "yes", "healthcare": "pharmacy", "name": "Farm\u00e0cia Xavier Albert Diloy", "opening_hours": "24/7", "ref": "3621313", "source": "Generalitat de Catalunya", "source:date": "03/11/2020 07:58:34 AM +0000", "wheelchair": "yes"}}, {"type": "node", "id": 6420630887, "lat": 41.4120254, "lon": 2.1845102, "tags": {"addr:city": "Barcelona", "addr:full": "carrer Muntanya, 79", "addr:housenumber": "79", "addr:postcode": "08026", "addr:street": "Carrer de la Muntanya", "amenity": "pharmacy", "contact:phone": "+34934330900", "dispensing": "yes", "healthcare": "pharmacy", "name": "Farm\u00e0cia Aparisi Serrano, Joan F.", "ref": "3620989", "source": "Generalitat de Catalunya", "source:date": "03/11/2020 07:58:34 AM +0000", "wheelchair": "no"}}, {"type": "node", "id": 6635908585, "lat": 41.4281834, "lon": 2.1840991, "tags": {"addr:city": "Barcelona", "addr:full": "avinguda Meridiana, 361", "addr:housenumber": "361", "addr:postcode": "08016", "addr:street": "avinguda Meridiana", "amenity": "pharmacy", "contact:phone": "+34933528404", "dispensing": "yes", "name": "Farm\u00e0cia Llorens Sole, Anna", "opening_hours": "Mo-Fr 08:30-21:00; Sa 09:00-14:30", "ref": "3624527", "source": "Generalitat de Catalunya", "source:date": "03/11/2020 07:58:18 AM +0000"}}, {"type": "node", "id": 6702768186, "lat": 41.423424, "lon": 2.182519, "tags": {"addr:city": "Barcelona", "addr:full": "carrer de Garcilaso, 138", "addr:housenumber": "138", "addr:postcode": "08027", "addr:street": "carrer de Garcilaso", "amenity": "pharmacy", "contact:phone": "+34933527453", "dispensing": "yes", "healthcare": "pharmacy", "name": "Farm\u00e0cia M. Carmen Planes Casals", "ref": "3620862", "source": "Generalitat de Catalunya", "source:date": "03/11/2020 07:58:11 AM +0000", "toilets:wheelchair": "no", "wheelchair": "yes"}}, {"type": "node", "id": 6702794686, "lat": 41.4285664, "lon": 2.1746509, "tags": {"addr:city": "Barcelona", "addr:full": "avinguda Borbon, 64", "addr:housenumber": "64", "addr:postcode": "08016", "addr:street": "Avinguda dels Quinze", "amenity": "pharmacy", "contact:phone": "+34933522301", "dispensing": "yes", "healthcare": "pharmacy", "name": "Farm\u00e0cia Guivernau Soler - Lebrero Mart\u00edn", "ref": "3624815", "source": "Generalitat de Catalunya", "source:date": "03/11/2020 07:58:20 AM +0000"}}, {"type": "node", "id": 6875208485, "lat": 41.4330391, "lon": 2.1734785, "tags": {"addr:city": "Barcelona", "addr:full": "carrer Doctor Pi I Molist, 66", "addr:housenumber": "66", "addr:postcode": "08016", "addr:street": "Carrer del Doctor Pi i Molist", "amenity": "pharmacy", "contact:phone": "+34933528002", "dispensing": "yes", "healthcare": "pharmacy", "name": "Farm\u00e0cia Mestre Rovira, Esther", "ref": "3622131", "source": "Generalitat de Catalunya", "source:date": "03/11/2020 07:58:16 AM +0000"}}, {"type": "node", "id": 6909313585, "lat": 41.4274473, "lon": 2.1690987, "tags": {"addr:city": "Barcelona", "addr:full": "passeig de Maragall, 310", "addr:housenumber": "310", "addr:postcode": "08031", "addr:street": "Passeig de Maragall", "amenity": "pharmacy", "contact:phone": "+34932291165", "dispensing": "yes", "healthcare": "pharmacy", "name": "Farm\u00e0cia Santiago Soldevila Sitges", "name:ca": "Farm\u00e0cia Santiago Soldevila Sitges", "ref": "3622960", "source": "Generalitat de Catalunya", "source:date": "03/11/2020 07:58:05 AM +0000"}}, {"type": "node", "id": 6971049586, "lat": 41.4199698, "lon": 2.1770784, "tags": {"addr:city": "Barcelona", "addr:full": "passeig Ll\u00edvia, 47", "addr:housenumber": "47", "addr:postcode": "08041", "addr:street": "Passatge de Ll\u00edvia", "amenity": "pharmacy", "contact:phone": "+34932355093", "dispensing": "yes", "name": "Farm\u00e0cia Prat Calvet, Josep", "ref": "3624219", "source": "Generalitat de Catalunya", "source:date": "03/11/2020 07:58:11 AM +0000"}}, {"type": "node", "id": 7023315585, "lat": 41.4216947, "lon": 2.1864253, "tags": {"addr:city": "Barcelona", "addr:full": "avinguda Meridiana, 259", "addr:housenumber": "259", "addr:postcode": "08027", "addr:street": "avinguda Meridiana", "amenity": "pharmacy", "contact:phone": "+34933524509", "dispensing": "yes", "healthcare": "pharmacy", "name": "Farm\u00e0cia Marfa Vila, Josep", "ref": "3621145", "source": "Generalitat de Catalunya", "source:date": "03/11/2020 07:58:17 AM +0000"}}, {"type": "node", "id": 7074375486, "lat": 41.4267364, "lon": 2.1858465, "tags": {"addr:city": "Barcelona", "addr:full": "avinguda Meridiana, 344", "addr:housenumber": "344", "addr:postcode": "08027", "addr:street": "avinguda Meridiana", "amenity": "pharmacy", "contact:phone": "+34933118651", "dispensing": "yes", "name": "Farm\u00e0cia Leandro Fern\u00e1ndez Rodr\u00edguez", "ref": "3624123", "source": "Generalitat de Catalunya", "source:date": "03/11/2020 07:58:24 AM +0000"}}, {"type": "node", "id": 7074375589, "lat": 41.4247442, "lon": 2.1871422, "tags": {"addr:city": "Barcelona", "addr:full": "avinguda Meridiana, 320 b", "addr:housenumber": "320 b", "addr:postcode": "08027", "addr:street": "avinguda Meridiana", "amenity": "pharmacy", "contact:phone": "+34933525806", "dispensing": "yes", "healthcare": "pharmacy", "name": "Farm\u00e0cia Ramos Sierra, Manuel", "ref": "3622935", "source": "Generalitat de Catalunya", "source:date": "03/11/2020 07:58:10 AM +0000"}}, {"type": "node", "id": 7098056586, "lat": 41.4282473, "lon": 2.1860686, "tags": {"addr:city": "Barcelona", "addr:full": "carrer Torroella de Montgri, 23", "addr:housenumber": "23", "addr:postcode": "08027", "addr:street": "carrer Torroella de Montgri", "amenity": "pharmacy", "contact:phone": "+34933119151", "dispensing": "yes", "name": "Farm\u00e0cia Rastrollo Castro, M. Llu\u00efsa", "ref": "3624258", "source": "Generalitat de Catalunya", "source:date": "03/11/2020 07:58:10 AM +0000"}}, {"type": "node", "id": 7098065786, "lat": 41.4214189, "lon": 2.1875776, "tags": {"addr:city": "Barcelona", "addr:full": "carrer Hondures, 63", "addr:housenumber": "63", "addr:postcode": "08027", "addr:street": "carrer Hondures", "amenity": "pharmacy", "contact:phone": "+34933499070", "dispensing": "yes", "healthcare": "pharmacy", "name": "Farm\u00e0cia Lloberas Alsina, Anna", "opening_hours": "Mo-Fr 08:30-21:00; Sa 09:00-14:00", "ref": "3623625", "source": "Generalitat de Catalunya", "source:date": "03/11/2020 07:58:18 AM +0000"}}, {"type": "node", "id": 7158510585, "lat": 41.428775, "lon": 2.1800025, "tags": {"addr:city": "Barcelona", "addr:full": "carrer Escocia, 64", "addr:housenumber": "64", "addr:postcode": "08016", "addr:street": "Carrer d'Esc\u00f2cia", "amenity": "pharmacy", "contact:phone": "+34 933528503", "dispensing": "yes", "name": "Farm\u00e0cia Aranda Guerra, Eva", "name:ca": "Farm\u00e0cia Aranda Guerra, Eva", "ref": "3621663", "source": "Generalitat de Catalunya", "source:date": "03/11/2020 07:58:34 AM +0000"}}, {"type": "node", "id": 7323155127, "lat": 41.4299105, "lon": 2.1720278, "tags": {"addr:city": "Barcelona", "addr:full": "carrer Amilcar Barca, 7", "addr:housenumber": "7", "addr:postcode": "08031", "addr:street": "Carrer d'Am\u00edlcar", "amenity": "pharmacy", "contact:phone": "+34932291781", "dispensing": "yes", "healthcare": "pharmacy", "name": "Farm\u00e0cia Martinez Morales, A. - Juan Espejo, A.", "ref": "3621015", "source": "Generalitat de Catalunya", "source:date": "03/11/2020 07:58:16 AM +0000"}}, {"type": "node", "id": 7323155128, "lat": 41.4300277, "lon": 2.1694339, "tags": {"addr:city": "Barcelona", "addr:full": "carrer Teide, 6", "addr:housenumber": "6", "addr:postcode": "08031", "addr:street": "Carrer del Teide", "amenity": "pharmacy", "contact:phone": "+34934291126", "dispensing": "yes", "healthcare": "pharmacy", "name": "Farm\u00e0cia Fern\u00e1ndez-Rajal, Eduard.", "ref": "3624851", "source": "Generalitat de Catalunya", "source:date": "03/11/2020 07:58:24 AM +0000"}}, {"type": "node", "id": 7323155129, "lat": 41.4326587, "lon": 2.1706185, "tags": {"addr:city": "Barcelona", "addr:full": "carrer Aneto, 26-28", "addr:housenumber": "26-28", "addr:postcode": "08031", "addr:street": "carrer Aneto", "amenity": "pharmacy", "contact:phone": "+34934291595", "dispensing": "yes", "healthcare": "pharmacy", "name": "Farm\u00e0cia Veh\u00ed Gasol", "operator": "Llic. Vehi Gasol, Enric Llu\u00eds", "ref": "3624216", "source": "Generalitat de Catalunya", "source:date": "03/11/2020 07:58:01 AM +0000"}}, {"type": "node", "id": 7323155130, "lat": 41.4280853, "lon": 2.1728484, "tags": {"addr:city": "Barcelona", "addr:full": "carrer Francesc Bolos, 35", "addr:housenumber": "35", "addr:postcode": "08031", "addr:street": "Carrer de Francesc Bol\u00f2s", "amenity": "pharmacy", "contact:phone": "+34934296525", "dispensing": "yes", "healthcare": "pharmacy", "name": "Farm\u00e0cia Garrif\u00e9 Pujol, Roser", "ref": "3623119", "source": "Generalitat de Catalunya", "source:date": "03/11/2020 07:58:22 AM +0000"}}, {"type": "node", "id": 7323177654, "lat": 41.4315399, "lon": 2.1796938}, {"type": "node", "id": 7323177655, "lat": 41.427654, "lon": 2.1782616, "tags": {"addr:city": "Barcelona", "addr:full": "carrer Felip Ii, 224", "addr:housenumber": "224", "addr:postcode": "08027", "addr:street": "Carrer de Felip II", "amenity": "pharmacy", "contact:phone": "+34933527957", "dispensing": "yes", "healthcare": "pharmacy", "name": "Farm\u00e0cia Pi\u00f1as Mass\u00f3, Loreto", "ref": "3624845", "source": "Generalitat de Catalunya", "source:date": "03/11/2020 07:58:12 AM +0000"}}, {"type": "node", "id": 7323177656, "lat": 41.4285533, "lon": 2.1759582, "tags": {"addr:city": "Barcelona", "addr:full": "carrer Felip Ii, 271", "addr:housenumber": "271", "addr:postcode": "08016", "addr:street": "Carrer de Felip II", "amenity": "pharmacy", "contact:phone": "+34933522451", "dispensing": "yes", "healthcare": "pharmacy", "name": "Farm\u00e0cia Virrei", "name:ca": "Farm\u00e0cia Virrei", "operator": "Llic. Masons Bueno, M. Carme", "ref": "3624243", "source": "Generalitat de Catalunya", "source:date": "03/11/2020 07:58:16 AM +0000"}}, {"type": "node", "id": 7323198179, "lat": 41.4318735, "lon": 2.192892, "tags": {"addr:city": "Barcelona", "addr:full": "carrer Doctor Santpon\u00e7, 103", "addr:housenumber": "103", "addr:postcode": "08030", "addr:street": "carrer Doctor Santpon\u00e7", "amenity": "pharmacy", "contact:phone": "+34933467604", "dispensing": "yes", "name": "Farm\u00e0cia Sabat\u00e9 Faura, Jaume", "ref": "3621982", "source": "Generalitat de Catalunya", "source:date": "03/11/2020 07:58:08 AM +0000"}}, {"type": "node", "id": 7323198180, "lat": 41.4278144, "lon": 2.1824477, "tags": {"addr:city": "Barcelona", "addr:full": "carrer Pardo, 17", "addr:housenumber": "17", "addr:postcode": "08016", "addr:street": "Carrer de Pardo", "amenity": "pharmacy", "contact:phone": "+34933528403", "dispensing": "yes", "name": "Farm\u00e0cia Labarta Brustenga, Georgina", "ref": "3622145", "source": "Generalitat de Catalunya", "source:date": "03/11/2020 07:58:19 AM +0000"}}, {"type": "node", "id": 7323198181, "lat": 41.4299525, "lon": 2.1921963, "tags": {"addr:city": "Barcelona", "addr:full": "rambla de L'Onze de Setembre, 37", "addr:housenumber": "37", "addr:postcode": "08030", "addr:street": "rambla de L'Onze de Setembre", "amenity": "pharmacy", "contact:phone": "+34933469602", "dispensing": "yes", "name": "Farm\u00e0cia Sol\u00e0 Casanovas, Mercedes", "ref": "3624843", "source": "Generalitat de Catalunya", "source:date": "03/11/2020 07:58:05 AM +0000"}}, {"type": "node", "id": 7323198182, "lat": 41.4297373, "lon": 2.1872007, "tags": {"addr:city": "Barcelona", "addr:full": "carrer Camil Fabra, 5", "addr:housenumber": "5", "addr:postcode": "08030", "addr:street": "carrer Camil Fabra", "amenity": "pharmacy", "contact:phone": "+34933469906", "dispensing": "yes", "name": "Farm\u00e0cia Terr\u00e9 Hern\u00e1ndez, Immaculada", "ref": "3623613", "source": "Generalitat de Catalunya", "source:date": "03/11/2020 07:58:03 AM +0000"}}, {"type": "node", "id": 7323198184, "lat": 41.4327563, "lon": 2.1857262, "tags": {"addr:city": "Barcelona", "addr:full": "pla\u00e7a de Les Palmeres, 9", "addr:housenumber": "9", "addr:postcode": "08030", "addr:street": "pla\u00e7a de Les Palmeres", "amenity": "pharmacy", "contact:phone": "+34933467855", "dispensing": "yes", "healthcare": "pharmacy", "name": "Farm\u00e0cia Almirall Ferran, Blanca", "name:ca": "Farm\u00e0cia Almirall Ferran, Blanca", "opening_hours": "Mo-Fr 09:00-14:00,16:30-20:00; Sa 09:00-13:30", "ref": "3620715", "source": "Generalitat de Catalunya", "source:date": "03/11/2020 07:58:34 AM +0000"}}, {"type": "node", "id": 7323219565, "lat": 41.4238041, "lon": 2.1747257, "tags": {"addr:city": "Barcelona", "addr:full": "carrer Segle Xx, 61", "addr:housenumber": "61", "addr:postcode": "08032", "addr:street": "carrer Segle Xx", "amenity": "pharmacy", "contact:phone": "+34934553082", "dispensing": "yes", "healthcare": "pharmacy", "name": "Farm\u00e0cia Garcia Castell, Ester i Joan", "name:ca": "Farm\u00e0cia Garcia Castell, Ester i Joan", "ref": "3621660", "source": "Generalitat de Catalunya", "source:date": "03/11/2020 07:58:23 AM +0000"}}, {"type": "node", "id": 7323219566, "lat": 41.4258356, "lon": 2.1780708, "tags": {"addr:city": "Barcelona", "addr:full": "carrer de les Ac\u00e0cies, 57", "addr:housenumber": "57", "addr:postcode": "08027", "addr:street": "Carrer de les Ac\u00e0cies", "amenity": "pharmacy", "contact:phone": "+34 933517709", "dispensing": "yes", "healthcare": "pharmacy", "name": "Farm\u00e0cia Tolosa Gomara, M. Josep", "name:ca": "Farm\u00e0cia Tolosa Gomara, M. Josep", "ref": "3624526", "source": "Generalitat de Catalunya", "source:date": "03/11/2020 07:58:03 AM +0000"}}, {"type": "node", "id": 7323219567, "lat": 41.4222492, "lon": 2.172769, "tags": {"addr:city": "Barcelona", "addr:full": "carrer Amilcar Barca, 158", "addr:housenumber": "158", "addr:postcode": "08032", "addr:street": "carrer Amilcar Barca", "amenity": "pharmacy", "contact:phone": "+34932365034", "dispensing": "yes", "name": "Farm\u00e0cia Garc\u00eda Barrado, M. Carmen", "ref": "3621121", "source": "Generalitat de Catalunya", "source:date": "03/11/2020 07:58:23 AM +0000"}}, {"type": "node", "id": 7323219568, "lat": 41.4214769, "lon": 2.17725, "tags": {"addr:city": "Barcelona", "addr:full": "ronda Del Guinardo, 196", "addr:housenumber": "196", "addr:postcode": "08041", "addr:street": "Ronda del Guinard\u00f3", "amenity": "pharmacy", "contact:phone": "+34932363965", "dispensing": "yes", "name": "Farm\u00e0cia Jimenez Galindo, Ana Isabel", "ref": "3621109", "source": "Generalitat de Catalunya", "source:date": "03/11/2020 07:58:19 AM +0000"}}, {"type": "node", "id": 7323219569, "lat": 41.4242458, "lon": 2.1726841, "tags": {"addr:city": "Barcelona", "addr:full": "carrer Amilcar, 151", "addr:housenumber": "151", "addr:postcode": "08032", "addr:street": "Carrer d'Am\u00edlcar", "amenity": "pharmacy", "contact:phone": "+34934364109", "dispensing": "yes", "name": "Farm\u00e0cia Miralles Tejedo, Jose Antonio", "ref": "3624019", "source": "Generalitat de Catalunya", "source:date": "03/11/2020 07:58:16 AM +0000"}}, {"type": "node", "id": 7323219570, "lat": 41.4251943, "lon": 2.1736248, "tags": {"addr:city": "Barcelona", "addr:full": "carrer Lluis Sagnier, 55", "addr:housenumber": "55", "addr:postcode": "08032", "addr:street": "Carrer de Llu\u00eds Sagnier", "amenity": "pharmacy", "contact:phone": "+34932354087", "dispensing": "yes", "name": "Farm\u00e0cia Vila Morell, Margarita", "opening_hours": "Mo-Fr 09:00-13:30,16:30-20:00; Sa 09:00-13:30", "ref": "3622949", "source": "Generalitat de Catalunya", "source:date": "03/11/2020 07:58:01 AM +0000"}}, {"type": "node", "id": 7323219571, "lat": 41.4262273, "lon": 2.1686933, "tags": {"addr:city": "Barcelona", "addr:full": "carrer Alt de Pedrell, 58", "addr:housenumber": "58", "addr:postcode": "08032", "addr:street": "Carrer Alt de Pedrell", "amenity": "pharmacy", "contact:phone": "+34932202001", "dispensing": "yes", "name": "Farm\u00e0cia Najar Mart\u00f3n, Joan", "ref": "3623607", "source": "Generalitat de Catalunya", "source:date": "03/11/2020 07:58:14 AM +0000"}}, {"type": "node", "id": 7323219572, "lat": 41.4223415, "lon": 2.1748124, "tags": {"addr:city": "Barcelona", "addr:full": "avinguda Mare de D\u00e9u de Montserrat, 240", "addr:housenumber": "240", "addr:postcode": "08041", "addr:street": "avinguda Mare de D\u00e9u de Montserrat", "amenity": "pharmacy", "contact:phone": "+34934557521", "dispensing": "yes", "name": "Farm\u00e0cia Prat Calvet, Carme", "ref": "3624669", "source": "Generalitat de Catalunya", "source:date": "03/11/2020 07:58:11 AM +0000"}}, {"type": "node", "id": 7323219573, "lat": 41.4236681, "lon": 2.1688238, "tags": {"addr:city": "Barcelona", "addr:full": "carrer Montserrat Casanovas, 12", "addr:housenumber": "12", "addr:postcode": "08032", "addr:street": "carrer Montserrat Casanovas", "amenity": "pharmacy", "contact:phone": "+34933573046", "dispensing": "yes", "name": "Farm\u00e0cia Ortiz de Saracho Mata, Sofia", "ref": "3623800", "source": "Generalitat de Catalunya", "source:date": "03/11/2020 07:58:14 AM +0000"}}, {"type": "node", "id": 7323388993, "lat": 41.4230564, "lon": 2.1889381, "tags": {"addr:city": "Barcelona", "addr:full": "carrer Valles I Ribot, 8", "addr:housenumber": "8", "addr:postcode": "08027", "addr:street": "carrer Valles I Ribot", "amenity": "pharmacy", "contact:phone": "+34933522407", "dispensing": "yes", "healthcare": "pharmacy", "name": "Farm\u00e0cia Sanz Suay, Nestor", "ref": "3621150", "source": "Generalitat de Catalunya", "source:date": "03/11/2020 07:58:06 AM +0000"}}, {"type": "node", "id": 7323388994, "lat": 41.4250034, "lon": 2.1843337, "tags": {"addr:city": "Barcelona", "addr:full": "carrer Concepci\u00f3 Arenal, 124", "addr:housenumber": "124", "addr:postcode": "08027", "addr:street": "carrer Concepci\u00f3 Arenal", "amenity": "pharmacy", "contact:phone": "+34933528655", "dispensing": "yes", "healthcare": "pharmacy", "name": "Farm\u00e0cia Blanc Meli\u00e0, Beatriz i Javier", "ref": "3621638", "source": "Generalitat de Catalunya", "source:date": "03/11/2020 07:58:31 AM +0000"}}, {"type": "node", "id": 7323388995, "lat": 41.4244193, "lon": 2.185753, "tags": {"addr:city": "Barcelona", "addr:full": "carrer Olesa, 65", "addr:housenumber": "65", "addr:postcode": "08027", "addr:street": "carrer Olesa", "amenity": "pharmacy", "contact:phone": "+34933491240", "dispensing": "yes", "name": "Farm\u00e0cia Marqu\u00e9s Wien, Carolina", "ref": "3623099", "source": "Generalitat de Catalunya", "source:date": "03/11/2020 07:58:17 AM +0000"}}, {"type": "node", "id": 7323415260, "lat": 41.4118536, "lon": 2.1692892, "tags": {"addr:city": "Barcelona", "addr:full": "carrer Padilla, 378", "addr:housenumber": "378-380", "addr:postcode": "08025", "addr:street": "Carrer de Padilla", "amenity": "pharmacy", "contact:phone": "+34934558245", "dispensing": "yes", "name": "Farm\u00e0cia Rubio Moreno, Margarita", "ref": "3624529", "source": "Generalitat de Catalunya", "source:date": "03/11/2020 07:58:08 AM +0000"}}, {"type": "node", "id": 7323415261, "lat": 41.4119182, "lon": 2.1727778, "tags": {"addr:city": "Barcelona", "addr:full": "carrer Rosalia de Castro, 52", "addr:housenumber": "50-52", "addr:postcode": "08025", "addr:street": "Carrer de Rosal\u00eda de Castro", "amenity": "pharmacy", "contact:instagram": "farmacia_isabel.tell_", "contact:phone": "+34932369997", "dispensing": "yes", "name": "Farm\u00e0cia Roig Avil\u00e9s, Isabel", "name:ca": "Farm\u00e0cia Roig Avil\u00e9s, Isabel", "opening_hours": "Mo-Fr 09:00-14:00, 16:30-20:00; Sa 09:30-14:00", "ref": "3624393", "source": "Generalitat de Catalunya", "source:date": "03/11/2020 07:58:09 AM +0000"}}, {"type": "node", "id": 7323415262, "lat": 41.4137483, "lon": 2.1700568, "tags": {"addr:city": "Barcelona", "addr:full": "ronda Del Guinardo, 77", "addr:housenumber": "77", "addr:postcode": "08024", "addr:street": "Ronda del Guinard\u00f3", "amenity": "pharmacy", "contact:phone": "+34932364003", "dispensing": "yes", "name": "Farm\u00e0cia Ruz Torres, Celia", "ref": "3624657", "source": "Generalitat de Catalunya", "source:date": "03/11/2020 07:58:08 AM +0000"}}, {"type": "node", "id": 7323415267, "lat": 41.4141393, "lon": 2.1682074, "tags": {"addr:city": "Barcelona", "addr:full": "carrer Castillejos, 437", "addr:housenumber": "437-439", "addr:postcode": "08024", "addr:street": "Carrer de los Castillejos", "amenity": "pharmacy", "contact:phone": "+34934351101", "dispensing": "yes", "name": "Farm\u00e0cia Aranda Margarit, Ricard", "name:ca": "Farm\u00e0cia Aranda Margarit, Ricard", "ref": "3624688", "source": "Generalitat de Catalunya", "source:date": "03/11/2020 07:58:34 AM +0000"}}, {"type": "node", "id": 7323415268, "lat": 41.4120163, "lon": 2.1712554, "tags": {"addr:city": "Barcelona", "addr:full": "carrer Castillejos, 376", "addr:housenumber": "376", "addr:postcode": "08025", "addr:street": "Carrer de los Castillejos", "amenity": "pharmacy", "contact:phone": "934461121;696125062", "dispensing": "yes", "name": "Farm\u00e0cia Elisabet Barber\u00e0 Mar\u00e9", "opening_hours": "Mo-Fr 09:00-20:30; Sa 09:30-13:30", "ref": "3621964", "source": "Generalitat de Catalunya", "source:date": "03/11/2020 07:58:26 AM +0000"}}, {"type": "node", "id": 7323433069, "lat": 41.4177164, "lon": 2.1828608, "tags": {"addr:city": "Barcelona", "addr:full": "carrer Sant Antoni Maria Claret, 277", "addr:housenumber": "277", "addr:postcode": "08041", "addr:street": "Carrer de Sant Antoni Maria Claret", "amenity": "pharmacy", "contact:phone": "+34933519753", "dispensing": "yes", "name": "Parafarm\u00e0cia Iglesias Bergad\u00e0, Merc\u00e8", "ref": "3623600", "source": "Generalitat de Catalunya", "source:date": "03/11/2020 07:58:19 AM +0000"}}, {"type": "node", "id": 7323513500, "lat": 41.4194745, "lon": 2.1883852, "tags": {"addr:city": "Barcelona", "addr:full": "carrer Felip Ii, 70", "addr:housenumber": "70", "addr:postcode": "08027", "addr:street": "carrer Felip Ii", "amenity": "pharmacy", "check_date": "2024-09-02", "contact:phone": "+34933523159", "dispensing": "yes", "healthcare": "pharmacy", "level": "0", "name": "Farm\u00e0cia Baeta Alquezar - Bou Sais, Al\u00edcia", "opening_hours:drive_through": "Mo-Fr 09:00-13:30,16:30-20:00; Sa 09:00-13:30; Su off", "ref": "3622964", "source": "Generalitat de Catalunya", "source:date": "03/11/2020 07:58:33 AM +0000", "wheelchair": "yes"}}, {"type": "node", "id": 7323513501, "lat": 41.4184255, "lon": 2.190548, "tags": {"addr:city": "Barcelona", "addr:full": "carrer Palencia, 35", "addr:housenumber": "35", "addr:postcode": "08027", "addr:street": "carrer Palencia", "amenity": "pharmacy", "contact:phone": "+34933409266", "dispensing": "yes", "name": "Farm\u00e0cia Ricarte Fillola, Santiago", "ref": "3624446", "source": "Generalitat de Catalunya", "source:date": "03/11/2020 07:58:10 AM +0000"}}, {"type": "node", "id": 7323577842, "lat": 41.4126515, "lon": 2.1793442, "tags": {"addr:city": "Barcelona", "addr:full": "carrer Sant Quinti, 20", "addr:housenumber": "20", "addr:postcode": "08026", "addr:street": "Carrer de Sant Quint\u00ed", "amenity": "pharmacy", "contact:phone": "+34932365105", "dispensing": "yes", "name": "Farm\u00e0cia Villanueva Villalba, M. Pilar", "ref": "3624518", "source": "Generalitat de Catalunya", "source:date": "03/11/2020 07:58:01 AM +0000"}}, {"type": "node", "id": 7323577843, "lat": 41.414205, "lon": 2.1781606, "tags": {"addr:city": "Barcelona", "addr:full": "carrer Sant Antoni Maria Claret, 181", "addr:housenumber": "181", "addr:postcode": "08041", "addr:street": "carrer Sant Antoni Maria Claret", "amenity": "pharmacy", "contact:phone": "+34934356684", "dispensing": "yes", "name": "Farm\u00e0cia Collellmir Morales, Marta", "ref": "3622756", "source": "Generalitat de Catalunya", "source:date": "03/11/2020 07:58:27 AM +0000"}}, {"type": "node", "id": 7525256886, "lat": 41.4167215, "lon": 2.1765289, "tags": {"addr:city": "Barcelona", "addr:housenumber": "46", "addr:postcode": "08041", "addr:street": "Carrer d'Am\u00e8rica", "amenity": "pharmacy", "healthcare": "pharmacy", "name": "Farm\u00e0cia Francisco Toribio Hern\u00e1ndez", "opening_hours": "Mo-Fr 09:00-13:30,16:30-20:00; Sa 09:00-13:30", "phone": "+34 934 50 37 91"}}, {"type": "node", "id": 8382364629, "lat": 41.4315549, "lon": 2.1796218}, {"type": "node", "id": 8382364659, "lat": 41.4315545, "lon": 2.1798252}, {"type": "node", "id": 8382364668, "lat": 41.4314875, "lon": 2.1798592}, {"type": "node", "id": 8382364673, "lat": 41.4314904, "lon": 2.1796641}, {"type": "node", "id": 8382364727, "lat": 41.4315479, "lon": 2.1796642}, {"type": "node", "id": 8382364739, "lat": 41.4315545, "lon": 2.1798159}, {"type": "node", "id": 8382364740, "lat": 41.4314897, "lon": 2.1797106, "tags": {"addr:housenumber": "12", "addr:postcode": "08016", "addr:street": "Carrer d'Alella", "entrance": "yes"}}, {"type": "node", "id": 8382364759, "lat": 41.4314879, "lon": 2.1798255}, {"type": "node", "id": 8382364772, "lat": 41.4315429, "lon": 2.1797589}, {"type": "node", "id": 8382364782, "lat": 41.4315424, "lon": 2.1798167}, {"type": "node", "id": 8382364788, "lat": 41.4315545, "lon": 2.1798611}, {"type": "node", "id": 8382364798, "lat": 41.4315547, "lon": 2.1797321}, {"type": "node", "id": 8382364801, "lat": 41.4315547, "lon": 2.1797594}, {"type": "node", "id": 8382364807, "lat": 41.4315474, "lon": 2.1796942}, {"type": "node", "id": 8382364840, "lat": 41.4315392, "lon": 2.1797315}, {"type": "node", "id": 8382364855, "lat": 41.4315148, "lon": 2.179621}, {"type": "node", "id": 8382364915, "lat": 41.4315548, "lon": 2.179664}, {"type": "node", "id": 8382364922, "lat": 41.431491, "lon": 2.1796205}, {"type": "node", "id": 10692618305, "lat": 41.4208735, "lon": 2.1829864, "tags": {"amenity": "pharmacy", "healthcare": "pharmacy", "name": "Farm\u00e0cia Rodriguez", "opening_hours": "Mo-Fr 09:00-20:00; Sa 09:00-13:30"}}, {"type": "way", "id": 902488845, "nodes": [8382364727, 8382364807, 7323177654, 8382364840, 8382364798, 8382364801, 8382364772, 8382364782, 8382364739, 8382364659, 8382364788, 8382364668, 8382364759, 8382364740, 8382364673, 8382364922, 8382364855, 8382364629, 8382364915, 8382364727], "tags": {"amenity": "pharmacy", "building": "apartments", "building:levels": "5", "contact:phone": "+34933523954", "dispensing": "yes", "healthcare": "pharmacy", "name": "Farm\u00e0cia Reines Picornell, Catalina", "name:ca": "Farm\u00e0cia Reines Picornell, Catalina", "ref": "3624550", "source": "Generalitat de Catalunya", "source:date": "03/11/2020 07:58:10 AM +0000"}}]}