{"version": 0.6, "generator": "Overpass API 0.7.62.5 1bd436f1", "osm3s": {"timestamp_osm_base": "2025-03-24T00:15:46Z", "copyright": "The data included in this document is from www.openstreetmap.org. The data is made available under ODbL."}, "elements": [{"type": "node", "id": 7514653182, "lat": 6.4649354, "lon": 3.1531734}, {"type": "node", "id": 7514653183, "lat": 6.4649127, "lon": 3.1533182}, {"type": "node", "id": 7514653184, "lat": 6.4645907, "lon": 3.1532813}, {"type": "node", "id": 7514657485, "lat": 6.4646098, "lon": 3.1531289}, {"type": "node", "id": 11766305817, "lat": 6.4645765, "lon": 3.1532804}, {"type": "node", "id": 11886853246, "lat": 6.5059412, "lon": 3.1702262, "tags": {"amenity": "hospital", "name": "Grace Olambipo Clinic", "operator": "private"}}, {"type": "node", "id": 11886853247, "lat": 6.5023249, "lon": 3.1716183, "tags": {"amenity": "hospital", "name": "Isashi Primary Health Care Center", "operator": "private"}}, {"type": "node", "id": 11886853248, "lat": 6.4997452, "lon": 3.170768, "tags": {"amenity": "hospital", "name": "Lagos State Ministry Of Health Belinda Convalscent And Fertility Centre", "operator": "government"}}, {"type": "node", "id": 11886853249, "lat": 6.4955932, "lon": 3.1718919, "tags": {"amenity": "hospital", "name": "Pioneer Medical Clinic", "operator": "private"}}, {"type": "node", "id": 11886853250, "lat": 6.4955066, "lon": 3.1717899, "tags": {"amenity": "hospital", "name": "Leverage Hospital Specialist Clinic", "operator": "private"}}, {"type": "node", "id": 11886853251, "lat": 6.496422, "lon": 3.1711113, "tags": {"amenity": "hospital", "name": "Tower Of Glory Hospital", "operator": "private"}}, {"type": "node", "id": 11886853252, "lat": 6.4922566, "lon": 3.1740108, "tags": {"amenity": "hospital", "name": "Noble Medical Digonistic Centre", "operator": "private"}}, {"type": "node", "id": 11886853253, "lat": 6.4902392, "lon": 3.1999826, "tags": {"amenity": "hospital", "name": "Grace Land Medical Center", "operator": "private"}}, {"type": "node", "id": 11886853254, "lat": 6.4927656, "lon": 3.2000443, "tags": {"amenity": "hospital", "name": "Pa Clement Ogunsusi", "operator": "private"}}, {"type": "node", "id": 11886853255, "lat": 6.5029858, "lon": 3.2065956, "tags": {"amenity": "hospital", "name": "Adis Bunm Trado Medical Hospital And Maternity Home 14 Nnaema Uzor Street Off Summit Light Road", "operator": "private"}}, {"type": "node", "id": 11886853256, "lat": 6.5004514, "lon": 3.2067874, "tags": {"amenity": "hospital", "name": "Ndieze Homeopathic Medical Services 20 Drchiwumba Off Summit Light Road", "operator": "private"}}, {"type": "node", "id": 11886853257, "lat": 6.5023249, "lon": 3.198207, "tags": {"amenity": "hospital", "name": "Wisdom Hospital And Maternity", "operator": "private"}}, {"type": "node", "id": 11886853258, "lat": 6.4971682, "lon": 3.1964502, "tags": {"amenity": "hospital", "name": "Betheland Hospital", "operator": "private"}}, {"type": "node", "id": 11886996045, "lat": 6.4944299, "lon": 3.1438789, "tags": {"amenity": "hospital", "name": "Ademola Medical Center", "operator": "private"}}, {"type": "node", "id": 11886996046, "lat": 6.4943833, "lon": 3.125436, "tags": {"amenity": "hospital", "name": "Hyssop Eye Clinic", "operator": "private"}}, {"type": "node", "id": 11886996047, "lat": 6.4961688, "lon": 3.1253126, "tags": {"amenity": "hospital", "name": "Ore Ofe Hospital Ijanikin", "operator": "private"}}, {"type": "node", "id": 11886996048, "lat": 6.4943433, "lon": 3.1184435, "tags": {"amenity": "hospital", "name": "Femola Hospital", "operator": "private"}}, {"type": "node", "id": 11886996049, "lat": 6.497404, "lon": 3.1186245, "tags": {"amenity": "hospital", "name": "Ijanikin Primary Health Care Center By Ile Oba Bstop Lagos Badagry Express Road", "operator": "private"}}, {"type": "node", "id": 11886996050, "lat": 6.4937197, "lon": 3.1415319, "tags": {"amenity": "hospital", "name": "Angelic Care Foundation Maternity", "operator": "private"}}, {"type": "node", "id": 11886996051, "lat": 6.4949056, "lon": 3.139472, "tags": {"amenity": "hospital", "name": "Ever Life Hospital", "operator": "private"}}, {"type": "node", "id": 11887050496, "lat": 6.4769146, "lon": 3.1240956, "tags": {"amenity": "hospital", "name": "Era Primary Health Care Center", "operator": "private"}}, {"type": "node", "id": 11887050497, "lat": 6.4769579, "lon": 3.1232701, "tags": {"amenity": "hospital", "name": "Oriowo Maternity Home", "operator": "private"}}, {"type": "node", "id": 11887050498, "lat": 6.4607312, "lon": 3.1053704, "tags": {"amenity": "hospital", "name": "Goodness Medical Center", "operator": "private"}}, {"type": "node", "id": 11887050499, "lat": 6.4666106, "lon": 3.1150451, "tags": {"amenity": "hospital", "name": "Imude Primary Health Care Center", "operator:type": "public"}}, {"type": "node", "id": 11887050500, "lat": 6.4768459, "lon": 3.158218, "tags": {"amenity": "hospital", "name": "Angelic Care Health Center 124 Adaloko Road By Pako Bstop", "operator": "private"}}, {"type": "node", "id": 11887050501, "lat": 6.4766967, "lon": 3.1423406, "tags": {"amenity": "hospital", "name": "Devital Care Hospital", "operator": "private"}}, {"type": "node", "id": 11887050502, "lat": 6.4884476, "lon": 3.1539707, "tags": {"amenity": "hospital", "name": "Denow Ayetoro Medical Center", "operator": "private"}}, {"type": "node", "id": 11887050503, "lat": 6.4869359, "lon": 3.1532773, "tags": {"amenity": "hospital", "name": "Ketu Medical Clinic", "operator": "private"}}, {"type": "node", "id": 11887482478, "lat": 6.4730095, "lon": 3.1512415, "tags": {"amenity": "hospital", "name": "Alhayat Hospital 2ekuweme Street Off Ogo Oluwa Street By Green And White Bus Stop", "operator": "private"}}, {"type": "node", "id": 11887482479, "lat": 6.4700726, "lon": 3.1429884, "tags": {"amenity": "hospital", "name": "God Cures Hospital", "operator": "private"}}, {"type": "node", "id": 11887512842, "lat": 6.4601775, "lon": 3.140227, "tags": {"amenity": "hospital", "name": "Healing Land Hospital And Maternity", "operator": "private"}}, {"type": "node", "id": 11887512843, "lat": 6.4670343, "lon": 3.1412986, "tags": {"amenity": "hospital", "name": "Ejiwunmi Tradomedical", "operator": "private"}}, {"type": "node", "id": 11887512844, "lat": 6.4610151, "lon": 3.1443389, "tags": {"amenity": "hospital", "name": "Goodness Medical Services", "operator": "private"}}, {"type": "node", "id": 11887512845, "lat": 6.461792, "lon": 3.1442732, "tags": {"amenity": "hospital", "name": "Shibiri Primary Health Centre", "operator:type": "public"}}, {"type": "node", "id": 11887512846, "lat": 6.4658497, "lon": 3.1529447, "tags": {"amenity": "hospital", "name": "Olutayo Nursing Home", "operator": "private"}}, {"type": "node", "id": 11887512847, "lat": 6.4648342, "lon": 3.1534101, "tags": {"amenity": "hospital", "name": "Illogbo Central Hospital Illogboope", "operator": "private"}}, {"type": "node", "id": 11887512848, "lat": 6.4616534, "lon": 3.1538205, "tags": {"amenity": "hospital", "name": "Muskat Hospital9 Abbi Street By Rasaq Bstop Off Bishiri Ajangbadi Ojo", "operator": "private"}}, {"type": "node", "id": 11887518928, "lat": 6.4593733, "lon": 3.1405167, "tags": {"amenity": "hospital", "name": "Vineyard Convalescent Hospital", "operator": "private"}}, {"type": "node", "id": 11887555938, "lat": 6.4603501, "lon": 3.1401533, "tags": {"amenity": "hospital", "name": "Healing Land Hospital And Maternity", "operator": "private"}}, {"type": "node", "id": 11889023436, "lat": 6.4870651, "lon": 3.1653258, "tags": {"amenity": "hospital", "name": "Chidove Homoeopathic Medical Center", "operator": "private"}}, {"type": "node", "id": 11889023437, "lat": 6.4864475, "lon": 3.1736923, "tags": {"amenity": "hospital", "name": "Mainframe Hospital And Maternity Centre", "operator": "private"}}, {"type": "node", "id": 11889023438, "lat": 6.4780452, "lon": 3.1587236, "tags": {"amenity": "hospital", "name": "Divine Favour Maternity Center Adoloko", "operator": "private"}}, {"type": "node", "id": 11889023439, "lat": 6.476177, "lon": 3.1628032, "tags": {"amenity": "hospital", "name": "Emmanuel Power Hospital", "operator": "private"}}, {"type": "node", "id": 11889023440, "lat": 6.4711933, "lon": 3.1783828, "tags": {"amenity": "hospital", "name": "Abodunrin Medical Center", "operator": "private"}}, {"type": "node", "id": 11889023441, "lat": 6.4709387, "lon": 3.1616921, "tags": {"amenity": "hospital", "name": "Redeem Medical Center Annex", "operator": "private"}}, {"type": "node", "id": 11889023443, "lat": 6.46757, "lon": 3.1800444, "tags": {"amenity": "hospital", "name": "Okoko Central Hospital Jakande New Site", "operator": "private"}}, {"type": "node", "id": 11889023444, "lat": 6.4647236, "lon": 3.1720206, "tags": {"amenity": "hospital", "name": "Dikue Medical Centre", "operator": "private"}}, {"type": "node", "id": 11889023445, "lat": 6.4621438, "lon": 3.1728575, "tags": {"amenity": "hospital", "name": "Sabo Crown Hospital", "operator": "private"}}, {"type": "node", "id": 11889023446, "lat": 6.4617147, "lon": 3.1753948, "tags": {"amenity": "hospital", "name": "Garden Hospital Sabo Oniba Town", "operator": "private"}}, {"type": "node", "id": 11889139972, "lat": 6.4648835, "lon": 3.1889132, "tags": {"amenity": "hospital", "name": "Blessed Mary Natural Clinic And Maternity", "operator": "private"}}, {"type": "node", "id": 11889139973, "lat": 6.4665519, "lon": 3.181698, "tags": {"amenity": "hospital", "name": "Redeemed Medical Center", "operator": "private"}}, {"type": "node", "id": 11889139974, "lat": 6.4669943, "lon": 3.1853673, "tags": {"amenity": "hospital", "name": "Ifeoluwa Maternity Home", "operator": "private"}}, {"type": "node", "id": 11889139975, "lat": 6.4659549, "lon": 3.1831571, "tags": {"amenity": "hospital", "name": "Kena Hospital", "operator": "private"}}, {"type": "node", "id": 11889139976, "lat": 6.4671796, "lon": 3.1872247, "tags": {"amenity": "hospital", "name": "Kemberi Primary Health Center", "operator": "private"}}, {"type": "node", "id": 11889139977, "lat": 6.4702271, "lon": 3.1949793, "tags": {"amenity": "hospital", "name": "Kiladejo Hospital", "operator": "private"}}, {"type": "node", "id": 11889139978, "lat": 6.4707042, "lon": 3.1910831, "tags": {"amenity": "hospital", "name": "Okokomaiko Primary Health Care Board", "operator:type": "public"}}, {"type": "node", "id": 11889139979, "lat": 6.4821828, "lon": 3.1882533, "tags": {"amenity": "hospital", "name": "Hon C O Ojelabi Health Center Igbo Elerin", "operator": "private"}}, {"type": "node", "id": 11889139980, "lat": 6.4835473, "lon": 3.1872851, "tags": {"amenity": "hospital", "name": "Bossom Hospital And Maternity", "operator": "private"}}, {"type": "node", "id": 11889139981, "lat": 6.4835926, "lon": 3.1867862, "tags": {"amenity": "hospital", "name": "Bolus Coudlescent Center", "operator": "private"}}, {"type": "node", "id": 11889139982, "lat": 6.4862936, "lon": 3.1852627, "tags": {"amenity": "hospital", "name": "Ancel Hospital", "operator": "private"}}, {"type": "node", "id": 11889356823, "lat": 6.5797385, "lon": 3.0888936, "tags": {"amenity": "hospital", "name": "Oluwalogbon Medical Centre", "operator": "private"}}, {"type": "node", "id": 11889356824, "lat": 6.5772458, "lon": 3.0935238, "tags": {"amenity": "hospital", "name": "Blessed Trinity Hospital", "operator": "private"}}, {"type": "node", "id": 11889356825, "lat": 6.5764238, "lon": 3.0914457, "tags": {"amenity": "hospital", "name": "De Godswill Hospital", "operator": "private"}}, {"type": "node", "id": 11889356826, "lat": 6.5657894, "lon": 3.0814022, "tags": {"amenity": "hospital", "name": "Ojuoluwa Medical Centre", "operator": "private"}}, {"type": "node", "id": 11889356827, "lat": 6.5610491, "lon": 3.0790901, "tags": {"amenity": "hospital", "name": "Medics Clinical Venture", "operator": "private"}}, {"type": "node", "id": 11889378477, "lat": 6.588285, "lon": 3.0805197, "tags": {"amenity": "hospital", "name": "Saving Grace Hospital", "operator": "private"}}, {"type": "node", "id": 11889378478, "lat": 6.5987137, "lon": 3.0715866, "tags": {"amenity": "hospital", "name": "Ketu Health Centre", "operator:type": "public"}}, {"type": "node", "id": 11889378479, "lat": 6.6174031, "lon": 3.0917099, "tags": {"amenity": "hospital", "name": "Odugbe Hosipal", "operator": "private"}}, {"type": "node", "id": 11889669564, "lat": 6.5521424, "lon": 3.0427006, "tags": {"amenity": "hospital", "name": "Egudu Health Center", "operator": "private"}}, {"type": "node", "id": 11889706143, "lat": 6.5011017, "lon": 3.0874774, "tags": {"amenity": "hospital", "name": "Nestle Nig Plc Staff Clinic", "operator": "others"}}, {"type": "node", "id": 11889706144, "lat": 6.5061171, "lon": 3.0885985, "tags": {"amenity": "hospital", "name": "Rophe Clinic", "operator": "private"}}, {"type": "node", "id": 11889706145, "lat": 6.511804, "lon": 3.0917206, "tags": {"amenity": "hospital", "name": "Toluwalope Clinic and Maternity", "operator": "private"}}, {"type": "node", "id": 11889706146, "lat": 6.5296453, "lon": 3.0774298, "tags": {"amenity": "hospital", "name": "Rock Of Ages Hospital", "operator": "private"}}, {"type": "node", "id": 11889717157, "lat": 6.5041077, "lon": 3.1024092, "tags": {"amenity": "hospital", "name": "Agbara Primary Health Care Center", "operator:type": "public"}}, {"type": "node", "id": 11889717158, "lat": 6.5028899, "lon": 3.1011794, "tags": {"amenity": "hospital", "name": "Agbara Medical Center", "operator": "private"}}, {"type": "node", "id": 11889717159, "lat": 6.5039505, "lon": 3.1009206, "tags": {"amenity": "hospital", "name": "Sefa Hospital Clinic And Maternity", "operator": "private"}}, {"type": "node", "id": 11889743915, "lat": 6.5276893, "lon": 3.1341237, "tags": {"amenity": "hospital", "name": "Igbesa Primary Health Center", "operator:type": "public"}}, {"type": "node", "id": 11889743916, "lat": 6.5242703, "lon": 3.1363955, "tags": {"amenity": "hospital", "name": "Falola Clinic Medical", "operator": "private"}}, {"type": "node", "id": 11889743917, "lat": 6.5318571, "lon": 3.1786939, "tags": {"amenity": "hospital", "name": "Ikogbo Primary Health Center", "operator:type": "public"}}, {"type": "node", "id": 11889755182, "lat": 6.5367869, "lon": 3.135505, "tags": {"amenity": "hospital", "name": "Falola Medical Clinic", "operator": "private"}}, {"type": "node", "id": 11889755183, "lat": 6.5406641, "lon": 3.1293118, "tags": {"amenity": "hospital", "name": "Olabaji Clinic", "operator": "private"}}, {"type": "node", "id": 11890813755, "lat": 6.5615953, "lon": 3.1885584, "tags": {"amenity": "hospital", "name": "Savelife Hospital Moshe", "operator": "private"}}, {"type": "node", "id": 11890813756, "lat": 6.5781878, "lon": 3.1754203, "tags": {"amenity": "hospital", "name": "Odan Abuja Primary Health Center", "operator:type": "public"}}, {"type": "node", "id": 11891527761, "lat": 6.5798125, "lon": 3.2074358, "tags": {"amenity": "hospital", "name": "Isefun Primary Health Care Center", "operator:type": "public"}}, {"type": "node", "id": 11891527762, "lat": 6.5794284, "lon": 3.208378, "tags": {"amenity": "hospital", "name": "Grace Point Medical Centre", "operator": "private"}}, {"type": "node", "id": 11891527763, "lat": 6.5779, "lon": 3.2068397, "tags": {"amenity": "hospital", "name": "Oluwabamise Convalescent and Maternity Home", "operator": "private"}}, {"type": "node", "id": 11891527764, "lat": 6.5772432, "lon": 3.2095313, "tags": {"amenity": "hospital", "name": "Hope In God Faith Clinic and Maternity Home", "operator": "private"}}, {"type": "node", "id": 11891527765, "lat": 6.5753227, "lon": 3.214541, "tags": {"amenity": "hospital", "name": "Cele Apata Community Health Center", "operator": "private"}}, {"type": "node", "id": 11925066633, "lat": 6.5258492, "lon": 3.2163817, "tags": {"amenity": "hospital", "name": "Adebek Maternity Home", "operator": "private"}}, {"type": "node", "id": 11925066634, "lat": 6.5255295, "lon": 3.2151418, "tags": {"amenity": "hospital", "name": "Pakal Medical Centre", "operator": "private"}}, {"type": "node", "id": 11925066635, "lat": 6.5276866, "lon": 3.214319, "tags": {"amenity": "hospital", "name": "Hefamaa Laboratory", "operator": "private"}}, {"type": "way", "id": 803337410, "nodes": [7514653182, 7514653183, 7514653184, 11766305817, 7514657485, 7514653182], "tags": {"amenity": "hospital", "healthcare": "hospital", "name": "Ilogbo-Center Hospital"}}]}