{"version": 0.6, "generator": "Overpass API 0.7.62.5 1bd436f1", "osm3s": {"timestamp_osm_base": "2025-03-23T23:27:43Z", "copyright": "The data included in this document is from www.openstreetmap.org. The data is made available under ODbL."}, "elements": [{"type": "node", "id": 240979740, "lat": 41.3868448, "lon": 2.1817238}, {"type": "node", "id": 432592965, "lat": 41.3803452, "lon": 2.170768, "tags": {"amenity": "cafe", "check_date": "2023-11-24", "cuisine": "sandwich", "name": "Mendizabal", "outdoor_seating": "yes", "smoking": "outside", "takeaway": "yes"}}, {"type": "node", "id": 603785497, "lat": 41.3781559, "lon": 2.1704778, "tags": {"amenity": "cafe", "name": "El caf\u00e8 de les del\u00edcies", "opening_hours": "Su-Th 12:00-01:00; Fr-Sa 12:00-03:00", "survey:date": "2022-12-07"}}, {"type": "node", "id": 672140163, "lat": 41.383021, "lon": 2.1710542, "tags": {"addr:housenumber": "4-6", "addr:street": "Carrer d'en Xucl\u00e0", "amenity": "cafe", "diet:gluten_free": "yes", "name": "Granja Viader", "opening_hours": "Mo-Sa 09:00-13:15, 17:00-21:15", "phone": "+34 933 18 34 86", "website": "http://www.granjaviader.cat"}}, {"type": "node", "id": 672140165, "lat": 41.3820651, "lon": 2.1753232, "tags": {"addr:housenumber": "4", "addr:postcode": "08002", "addr:street": "Carrer dels Banys Nous", "amenity": "cafe", "name": "La Granja 1872"}}, {"type": "node", "id": 672140177, "lat": 41.384535, "lon": 2.1684343, "tags": {"amenity": "cafe", "cuisine": "coffee_shop", "name": "Dalston Coffee"}}, {"type": "node", "id": 672140180, "lat": 41.3844847, "lon": 2.1690087, "tags": {"amenity": "cafe", "name": "Kasparo", "outdoor_seating": "yes", "wheelchair": "yes"}}, {"type": "node", "id": 672398176, "lat": 41.3826567, "lon": 2.1716972, "tags": {"amenity": "cafe", "name": "Bonatapa"}}, {"type": "node", "id": 673967568, "lat": 41.384376, "lon": 2.1687566, "tags": {"amenity": "cafe", "name": "Cafe d'Annunzio"}}, {"type": "node", "id": 673967678, "lat": 41.3844243, "lon": 2.1688853, "tags": {"amenity": "cafe", "name": "Chelo", "name:es": "Chelo"}}, {"type": "node", "id": 673978059, "lat": 41.3847302, "lon": 2.1680967, "tags": {"amenity": "cafe", "name": "C\u00e8ntric", "name:ca": "C\u00e8ntric"}}, {"type": "node", "id": 704031158, "lat": 41.3858504, "lon": 2.1694606, "tags": {"amenity": "cafe", "indoor_seating": "yes", "name": "Cafe Zurich", "outdoor_seating": "yes", "payment:credit_cards": "yes", "payment:debit_cards": "yes", "smoking": "outside", "wheelchair": "yes"}}, {"type": "node", "id": 704042058, "lat": 41.3888305, "lon": 2.1719117, "tags": {"amenity": "cafe", "brand": "Starbucks", "brand:wikidata": "Q37158", "brand:wikipedia": "en:Starbucks", "cuisine": "coffee_shop", "diet:gluten_free": "yes", "indoor_seating": "yes", "name": "Starbucks", "name:ca": "Starbucks", "official_name": "Starbucks Coffee", "outdoor_seating": "no", "takeaway": "yes", "wheelchair": "limited"}}, {"type": "node", "id": 704051187, "lat": 41.3880191, "lon": 2.1679205, "tags": {"addr:city": "Barcelona", "addr:country": "ES", "addr:housenumber": "10", "addr:postcode": "08007", "addr:street": "Rambla de Catalunya", "amenity": "cafe", "branch": "Rambla Catalu\u00f1a", "brand": "Starbucks", "brand:wikidata": "Q37158", "brand:wikipedia": "en:Starbucks", "contact:phone": "+34 933179321", "cuisine": "coffee_shop", "diet:gluten_free": "yes", "internet_access": "wlan", "name": "Starbucks", "name:ca": "Starbucks", "official_name": "Starbucks Coffee", "opening_hours": "Fr-Sa 07:30-23:00; Su-Th 07:30-22:00", "takeaway": "yes", "wikidata": "Q85693528"}}, {"type": "node", "id": 704051527, "lat": 41.387981, "lon": 2.1679862, "tags": {"amenity": "cafe", "name": "Cullera de Boix"}}, {"type": "node", "id": 704062672, "lat": 41.390701, "lon": 2.1650135, "tags": {"addr:city": "Barcelona", "addr:housenumber": "343", "addr:street": "Carrer del Consell de Cent", "amenity": "cafe", "diet:vegan": "yes", "diet:vegetarian": "yes", "indoor_seating": "yes", "name": "Il Caff\u00e8 di Francesco", "opening_hours:signed": "no", "outdoor_seating": "yes", "wheelchair": "yes"}}, {"type": "node", "id": 819552792, "lat": 41.3944249, "lon": 2.1675209, "tags": {"amenity": "cafe", "check_date": "2024-07-01", "name": "Bracafe", "outdoor_seating": "yes"}}, {"type": "node", "id": 984101560, "lat": 41.3768216, "lon": 2.1774883, "tags": {"addr:housenumber": "4", "addr:postcode": "08002", "addr:street": "Pla\u00e7a del Portal de la Pau", "amenity": "cafe", "name": "La Cava Universal", "wheelchair": "limited"}}, {"type": "node", "id": 984332220, "lat": 41.3858116, "lon": 2.1679219, "tags": {"amenity": "cafe", "brand": "Starbucks", "brand:wikidata": "Q37158", "brand:wikipedia": "en:Starbucks", "check_date": "2023-04-25", "cuisine": "coffee_shop", "diet:gluten_free": "yes", "name": "Starbucks", "name:ca": "Starbucks", "official_name": "Starbucks Coffee", "takeaway": "yes", "wheelchair": "yes"}}, {"type": "node", "id": 1072761322, "lat": 41.3852913, "lon": 2.1771925, "tags": {"addr:city": "Barcelona", "addr:country": "ES", "addr:housenumber": "32", "addr:postcode": "08003", "addr:street": "Via Laietana", "amenity": "cafe", "brand": "Starbucks", "brand:wikidata": "Q37158", "brand:wikipedia": "en:Starbucks", "cuisine": "coffee_shop", "diet:gluten_free": "yes", "name": "Starbucks", "name:ca": "Starbucks", "official_name": "Starbucks Coffee", "takeaway": "yes"}}, {"type": "node", "id": 1072800838, "lat": 41.3847931, "lon": 2.1767008, "tags": {"addr:housenumber": "12", "addr:postcode": "08002", "addr:street": "Carrer de la Tapineria", "amenity": "cafe", "check_date": "2023-04-23", "name": "El Caf\u00e8 D'en Victor", "outdoor_seating": "yes", "wheelchair": "yes"}}, {"type": "node", "id": 1374638022, "lat": 41.3851311, "lon": 2.1615498}, {"type": "node", "id": 1374638056, "lat": 41.3852193, "lon": 2.1614331}, {"type": "node", "id": 1374638076, "lat": 41.3853041, "lon": 2.1617616}, {"type": "node", "id": 1374638110, "lat": 41.3853856, "lon": 2.1616571}, {"type": "node", "id": 1374638638, "lat": 41.3869185, "lon": 2.1592608}, {"type": "node", "id": 1374638663, "lat": 41.3871805, "lon": 2.1596072}, {"type": "node", "id": 1376659430, "lat": 41.3788074, "lon": 2.1634086}, {"type": "node", "id": 1376659432, "lat": 41.3788704, "lon": 2.1632989, "tags": {"entrance": "main"}}, {"type": "node", "id": 1376659434, "lat": 41.378963, "lon": 2.1633129}, {"type": "node", "id": 1400647993, "lat": 41.3868791, "lon": 2.1818907}, {"type": "node", "id": 1445598557, "lat": 41.3948025, "lon": 2.1817533, "tags": {"amenity": "cafe", "indoor_seating": "yes", "name": "Bracafe", "opening_hours": "Mo-Fr 07:00-21:00; Sa,Su,PH 08:00-21:00", "outdoor_seating": "yes", "source": "Trabajo de campo", "wheelchair": "yes"}}, {"type": "node", "id": 1643207884, "lat": 41.383572, "lon": 2.1777123, "tags": {"addr:city": "Barcelona", "addr:housenumber": "1-3", "addr:postcode": "08002", "addr:street": "Baixada de la Llibreteria", "amenity": "cafe", "check_date": "2024-05-03", "cuisine": "coffee_shop", "internet_access": "no", "level": "0", "name": "Tostaderos Bon Mercat", "opening_hours": "Mo-Sa 08:00-20:00; Su off", "outdoor_seating": "no", "payment:cash": "yes", "payment:credit_cards": "yes", "payment:debit_cards": "yes", "phone": "+34933152908", "wheelchair": "limited"}}, {"type": "node", "id": 1660356642, "lat": 41.3818704, "lon": 2.1799219, "tags": {"addr:housenumber": "14", "addr:postcode": "08002", "addr:street": "Carrer del Correu Vell", "amenity": "cafe", "cuisine": "spanish", "name": "Caf\u00e9 Babel"}}, {"type": "node", "id": 1676888054, "lat": 41.3894566, "lon": 2.1839803, "tags": {"amenity": "cafe", "name": "Coffee"}}, {"type": "node", "id": 1867973686, "lat": 41.3873714, "lon": 2.1817262}, {"type": "node", "id": 1876037835, "lat": 41.384443, "lon": 2.1770622, "tags": {"amenity": "cafe", "contact:website": "http://www.cafedestiu.com/", "leisure": "outdoor_seating", "name": "Caf\u00e8 d'Estiu", "name:ca": "Caf\u00e8 d'Estiu"}}, {"type": "node", "id": 1925694493, "lat": 41.3838377, "lon": 2.1630268, "tags": {"amenity": "cafe", "name": "Sentidos"}}, {"type": "node", "id": 1998961100, "lat": 41.3872829, "lon": 2.1817557}, {"type": "node", "id": 2056517879, "lat": 41.3830524, "lon": 2.1744369, "tags": {"addr:housenumber": "8", "addr:postcode": "08002", "addr:street": "Carrer de la Palla", "amenity": "cafe", "check_date": "2024-03-02", "contact:instagram": "caelumbcn", "cuisine": "coffee_shop", "email": "barcelonacaelum@gmail.com", "indoor_seating": "yes", "internet_access": "wlan", "internet_access:fee": "no", "internet_access:password": "CAELUMBCN888888", "internet_access:ssid": "MOVISTAR_1878", "name": "Caelum", "name:zh": "\u4fee\u5973\u5236\u4f5c\u7684\u751c\u70b9", "opening_hours": "Mo-Th 10:00-20:00; Su 10:00-20:00; Fr-Sa 10:00-20:00", "outdoor_seating": "no", "payment:cash": "yes", "payment:credit_cards": "yes", "payment:debit_cards": "yes", "phone": "+34933026993", "ref:vatin": "B61626123", "website": "https://www.caelumbarcelona.com/", "wheelchair": "no"}}, {"type": "node", "id": 2087581312, "lat": 41.3931786, "lon": 2.1608204, "tags": {"addr:city": "Barcelona", "addr:housenumber": "92", "addr:street": "Rambla de Catalunya", "amenity": "cafe", "entrance": "yes", "name": "Caf\u00e9 & T\u00e9 GR Compa\u00f1ia del Tropico"}}, {"type": "node", "id": 2120131925, "lat": 41.3852589, "lon": 2.1632447, "tags": {"amenity": "cafe", "brand": "Starbucks", "brand:wikidata": "Q37158", "brand:wikipedia": "en:Starbucks", "cuisine": "coffee_shop", "diet:gluten_free": "yes", "name": "Starbucks", "name:ca": "Starbucks", "official_name": "Starbucks Coffee", "opening_hours": "Mo-Th 07:30-22:00; Fr,Sa 08:00-22:00; Su,PH 08:00-22:00", "takeaway": "yes", "wheelchair": "no"}}, {"type": "node", "id": 2184580514, "lat": 41.379674, "lon": 2.1755608, "tags": {"amenity": "cafe", "bar": "yes", "check_date": "2023-02-19", "indoor_seating": "yes", "name": "Oca\u00f1a", "outdoor_seating": "yes", "payment:credit_cards": "yes", "payment:debit_cards": "yes", "website": "https://www.ocana.cat/"}}, {"type": "node", "id": 2250304777, "lat": 41.3949532, "lon": 2.1746886, "tags": {"addr:city": "Barcelona", "addr:country": "ES", "addr:housenumber": "17-18", "addr:postcode": "08010", "addr:street": "Pla\u00e7a de Tetuan", "amenity": "cafe", "name": "Bracaf\u00e9"}}, {"type": "node", "id": 2262989599, "lat": 41.3771412, "lon": 2.1773093, "tags": {"amenity": "cafe", "name": "El Bosc de les Fades", "name:ca": "El Bosc de les Fades", "name:en": "Hidden Fairy Cafe"}}, {"type": "node", "id": 2264581901, "lat": 41.3940517, "lon": 2.1739923, "tags": {"addr:city": "Barcelona", "addr:housenumber": "667", "addr:street": "Gran Via de les Corts Catalanes", "amenity": "cafe", "check_date": "2023-10-03", "entrance": "yes", "name": "Venezia", "name:es": "Venezia"}}, {"type": "node", "id": 2267959308, "lat": 41.3869226, "lon": 2.181698}, {"type": "node", "id": 2468197823, "lat": 41.3752071, "lon": 2.1635151, "tags": {"addr:country": "ES", "addr:housenumber": "105", "addr:street": "Avinguda del Paral\u00b7lel", "amenity": "cafe", "check_date": "2023-04-26", "indoor_seating": "yes", "name": "365 Cafeteria Forn de Pa", "name:ca": "365", "outdoor_seating": "yes", "shop": "bakery"}}, {"type": "node", "id": 2482696173, "lat": 41.3869464, "lon": 2.1818682, "tags": {"entrance": "main"}}, {"type": "node", "id": 2484073303, "lat": 41.3788774, "lon": 2.1634117}, {"type": "node", "id": 2500570194, "lat": 41.3867393, "lon": 2.1633975, "tags": {"amenity": "cafe", "layer": "-1", "name": "Bar de la Universitat", "operator": "Universitat de Barcelona", "wheelchair": "no"}}, {"type": "node", "id": 2560085755, "lat": 41.3830077, "lon": 2.1601662, "tags": {"addr:housenumber": "546", "addr:street": "Gran Via de les Corts Catalanes", "amenity": "cafe", "name": "Escrib\u00e0", "wheelchair": "no"}}, {"type": "node", "id": 2560089210, "lat": 41.3869761, "lon": 2.1591847}, {"type": "node", "id": 2560089714, "lat": 41.3872447, "lon": 2.1595404}, {"type": "node", "id": 2564662939, "lat": 41.3752182, "lon": 2.1664925, "tags": {"amenity": "cafe", "internet_access": "yes", "name": "Paral\u2022lel Central"}}, {"type": "node", "id": 2598482829, "lat": 41.3835218, "lon": 2.1810138, "tags": {"addr:city": "Barcelona", "addr:housenumber": "64-66", "addr:postcode": "08003", "addr:street": "Carrer de l'Argenteria", "amenity": "cafe", "cuisine": "coffee_shop", "name": "Caf\u00e9s El Magnifico", "opening_hours": "Mo-Sa 09:00-20:00", "website": "https://cafeselmagnifico.com/", "wheelchair": "limited"}}, {"type": "node", "id": 2598482920, "lat": 41.3838079, "lon": 2.1773128, "tags": {"addr:city": "Barcelona", "addr:housenumber": "2", "addr:postcode": "08002", "addr:street": "Baixada de Santa Clara", "alt_name": "BuenasMigas Focacceria", "amenity": "cafe", "brand": "Buenas Migas", "brand:wikidata": "Q115258266", "cuisine": "coffee_shop", "diet:gluten_free": "yes", "internet_access": "wlan", "name": "Buenas Migas", "opening_hours": "Mo-Fr 08:00-22:00; Sa-Su 09:00-22:00", "phone": "+34 933 19 13 80", "takeaway": "yes", "website": "http://www.buenasmigas.com"}}, {"type": "node", "id": 2609081753, "lat": 41.392208, "lon": 2.167538, "tags": {"addr:city": "Barcelona", "addr:housenumber": "119", "addr:postcode": "08009", "addr:street": "Carrer de Pau Claris", "amenity": "cafe", "cuisine": "coffee_shop", "old_name": "El Rac\u00f3 de la Moreneta", "outdoor_seating": "yes", "phone": "+34 934882783", "takeaway": "yes"}}, {"type": "node", "id": 2610015274, "lat": 41.384715, "lon": 2.17514, "tags": {"addr:street": "Carrer dels Capellans", "amenity": "cafe", "cuisine": "coffee_shop", "name": "Chocolate Box", "outdoor_seating": "no", "source": "Survey", "takeaway": "yes"}}, {"type": "node", "id": 2618447073, "lat": 41.3802824, "lon": 2.1773136, "tags": {"addr:city": "Barcelona", "addr:housenumber": "42", "addr:postcode": "08002", "addr:street": "Carrer dels Escudellers", "amenity": "cafe", "cuisine": "greek", "diet:vegetarian": "yes", "name": "Dionisos The Quick Greek"}}, {"type": "node", "id": 2718950054, "lat": 41.3847872, "lon": 2.163737, "tags": {"amenity": "cafe", "contact:facebook": "https://www.facebook.com/santoni63bcn/", "diet:vegan": "only", "name": "Santoni", "name:ca": "Santoni", "name:en": "Santoni Vegan Restaurant", "opening_hours": "\"temporarily closed\"", "phone": "+34 935 03 17 43", "takeaway": "yes", "wheelchair": "no"}}, {"type": "node", "id": 2892037114, "lat": 41.3808891, "lon": 2.1702991, "tags": {"amenity": "cafe", "check_date": "2023-04-27", "internet_access": "wlan", "internet_access:fee": "no", "name": "El Jard\u00ed", "name:ca": "El Jard\u00ed", "smoking": "yes"}}, {"type": "node", "id": 2896805784, "lat": 41.3805843, "lon": 2.1658829, "tags": {"amenity": "cafe", "name": "Miniatura caf\u00e9"}}, {"type": "node", "id": 2896807807, "lat": 41.3809698, "lon": 2.1737766, "tags": {"addr:housenumber": "74", "addr:street": "Les Rambles", "amenity": "cafe", "internet_access": "no", "name": "Caf\u00e8 de l'\u00d2pera", "name:ca": "Caf\u00e8 de l'\u00d2pera", "name:en": "Cafe of the Opera", "name:es": "Caf\u00e9 de la \u00d3pera", "name:ru": "\u041a\u0430\u0444\u0435 \u0434\u0435\u043b\u044c \u041e\u043f\u0435\u0440\u0430", "opening_hours": "Mo-Su 08:30-02:30", "smoking": "no", "website": "http://www.cafeoperabcn.com", "wikidata": "Q24341266", "wikimedia_commons": "Category:Caf\u00e8 de l'Opera (Barcelona)", "wikipedia": "ca:Caf\u00e8 de l'\u00d2pera"}}, {"type": "node", "id": 2977289617, "lat": 41.3850931, "lon": 2.1805881, "tags": {"addr:city": "Barcelona", "addr:housenumber": "8", "addr:postcode": "08003", "addr:street": "Carrer de la Barra de Ferro", "amenity": "cafe", "check_date": "2024-07-02", "internet_access": "wlan", "name": "Cafe Bobe"}}, {"type": "node", "id": 2977323469, "lat": 41.3787207, "lon": 2.170759, "tags": {"amenity": "cafe", "name": "La Monroe", "opening_hours": "Su, Tu-Th 12:00-01:00; Fr-Sa 12:00-02:00", "phone": "+34 934 41 94 61", "website": "http://lamonroe.es/"}}, {"type": "node", "id": 2993679006, "lat": 41.3759887, "lon": 2.1600624, "tags": {"amenity": "cafe", "name": "Cafe di Francesco", "toilets:wheelchair": "yes", "wheelchair": "yes"}}, {"type": "node", "id": 3101507332, "lat": 41.3817324, "lon": 2.1615071, "tags": {"addr:city": "Barcelona", "addr:housenumber": "28", "addr:street": "Carrer de Villarroel", "alt_name": "Blat", "amenity": "cafe", "cuisine": "spanish", "internet_access": "wlan", "name": "La Merc\u00e8 de Villarroel"}}, {"type": "node", "id": 3101608391, "lat": 41.3791136, "lon": 2.168269, "tags": {"addr:city": "Barcelona", "addr:street": "Rambla del Raval", "amenity": "cafe", "name": "Bonissim"}}, {"type": "node", "id": 3104844223, "lat": 41.3936635, "lon": 2.1812705, "tags": {"addr:city": "Barcelona", "addr:housenumber": "85", "addr:postcode": "08013", "addr:street": "Carrer de N\u00e0pols", "amenity": "cafe", "internet_access": "wlan", "name": "Bar N\u00e1poles", "smoking": "outside"}}, {"type": "node", "id": 3106792030, "lat": 41.3759828, "lon": 2.1662401, "tags": {"amenity": "cafe", "cuisine": "tapas", "name": "Els germans / The brothers"}}, {"type": "node", "id": 3106792031, "lat": 41.3762006, "lon": 2.166117, "tags": {"amenity": "cafe", "name": "Gran V\u00eda 4", "wheelchair": "limited"}}, {"type": "node", "id": 3215463122, "lat": 41.3769276, "lon": 2.1628669, "tags": {"addr:city": "Barcelona", "addr:housenumber": "39", "addr:postcode": "08015", "addr:street": "Carrer del Parlament", "amenity": "cafe", "check_date": "2024-11-02", "internet_access": "wlan", "internet_access:fee": "no", "name": "Federal Cafe", "opening_hours": "09:00-16:00", "payment:cash": "yes", "payment:credit_cards": "yes", "payment:debit_cards": "yes", "toilets:wheelchair": "no", "website": "https://federalcafe.es/", "wheelchair": "yes"}}, {"type": "node", "id": 3215485997, "lat": 41.382645, "lon": 2.1752356, "tags": {"addr:city": "Barcelona", "addr:housenumber": "11", "addr:postcode": "08002", "addr:street": "Carrer de l'Arc de Sant Ramon del Call", "amenity": "cafe", "cuisine": "coffee_shop", "name": "Right Side Coffee Bar", "name:en": "Right Side Coffee Bar"}}, {"type": "node", "id": 3264228127, "lat": 41.3815774, "lon": 2.1759038, "tags": {"amenity": "cafe", "name": "elFornet"}}, {"type": "node", "id": 3264249209, "lat": 41.3796874, "lon": 2.174911, "tags": {"addr:city": "Barcelona", "addr:housenumber": "2", "addr:postcode": "08002", "addr:street": "Carrer de Colom", "amenity": "cafe", "diet:gluten_free": "yes", "diet:vegan": "yes", "email": "info@artisa.es", "name": "ARTiSA", "opening_hours": "Jun-Nov: Mo-Su 09:00-01:00; Dec-May: Mo-Su 09:00-23:00", "phone": "+34931863623", "website": "https://artisa.es"}}, {"type": "node", "id": 3316542524, "lat": 41.3954324, "lon": 2.186404, "tags": {"addr:city": "Barcelona", "addr:housenumber": "107", "addr:postcode": "08018", "addr:street": "Carrer de la Marina", "amenity": "cafe", "cuisine": "churro", "internet_access": "no", "name": "Churrer\u00eda J. Argil\u00e9s", "opening_hours": "Sa-Su 00:00-24:00; Tu-Fr 08:30-21:30", "phone": "+34 932 32 43 07", "smoking": "yes", "takeaway": "only"}}, {"type": "node", "id": 3339670930, "lat": 41.3803265, "lon": 2.1774842, "tags": {"addr:housenumber": "46", "addr:street": "Carrer dels Escudellers", "amenity": "cafe", "cuisine": "tapas", "indoor_seating": "yes", "name": "Bahia", "name:ca": "Bahia", "outdoor_seating": "no"}}, {"type": "node", "id": 3441524292, "lat": 41.3882179, "lon": 2.1703134, "tags": {"addr:housenumber": "2", "addr:street": "Passeig de Gracia", "amenity": "cafe", "check_date": "2024-06-14", "name": "Farggi", "wheelchair": "yes"}}, {"type": "node", "id": 3564285296, "lat": 41.3935416, "lon": 2.1843499, "tags": {"amenity": "cafe"}}, {"type": "node", "id": 3612047255, "lat": 41.3837923, "lon": 2.1786953, "tags": {"addr:housenumber": "5", "addr:postcode": "08002", "addr:street": "Pla\u00e7a de l'\u00c0ngel", "amenity": "cafe", "internet_access": "wlan", "name": "CappUKccino", "wheelchair": "limited"}}, {"type": "node", "id": 3959515568, "lat": 41.3770991, "lon": 2.1614097, "tags": {"addr:housenumber": "50", "addr:street": "Carrer de Manso", "amenity": "cafe", "name": "Granja Cristall"}}, {"type": "node", "id": 4101996853, "lat": 41.3835968, "lon": 2.1812069, "tags": {"addr:housenumber": "61-63", "addr:street": "Carrer de l'Argenteria", "amenity": "cafe", "cuisine": "american", "name": "Cafe-bar Xador"}}, {"type": "node", "id": 4137531394, "lat": 41.3824721, "lon": 2.1734106, "tags": {"addr:housenumber": "2", "addr:street": "Carrer de Petritxol", "amenity": "cafe", "name": "Granja Dulcinea", "opening_hours": "Mo-Su 09:00-13:00,16:30-20:30", "website": "http://granjadulcinea.com/"}}, {"type": "node", "id": 4137545789, "lat": 41.3905438, "lon": 2.1791837, "tags": {"addr:housenumber": "6", "addr:street": "Passatge de Sant Benet", "amenity": "cafe", "name": "True Artisan Cafe", "opening_hours": "Tu-Fr 09:00-18:00; Sa 10:00-19:00"}}, {"type": "node", "id": 4138815989, "lat": 41.3889108, "lon": 2.1771731, "tags": {"addr:city": "Barcelona", "addr:housenumber": "12", "addr:postcode": "08003", "addr:street": "Passatge de Sert", "amenity": "cafe", "internet_access": "no", "name": "N\u00f8mad C\u00f8ffee", "opening_hours": "Mo-Fr 08:30-17:30", "outdoor_seating": "no", "phone": "+34 628 56 62 35", "source": "http://nomadcoffee.es/contacto/", "website": "https://nomadcoffee.es/"}}, {"type": "node", "id": 4189753793, "lat": 41.3931667, "lon": 2.1704917, "tags": {"amenity": "cafe", "name": "crois\u2018", "old_name": "ingredients cafe"}}, {"type": "node", "id": 4210487190, "lat": 41.3917462, "lon": 2.1771975, "tags": {"addr:city": "Barcelona", "addr:housenumber": "11", "addr:postcode": "08010", "addr:street": "Carrer de Bail\u00e8n", "amenity": "cafe", "cuisine": "sandwich;coffee_shop", "internet_access": "wlan", "leisure": "hackerspace", "name": "FabCafe Barcelona", "opening_hours": "Mo-Fr 09:30-20:00; Sa 10:00-14:00", "website": "https://www.fabcafe.com/barcelona/fab/"}}, {"type": "node", "id": 4215643189, "lat": 41.3857566, "lon": 2.1783217, "tags": {"amenity": "cafe", "name": "Blau", "name:ca": "Blau"}}, {"type": "node", "id": 4233959493, "lat": 41.3795042, "lon": 2.1792309, "tags": {"addr:housenumber": "15", "addr:postcode": "08002", "addr:street": "Carrer Ample", "amenity": "cafe", "indoor_seating": "yes", "internet_access": "wlan", "name": "Pastisseria Granja", "name:ca": "Pastisseria Granja", "outdoor_seating": "yes"}}, {"type": "node", "id": 4236018213, "lat": 41.3941891, "lon": 2.1758677, "tags": {"addr:city": "Barcelona", "addr:housenumber": "4", "addr:postcode": "08010", "addr:street": "Pla\u00e7a de Tetuan", "amenity": "cafe", "check_date": "2025-02-19", "name": "Coco"}}, {"type": "node", "id": 4253851490, "lat": 41.3937976, "lon": 2.1655309, "tags": {"addr:housenumber": "143", "addr:postcode": "08009", "addr:street": "Carrer de Pau Claris", "amenity": "cafe", "check_date": "2024-05-27", "diet:vegetarian": "yes", "name": "El Trencad\u00eds", "outdoor_seating": "yes"}}, {"type": "node", "id": 4253862889, "lat": 41.3912547, "lon": 2.1611975, "tags": {"addr:housenumber": "227", "addr:street": "Carrer de Val\u00e8ncia", "air_conditioning": "yes", "amenity": "cafe", "diet:vegan": "yes", "diet:vegetarian": "yes", "indoor_seating": "yes", "name": "Hummus", "outdoor_seating": "yes", "wheelchair": "no"}}, {"type": "node", "id": 4254694967, "lat": 41.3918333, "lon": 2.1838687, "tags": {"amenity": "cafe", "name": "Espresso"}}, {"type": "node", "id": 4254710503, "lat": 41.3931457, "lon": 2.1753569, "tags": {"amenity": "cafe", "name": "La Llesca de Bail\u00e9n"}}, {"type": "node", "id": 4278033120, "lat": 41.3838044, "lon": 2.1696233, "tags": {"addr:city": "Barcelona", "addr:housenumber": "6", "addr:postcode": "08001", "addr:street": "Pla\u00e7a del Bonsucc\u00e9s", "amenity": "cafe", "brand": "Buenas Migas", "brand:wikidata": "Q115258266", "cuisine": "coffee_shop", "diet:gluten_free": "yes", "diet:vegan": "yes", "diet:vegetarian": "yes", "indoor_seating": "yes", "internet_access": "wlan", "name": "Buenas Migas", "opening_hours": "Mo-Fr 08:00-00:00; Sa-Su 08:00-01:00", "outdoor_seating": "yes", "phone": "+34 933 18 37 08", "smoking": "outside", "takeaway": "yes", "website": "http://www.buenasmigas.com", "wheelchair": "no"}}, {"type": "node", "id": 4278204689, "lat": 41.3887421, "lon": 2.1806512, "tags": {"addr:housenumber": "23", "addr:street": "Carrer del Portal Nou", "amenity": "cafe", "name": "Pony Cafe"}}, {"type": "node", "id": 4287113497, "lat": 41.3798361, "lon": 2.1762245, "tags": {"amenity": "cafe", "name": "Via a Barcelona"}}, {"type": "node", "id": 4315715194, "lat": 41.3859198, "lon": 2.1678956, "tags": {"addr:city": "Barcelona", "addr:housenumber": "2", "addr:postcode": "08002", "addr:street": "Carrer de Bergara", "amenity": "cafe", "contact:instagram": "https://www.instagram.com/laesquinabcn/", "email": "bar@laesquinabarcelona.com", "name": "La Esquina", "opening_hours": "Tu-Sa 09:00-00:00", "phone": "+34937687242", "website": "laesquinabarcelona.com"}}, {"type": "node", "id": 4319328292, "lat": 41.3842189, "lon": 2.1693908, "tags": {"addr:housenumber": "5", "addr:postcode": "08001", "addr:street": "Pla\u00e7a de Vicen\u00e7 Martorell", "amenity": "cafe", "name": "Bros bar", "name:ca": "Bros bar", "opening_hours": "Mo-Su 13:00-23:30"}}, {"type": "node", "id": 4329228551, "lat": 41.3920883, "lon": 2.1857854, "tags": {"addr:city": "Barcelona", "addr:housenumber": "17", "addr:postcode": "08018", "addr:street": "Carrer de Wellington", "amenity": "cafe", "cuisine": "brazilian", "name": "Bar Santa F\u00e9", "opening_hours": "Mo-Fr 07:30-17:00"}}, {"type": "node", "id": 4349925690, "lat": 41.3810051, "lon": 2.1772158, "tags": {"addr:housenumber": "1", "addr:postcode": "08002", "addr:street": "Carrer de Cervantes", "amenity": "cafe", "name": "Nemrut"}}, {"type": "node", "id": 4364289794, "lat": 41.3915836, "lon": 2.1650592, "tags": {"addr:city": "Barcelona", "addr:housenumber": "41", "addr:postcode": "08007", "addr:street": "Passeig de Gr\u00e0cia", "amenity": "cafe", "check_date": "2024-05-27", "name": "Faborit Casa Amatller", "opening_hours": "Mo-Fr 08:00-22:00; Sa, Su, PH 08:30-22:00", "outdoor_seating": "yes", "phone": "+34 934 673 643", "source": "http://www.faborit.com/establecimientos-faborit/faborit-casa-amatller/", "toilets": "yes", "toilets:access": "yes", "website": "https://www.faborit.com/", "wheelchair": "limited"}}, {"type": "node", "id": 4402777409, "lat": 41.3913246, "lon": 2.1753392, "tags": {"amenity": "cafe", "name": "Novela", "name:es": "Novela"}}, {"type": "node", "id": 4406481491, "lat": 41.3956338, "lon": 2.1787907, "tags": {"addr:housenumber": "125", "addr:street": "Carrer de N\u00e0pols", "amenity": "cafe", "name": "El Sol", "name:ca": "El Sol", "name:es": "El Sol", "opening_hours": "Mo-Fr 06:00-21:00; Sa 07:00-21:00; Su 08:00-18:00", "phone": "+34 932440867"}}, {"type": "node", "id": 4406877198, "lat": 41.3918994, "lon": 2.1841805, "tags": {"addr:housenumber": "29", "addr:street": "Carrer de N\u00e0pols", "amenity": "cafe", "name": "Unic", "name:es": "Unic"}}, {"type": "node", "id": 4407190089, "lat": 41.3945093, "lon": 2.1803997, "tags": {"addr:housenumber": "103", "addr:street": "Carrer de N\u00e0pols", "amenity": "cafe", "internet_access": "wlan", "name": "Cal Manel", "name:ca": "Cal Manel", "name:es": "Cal Manel", "opening_hours": "Mo-Fr 06:30-01:30; Sa-Su 08:00-01:30"}}, {"type": "node", "id": 4446086989, "lat": 41.3910663, "lon": 2.1713654, "tags": {"addr:city": "Barcelona", "addr:housenumber": "23", "addr:postcode": "08002", "addr:street": "Carrer de Roger de Ll\u00faria", "air_conditioning": "yes", "amenity": "cafe", "contact:facebook": "https://www.facebook.com/alsurcafe/", "contact:instagram": "https://www.instagram.com/alsurcafe/", "cuisine": "brunch", "internet_access": "yes", "name": "Alsur Caf\u00e9", "name:es": "Alsur Caf\u00e9 (Lluria)", "opening_hours": "Mo-Su 08:30-23:00", "phone": "+34 936241577", "website": "https://www.alsurcafe.com/lluria.html", "website:menu": "http://www.alsurcafe.com/menuesp.pdf", "wikidata": "Q53673342"}}, {"type": "node", "id": 4449149166, "lat": 41.3853698, "lon": 2.1606738, "tags": {"amenity": "cafe", "name": "Vivari", "name:ca": "Vivari", "opening_hours": "Mo-Su 07:00-22:00"}}, {"type": "node", "id": 4449185678, "lat": 41.3908733, "lon": 2.1652201, "tags": {"addr:city": "Barcelona", "addr:housenumber": "347", "addr:street": "Carrer del Consell de Cent", "amenity": "cafe", "indoor_seating": "yes", "name": "Il Caff\u00e8 di Francesco", "opening_hours": "Mo-Su,PH 07:00-23:00", "outdoor_seating": "yes"}}, {"type": "node", "id": 4511513890, "lat": 41.3787095, "lon": 2.177738, "tags": {"amenity": "cafe", "name:en": "Remedy"}}, {"type": "node", "id": 4572063790, "lat": 41.3744652, "lon": 2.1675541, "tags": {"addr:city": "Barcelona", "addr:housenumber": "97", "addr:postcode": "08004", "addr:street": "Carrer de Vila i Vil\u00e0", "air_conditioning": "yes", "amenity": "cafe", "internet_access": "wlan", "internet_access:fee": "no", "name": "Cafeter\u00eda 365", "opening_hours": "Mo-Su 06:00-22:00", "outdoor_seating": "yes", "phone": "+34 934433567", "website": "https://365obrador.com/"}}, {"type": "node", "id": 4602957463, "lat": 41.3861633, "lon": 2.1813225, "tags": {"addr:city": "Barcelona", "addr:housenumber": "41", "addr:postcode": "08003", "addr:street": "Carrer de la Princesa", "amenity": "cafe", "cuisine": "japanese", "description": "Homemade Japanese Sweets Collection snacks from Japan Vintage Japanese Fair", "internet_access": "no", "name": "Otafuku Daifuku", "opening_hours": "16:00-19:00", "outdoor_seating": "no"}}, {"type": "node", "id": 4607906137, "lat": 41.3870833, "lon": 2.1776131, "tags": {"amenity": "cafe", "name": "Sanz Bar"}}, {"type": "node", "id": 4609305114, "lat": 41.3816911, "lon": 2.1632563, "tags": {"amenity": "cafe", "cuisine": "tapas;coffee_shop;tea", "name": "El Cafet\u00f3", "name:es": "El Cafet\u00f3", "wheelchair": "no"}}, {"type": "node", "id": 4653437389, "lat": 41.3783455, "lon": 2.1632846, "tags": {"amenity": "cafe", "name": "365", "name:es": "Cervecer\u00eda La Sure\u00f1a"}}, {"type": "node", "id": 4659788094, "lat": 41.377507, "lon": 2.1643891, "tags": {"amenity": "cafe", "name": "365.cafe", "name:ca": "365.cafe", "wheelchair": "yes"}}, {"type": "node", "id": 4661185289, "lat": 41.3756619, "lon": 2.1668052, "tags": {"amenity": "cafe", "name": "El Cafet\u00f3", "name:ca": "El Cafet\u00f3"}}, {"type": "node", "id": 4661185489, "lat": 41.375417, "lon": 2.1671228, "tags": {"amenity": "cafe", "name": "Sirvent", "name:ca": "Sirvent"}}, {"type": "node", "id": 4681801089, "lat": 41.3863413, "lon": 2.1622578, "tags": {"amenity": "cafe", "name": "Orxateria la Valenciana", "name:ca": "Orxateria la Valenciana", "wheelchair": "yes"}}, {"type": "node", "id": 4684942589, "lat": 41.3857331, "lon": 2.1611042, "tags": {"amenity": "cafe", "name": "Orxateria la Valenciana", "name:ca": "Orxateria la Valenciana"}}, {"type": "node", "id": 4707021792, "lat": 41.3844065, "lon": 2.1645945, "tags": {"addr:city": "Barcelona", "addr:housenumber": "7", "addr:postcode": "08001", "addr:street": "Carrer de Torres i Amat", "amenity": "cafe", "name": "Forn Mistral", "name:ca": "Forn Mistral", "opening_hours": "Mo-Sa 07:30-14:30,16:30-20:30", "phone": "93 301 80 37", "website": "https://fornmistral.com/", "wheelchair": "yes"}}, {"type": "node", "id": 4723020790, "lat": 41.383406, "lon": 2.1712564, "tags": {"amenity": "cafe", "brand": "Starbucks", "brand:wikidata": "Q37158", "brand:wikipedia": "en:Starbucks", "cuisine": "coffee_shop", "diet:gluten_free": "yes", "internet_access": "wlan", "name": "Starbucks", "name:ca": "Starbucks", "name:en": "Starbucks", "name:es": "Starbucks", "name:tr": "Starbucks", "official_name": "Starbucks Coffee", "payment:american_express": "yes", "payment:mastercard": "yes", "payment:visa": "yes", "takeaway": "yes", "toilets": "yes", "toilets:wheelchair": "yes", "wheelchair": "yes"}}, {"type": "node", "id": 4725705890, "lat": 41.3747658, "lon": 2.1652211, "tags": {"air_conditioning": "yes", "amenity": "cafe", "cuisine": "coffee_shop", "diet:halal": "no", "name": "Atenea"}}, {"type": "node", "id": 4725707290, "lat": 41.3747813, "lon": 2.1645505, "tags": {"amenity": "cafe"}}, {"type": "node", "id": 4726582894, "lat": 41.3862071, "lon": 2.1793039, "tags": {"amenity": "cafe", "indoor_seating": "yes", "name": "Catalina Cafe", "name:es": "Catalina Cafe", "outdoor_seating": "yes"}}, {"type": "node", "id": 4726583199, "lat": 41.3866625, "lon": 2.178509, "tags": {"amenity": "cafe", "name": "Vivari", "name:ca": "Vivari", "opening_hours": "PH,Mo-Su 09:00-22:00"}}, {"type": "node", "id": 4729539590, "lat": 41.3828733, "lon": 2.175566, "tags": {"addr:housenumber": "12", "addr:postcode": "08002", "addr:street": "Carrer de Salom\u00f3 ben Adret", "amenity": "cafe", "cuisine": "tea", "email": "info@cajchai.com", "level": "0", "name": "Caj Chai", "name:ca": "\u010caj Chai", "name:en": "\u010caj Chai", "name:es": "\u010caj Chai", "opening_hours": "Mo-Su 15:00-20:00 \"off during reservations (see website)\"", "phone": "+34 93 301 9592", "website": "https://cajchai.com"}}, {"type": "node", "id": 4734317057, "lat": 41.377864, "lon": 2.1737963, "tags": {"addr:housenumber": "10", "addr:postcode": "08001", "addr:street": "Carrer de la Gu\u00e0rdia", "amenity": "cafe", "email": "info@miscelanea.info", "name": "Miscel\u00e1nea", "name:ca": "Miscel\u00e1nea", "name:en": "Miscel\u00e1nea", "name:es": "Miscel\u00e1nea", "website": "https://www.miscelanea.info/"}}, {"type": "node", "id": 4776595221, "lat": 41.383148, "lon": 2.1639249, "tags": {"amenity": "cafe", "internet_access": "wlan", "name": "365", "name:ca": "365", "name:es": "365", "opening_hours": "Mo-Su 06:00-22:00", "wheelchair": "yes"}}, {"type": "node", "id": 4784670742, "lat": 41.3874831, "lon": 2.1626443, "tags": {"addr:city": "Barcelona", "addr:housenumber": "3", "addr:postcode": "08007", "addr:street": "Carrer d'Enric Granados", "amenity": "cafe", "brand:wikidata": "Q5174239", "brand:wikipedia": "en:Cosmo (restaurant)", "check_date": "2024-12-01", "cuisine": "brunch", "name": "\u00cdndigo Caf\u00e9", "opening_hours": "Mo-Fr 08:30-18:30; Sa,Su 10:00-18:30", "outdoor_seating": "yes", "payment:cash": "yes", "payment:credit_cards": "yes", "payment:debit_cards": "yes"}}, {"type": "node", "id": 4784735321, "lat": 41.3788852, "lon": 2.1714093, "tags": {"amenity": "cafe", "name": "49 robadors", "name:es": "49 robadors"}}, {"type": "node", "id": 4792715522, "lat": 41.3815145, "lon": 2.1804022, "tags": {"addr:housenumber": "12", "addr:postcode": "08002", "addr:street": "Carrer de l'Hostal d'en Sol", "amenity": "cafe", "name": "Caf\u00e8 Caracas", "name:ca": "Caf\u00e8 Caracas", "name:en": "Cafe Caracas", "name:es": "Caf\u00e9 Caracas"}}, {"type": "node", "id": 4805335780, "lat": 41.3812162, "lon": 2.1671279, "tags": {"addr:housenumber": "17B", "addr:street": "Carrer del Peu de la Creu", "amenity": "cafe", "name": "Madonna Vegan", "outdoor_seating": "yes"}}, {"type": "node", "id": 4833189827, "lat": 41.3824551, "lon": 2.1777699, "tags": {"addr:housenumber": "5", "addr:postcode": "08002", "addr:street": "Carrer de la Ciutat", "amenity": "cafe", "cuisine": "coffee_shop", "internet_access": "wlan", "name": "Black remedy", "name:ca": "Black Remedy", "name:de": "Black Remedy", "name:en": "Black Remedy", "name:es": "Black Remedy", "opening_hours": "Mo-Fr 09:00-19:00; Sa-Su 10:00-19:00", "phone": "+34 934 61 92 12", "website": "http://blackremedy.com"}}, {"type": "node", "id": 4835800021, "lat": 41.3827592, "lon": 2.1824616, "tags": {"addr:housenumber": "47", "addr:postcode": "08003", "addr:street": "Carrer del Consolat de Mar", "amenity": "cafe", "name": "Hidden Coffee BCN"}}, {"type": "node", "id": 4893836321, "lat": 41.3851443, "lon": 2.1835937, "tags": {"addr:housenumber": "10", "addr:street": "Pla\u00e7a Comercial", "amenity": "cafe", "name": "Caf\u00e9 del Born"}}, {"type": "node", "id": 4895213160, "lat": 41.3836098, "lon": 2.1651917, "tags": {"addr:street": "Carrer de Valldonzella", "amenity": "cafe", "description": "Specialty coffee", "name": "Lodetto"}}, {"type": "node", "id": 4901562521, "lat": 41.3937577, "lon": 2.1667187, "tags": {"amenity": "cafe", "cuisine": "coffee_shop", "email": "hello@wer-haus.com", "name": "WER-HAUS", "name:en": "WER-HAUS", "opening_hours": "Mo, We-Fr 10:00-20:00; Sa-Su 11:00-19:00", "phone": "+34 935 15 02 98", "website": "https://wer-haus.com/"}}, {"type": "node", "id": 4905659576, "lat": 41.3810926, "lon": 2.1669733, "tags": {"addr:city": "Barcelona", "addr:housenumber": "19", "addr:postcode": "08001", "addr:street": "Carrer del Peu de la Creu", "amenity": "cafe", "contact:facebook": "https://www.facebook.com/moozensmoothies", "cuisine": "juice;smoothie", "diet:vegan": "yes", "diet:vegetarian": "only", "name": "Moozen Smoothies", "opening_hours": "Mo-Sa 10:00-21:00; Su 14:00-18:00", "phone": "+34 657 07 14 60"}}, {"type": "node", "id": 4920826921, "lat": 41.3837802, "lon": 2.1695665, "tags": {"addr:housenumber": "5", "addr:street": "Pla\u00e7a del Bonsucc\u00e9s", "amenity": "cafe", "name": "Saula", "name:es": "Saula"}}, {"type": "node", "id": 4973805121, "lat": 41.3871399, "lon": 2.1753762, "tags": {"addr:housenumber": "4", "addr:street": "Carrer de Sant Pere M\u00e9s Alt", "amenity": "cafe", "name": "Alsur Caf\u00e9 (Palau)", "name:es": "Alsur Caf\u00e9 (Palau)", "website": "http://www.alsurcafe.com"}}, {"type": "node", "id": 4973805122, "lat": 41.3864967, "lon": 2.1800947, "tags": {"addr:housenumber": "1", "addr:postcode": "08003", "addr:street": "Pla\u00e7a de Sant Cugat", "amenity": "cafe", "email": "elborn@alsurcafe.com", "name": "Alsur Caf\u00e9 (El Born)", "name:es": "Alsur Caf\u00e9 (El Born)", "opening_hours": "Mo-Tu 11:15-00:30; We 11:15-01:30; Fr 11:15-02:30; Sa 10:00-02:30; Su 10:00-00:30", "phone": "+34 931 825 407", "website": "http://www.alsurcafe.com/born.html"}}, {"type": "node", "id": 4973805221, "lat": 41.3809714, "lon": 2.1872568, "tags": {"addr:housenumber": "5", "addr:street": "Passeig de Joan de Borb\u00f3", "amenity": "cafe", "name": "Brunch & Cake by the sea", "name:es": "Brunch & Cake by the sea", "outdoor_seating": "yes", "website": "https://brunchandcake.com"}}, {"type": "node", "id": 5000957821, "lat": 41.3863947, "lon": 2.1756977, "tags": {"addr:housenumber": "46", "addr:postcode": "08003", "addr:street": "Via Laietana", "amenity": "cafe", "cuisine": "churro;regional", "name": "Churrer\u00eda Laietana", "name:en": "Churrer\u00eda Laietana", "name:es": "Churrer\u00eda Laietana", "opening_hours": "Mo-Fr 07:00-13:00; Su 08:00-13:30", "phone": "+34 932 681 263"}}, {"type": "node", "id": 5010794822, "lat": 41.382095, "lon": 2.1664306, "tags": {"addr:housenumber": "26", "addr:postcode": "08001", "addr:street": "Carrer de Joaqu\u00edn Costa", "amenity": "cafe", "contact:facebook": "nomadcoffeeproductions", "contact:instagram": "nomadcoffee", "email": "info@nomadcoffee.es", "name:en": "N\u00f8mad Every Day", "opening_hours": "Mo-Fr 08:30-18:30; Sa-Su 10:00-19:00", "phone": "+34628566235", "website": "https://nomadcoffee.es/"}}, {"type": "node", "id": 5074876021, "lat": 41.3828156, "lon": 2.1729085, "tags": {"addr:housenumber": "9", "addr:street": "Carrer de Petritxol", "amenity": "cafe", "internet_access": "wlan", "name": "El Pintxo de Petritxol", "name:ca": "El Pintxo de Petritxol"}}, {"type": "node", "id": 5111399721, "lat": 41.3818462, "lon": 2.1632223, "tags": {"amenity": "cafe", "name": "SandwiChez", "name:ca": "SandwiChez", "toilets:wheelchair": "no", "wheelchair": "yes"}}, {"type": "node", "id": 5111789522, "lat": 41.3815489, "lon": 2.1632268, "tags": {"amenity": "cafe", "name": "365", "name:ca": "365", "toilets:wheelchair": "yes", "wheelchair": "yes"}}, {"type": "node", "id": 5111804421, "lat": 41.3852245, "lon": 2.1633443, "tags": {"addr:city": "Barcelona", "addr:housenumber": "1", "addr:postcode": "08007", "addr:street": "Pla\u00e7a de la Universitat", "amenity": "cafe", "brand": "Buenas Migas", "brand:wikidata": "Q115258266", "cuisine": "coffee_shop", "diet:gluten_free": "yes", "internet_access": "yes", "name": "Buenas Migas", "name:ca": "Buenas Migas", "opening_hours": "Mo-Su 08:00-23:00", "phone": "+34 936 89 36 54", "takeaway": "yes", "toilets:wheelchair": "yes", "website": "http://www.buenasmigas.com/", "wheelchair": "limited"}}, {"type": "node", "id": 5125990640, "lat": 41.3851384, "lon": 2.1645396, "tags": {"amenity": "cafe", "name": "Cup&Cake", "name:ca": "Cup & Cake", "shop": "bakery"}}, {"type": "node", "id": 5130143521, "lat": 41.3775591, "lon": 2.1726004, "tags": {"addr:housenumber": "48", "addr:street": "Carrer Nou de la Rambla", "amenity": "cafe", "contact:phone": "+34 673338983", "cuisine": "breakfast", "internet_access": "wlan", "name": "365 Cafe", "opening_hours": "Mo-Su 06:00-22:00"}}, {"type": "node", "id": 5135507430, "lat": 41.3922454, "lon": 2.1771333, "tags": {"addr:city": "Barcelona", "addr:housenumber": "14", "addr:postcode": "08010", "addr:street": "Carrer de Bail\u00e8n", "amenity": "cafe", "name": "Noah's Coffee"}}, {"type": "node", "id": 5152324668, "lat": 41.3804667, "lon": 2.1778401, "tags": {"addr:city": "Barcelona", "addr:housenumber": "56", "addr:postcode": "08002", "addr:street": "Carrer dels Escudellers", "amenity": "cafe", "contact:facebook": "https://www.facebook.com/karlitosbcn", "cuisine": "juice;smoothie;coffee", "diet:vegan": "yes", "name": "Karlito's", "opening_hours": "Tu-Su 10:00-20:00", "phone": "+34 674 81 90 87", "takeaway": "yes"}}, {"type": "node", "id": 5156690121, "lat": 41.3808484, "lon": 2.1631595, "tags": {"amenity": "cafe", "internet_access": "wlan", "name": "El Taller", "name:ca": "El Taller", "toilets:wheelchair": "yes", "wheelchair": "yes"}}, {"type": "node", "id": 5156690122, "lat": 41.3811145, "lon": 2.1632083, "tags": {"amenity": "cafe", "internet_access": "wlan", "name": "Pans House", "name:ca": "Pans House"}}, {"type": "node", "id": 5164632021, "lat": 41.3951504, "lon": 2.1595718, "tags": {"addr:housenumber": "253", "addr:street": "Carrer del Rossell\u00f3", "amenity": "cafe", "internet_access": "wlan", "name": "Forn de pa Bold\u00fa", "name:ca": "Forn de pa Bold\u00fa"}}, {"type": "node", "id": 5164633721, "lat": 41.3933424, "lon": 2.1594368, "tags": {"addr:housenumber": "233", "addr:street": "Carrer de Proven\u00e7a", "amenity": "cafe", "name": "Forn de pa Bold\u00fa", "name:ca": "Forn de pa Bold\u00fa"}}, {"type": "node", "id": 5164994021, "lat": 41.3916668, "lon": 2.164503, "tags": {"addr:housenumber": "274-276", "addr:postcode": "08007", "addr:street": "Carrer d'Arag\u00f3", "amenity": "cafe", "name:en": "MUSSOL", "website": "http://www.mussolrestaurant.cat"}}, {"type": "node", "id": 5167175058, "lat": 41.3807177, "lon": 2.1601937, "tags": {"amenity": "cafe", "name": "Bracaf\u00e9", "name:ca": "Bracaf\u00e9", "toilets:wheelchair": "no", "website": "https://bracafe.com/", "wheelchair": "limited"}}, {"type": "node", "id": 5167183040, "lat": 41.3803107, "lon": 2.1647886, "tags": {"amenity": "cafe", "name": "365", "name:ca": "365"}}, {"type": "node", "id": 5167185733, "lat": 41.3806502, "lon": 2.1611889, "tags": {"addr:housenumber": "115", "addr:street": "Carrer de Floridablanca", "air_conditioning": "yes", "amenity": "cafe", "contact:phone": "+34 932920330", "indoor_seating": "yes", "name": "La Sucursal", "opening_hours": "Mo-Su 10:30-00:00", "outdoor_seating": "yes", "wheelchair": "yes"}}, {"type": "node", "id": 5167302824, "lat": 41.3913943, "lon": 2.1618455, "tags": {"amenity": "cafe", "check_date:opening_hours": "2023-04-05", "name": "Granja Val\u00e8ncia", "name:ca": "Granja Val\u00e8ncia", "opening_hours:signed": "no"}}, {"type": "node", "id": 5167311823, "lat": 41.3938999, "lon": 2.1651278, "tags": {"addr:housenumber": "145", "addr:postcode": "08007", "addr:street": "Carrer de Pau Claris", "amenity": "cafe", "diet:vegetarian": "yes", "name": "\u00c9picerie", "name:ca": "\u00c9picerie", "wheelchair": "limited"}}, {"type": "node", "id": 5168232623, "lat": 41.3825115, "lon": 2.1766198, "tags": {"addr:housenumber": "3", "addr:postcode": "08002", "addr:street": "Pla\u00e7a de Sant Jaume", "amenity": "cafe", "brand": "Starbucks", "brand:wikidata": "Q37158", "check_date": "2023-10-29", "cuisine": "coffee_shop", "diet:gluten_free": "yes", "name": "Starbucks", "name:ca": "Starbucks", "official_name": "Starbucks Coffee", "takeaway": "yes"}}, {"type": "node", "id": 5198200827, "lat": 41.3950674, "lon": 2.1712309, "tags": {"amenity": "cafe", "check_date": "2024-10-19", "name": "Bar Funicular", "name:ca": "Bar Funicular", "opening_hours:signed": "no"}}, {"type": "node", "id": 5198200832, "lat": 41.393587, "lon": 2.1687413, "tags": {"amenity": "cafe", "check_date": "2024-01-18", "name": "Aromes Cafe & Lounge", "name:ca": "Aromes Cafe & Lounge"}}, {"type": "node", "id": 5198200929, "lat": 41.3950141, "lon": 2.1667336, "tags": {"amenity": "cafe", "name": "Saint Honor\u00e9", "name:ca": "Saint Honor\u00e9"}}, {"type": "node", "id": 5198201025, "lat": 41.3923646, "lon": 2.1700923, "tags": {"amenity": "cafe", "check_date": "2024-03-06", "name": "Bow Sandwich Bar", "name:ca": "Bow Sandwich Bar"}}, {"type": "node", "id": 5198201026, "lat": 41.3925114, "lon": 2.1700923, "tags": {"amenity": "cafe", "name": "Cafeliz", "name:ca": "Cafeliz", "phone": "+34930238863"}}, {"type": "node", "id": 5198201125, "lat": 41.3930642, "lon": 2.1691649, "tags": {"addr:street": "Carrer de Roger de Ll\u00faria", "amenity": "cafe", "check_date": "2024-03-06", "name": "El Fornet", "name:ca": "El Fornet"}}, {"type": "node", "id": 5198201321, "lat": 41.3943609, "lon": 2.1670678, "tags": {"amenity": "cafe", "name": "Granja Brussel\u00b7les", "name:ca": "Granja Brussel\u00b7les"}}, {"type": "node", "id": 5200163226, "lat": 41.3861093, "lon": 2.1671854, "tags": {"addr:housenumber": "4", "addr:postcode": "08007", "addr:street": "Carrer de Balmes", "amenity": "cafe", "check_date": "2024-03-02", "internet_access": "wlan", "name": "Florida", "name:ca": "Florida", "name:es": "Cafeteria Florida", "opening_hours": "Tu-Su 06:30-00:00; Mo 06:30-23:00"}}, {"type": "node", "id": 5203956424, "lat": 41.3848621, "lon": 2.166981, "tags": {"addr:street": "Carrer dels Tallers", "amenity": "cafe", "indoor_seating": "yes", "internet_access": "wlan", "name": "365", "name:ca": "365", "opening_hours:signed": "no", "outdoor_seating": "no", "wheelchair": "yes"}}, {"type": "node", "id": 5203956425, "lat": 41.3850958, "lon": 2.1659573, "tags": {"addr:street": "Carrer dels Tallers", "amenity": "cafe", "name": "Breik", "name:ca": "Breik"}}, {"type": "node", "id": 5203976022, "lat": 41.3849013, "lon": 2.1675981, "tags": {"addr:street": "Carrer dels Tallers", "amenity": "cafe", "name": "La Llibert\u00e0ria", "name:ca": "La Llibert\u00e0ria"}}, {"type": "node", "id": 5204027792, "lat": 41.3816417, "lon": 2.1788555, "tags": {"addr:city": "Barcelona", "addr:housenumber": "2", "addr:postcode": "08002", "addr:street": "Pla\u00e7a del Regomir", "amenity": "cafe", "contact:facebook": "https://www.facebook.com/elfuiterdelgotic", "cuisine": "smoothies;juice", "diet:vegan": "yes", "name": "El Fruiter del Gotic", "opening_hours": "Mo-Sa 09:00-21:00; Su closed", "phone": "+34 687 45 96 72", "takeaway": "yes"}}, {"type": "node", "id": 5207046925, "lat": 41.3843558, "lon": 2.1622563, "tags": {"addr:street": "Carrer de Muntaner", "amenity": "cafe", "bar": "yes", "check_date": "2024-01-14", "cuisine": "burger;regional", "name": "Sense Nom", "name:ca": "Sense Nom", "outdoor_seating": "yes", "payment:cash": "yes", "payment:mastercard": "yes", "payment:visa": "yes"}}, {"type": "node", "id": 5207076722, "lat": 41.3843541, "lon": 2.1621253, "tags": {"amenity": "cafe", "name": "Dor\u00e9", "name:ca": "Dor\u00e9"}}, {"type": "node", "id": 5207460122, "lat": 41.3880522, "lon": 2.1668825, "tags": {"addr:street": "Gran Via de les Corts Catalanes (lateral mar)", "amenity": "cafe", "name": "Otto Stylt", "name:ca": "Otto Stylt", "wheelchair": "no"}}, {"type": "node", "id": 5235654922, "lat": 41.3862324, "lon": 2.1759654, "tags": {"amenity": "cafe", "name": "Cappukccino", "name:ca": "Cappukccino", "opening_hours:signed": "no"}}, {"type": "node", "id": 5236478924, "lat": 41.393722, "lon": 2.1656331, "tags": {"addr:housenumber": "141", "addr:postcode": "08009", "addr:street": "Carrer de Pau Claris", "amenity": "cafe", "check_date": "2024-05-27", "name": "Afecte", "name:ca": "Forn de Pa", "outdoor_seating": "yes"}}, {"type": "node", "id": 5237627856, "lat": 41.3909254, "lon": 2.1784375, "tags": {"addr:city": "Barcelona", "addr:housenumber": "64", "addr:postcode": "08010", "addr:street": "Ronda de Sant Pere", "amenity": "cafe", "cuisine": "dessert;chinese", "name": "Tasmango Dessert", "outdoor_seating": "no", "phone": "+34932529573"}}, {"type": "node", "id": 5247181321, "lat": 41.3824523, "lon": 2.1602296, "tags": {"amenity": "cafe", "name": "els \u00c0ngels", "name:ca": "els \u00c0ngels"}}, {"type": "node", "id": 5299774224, "lat": 41.3932673, "lon": 2.1682627, "tags": {"amenity": "cafe", "name:en": "Marti Cafe & Bakery"}}, {"type": "node", "id": 5306392304, "lat": 41.3796155, "lon": 2.168349, "tags": {"amenity": "cafe"}}, {"type": "node", "id": 5313632423, "lat": 41.3789307, "lon": 2.1718613, "tags": {"addr:housenumber": "52", "addr:postcode": "08001", "addr:street": "Carrer de Sant Pau", "air_conditioning": "yes", "amenity": "cafe", "indoor_seating": "yes", "internet_access": "wlan", "name": "365", "name:ca": "365", "outdoor_seating": "no", "phone": "+34 661658527", "smoking": "no"}}, {"type": "node", "id": 5314864021, "lat": 41.3821336, "lon": 2.1735146, "tags": {"addr:street": "Carrer del Cardenal Casa\u00f1as", "amenity": "cafe", "check_date": "2023-04-27", "name": "Forns del Pi", "name:ca": "Forns del Pi"}}, {"type": "node", "id": 5322028934, "lat": 41.3866475, "lon": 2.1750066, "tags": {"amenity": "cafe", "name": "Bloome"}}, {"type": "node", "id": 5420663621, "lat": 41.3898132, "lon": 2.1638114, "tags": {"addr:postcode": "08007", "amenity": "cafe", "brand": "CoCo", "brand:wikidata": "Q65084369", "cuisine": "bubble_tea", "name": "CoCo Fresh Tea & Juice", "opening_hours": "Mo-Su 11:30-23:00", "shop": "tea", "short_name": "CoCo", "takeaway": "yes"}}, {"type": "node", "id": 5428966624, "lat": 41.3863718, "lon": 2.1653635, "tags": {"amenity": "cafe", "cuisine": "sandwich;donut;breakfast", "internet_access": "wlan", "name": "365 - Pa, caf\u00e8s, \u00e0pats", "opening_hours": "Mo-Su 06:00-22:00"}}, {"type": "node", "id": 5445364122, "lat": 41.385128, "lon": 2.1713506, "tags": {"addr:housenumber": "10", "addr:street": "Carrer de Santa Anna", "amenity": "cafe", "cuisine": "breakfast;coffee_shop;local", "name": "el Cafet\u00f3", "name:en": "el Cafeto"}}, {"type": "node", "id": 5498351755, "lat": 41.3747778, "lon": 2.1626826, "tags": {"addr:housenumber": "105", "addr:street": "Avinguda del Paral\u00b7lel", "amenity": "cafe", "check_date": "2023-04-26", "indoor_seating": "yes", "name": "365 Cafeteria Forn de Pa", "name:ca": "365", "outdoor_seating": "yes", "shop": "bakery"}}, {"type": "node", "id": 5580510621, "lat": 41.3757465, "lon": 2.164919, "tags": {"addr:housenumber": "8", "addr:street": "Carrer del Comte Borrell", "amenity": "cafe", "name": "Delabuela", "opening_hours": "24/7"}}, {"type": "node", "id": 5641945821, "lat": 41.3926932, "lon": 2.1653219, "tags": {"addr:city": "Barcelona", "addr:housenumber": "265-269", "addr:postcode": "08007", "addr:street": "Carrer d'Arag\u00f3", "amenity": "cafe", "brand": "Starbucks", "brand:wikidata": "Q37158", "brand:wikipedia": "en:Starbucks", "cuisine": "coffee_shop", "diet:gluten_free": "yes", "internet_access": "wlan", "name": "Starbucks", "name:ca": "Starbucks", "official_name": "Starbucks Coffee", "takeaway": "yes"}}, {"type": "node", "id": 5663240986, "lat": 41.3837378, "lon": 2.1695562, "tags": {"addr:street": "Pla\u00e7a del Bonsucc\u00e9s", "amenity": "cafe", "indoor_seating": "yes", "name": "Caf\u00e8 Escac", "name:ca": "Caf\u00e8 Escac", "outdoor_seating": "yes"}}, {"type": "node", "id": 5695625921, "lat": 41.3820287, "lon": 2.179383, "tags": {"addr:housenumber": "2", "addr:postcode": "08002", "addr:street": "Baixada de Viladecols", "amenity": "cafe", "internet_access": "wlan", "name": "La Teteria"}}, {"type": "node", "id": 5695935027, "lat": 41.394568, "lon": 2.1683482, "tags": {"amenity": "cafe", "internet_access": "wlan", "name:en": "Somewhere", "opening_hours": "Mo-Fr 08:00-00:00; Sa-Su 09:00-00:00", "phone": "+34935305779", "website": "http://www.somewherecafe.com"}}, {"type": "node", "id": 5696595735, "lat": 41.3935469, "lon": 2.1742371, "tags": {"amenity": "cafe", "name": "Satan's coffee shop"}}, {"type": "node", "id": 5697600621, "lat": 41.38519, "lon": 2.1615091, "tags": {"addr:housenumber": "22", "addr:postcode": "08011", "addr:street": "Carrer de Muntaner", "amenity": "cafe", "internet_access": "wlan", "name": "Nappuccino", "opening_hours": "Mo-Su 11:00-22:00", "website": "http://www.nappuccino.es"}}, {"type": "node", "id": 5810377853, "lat": 41.3896241, "lon": 2.1620063, "tags": {"addr:housenumber": "59", "addr:street": "Carrer de Balmes", "amenity": "cafe", "contact:facebook": "https://www.facebook.com/TakumiBarcelona", "cuisine": "japanese", "internet_access": "wlan", "name": "365", "name:ca": "365", "name:en": "Takumi"}}, {"type": "node", "id": 5852335685, "lat": 41.3890581, "lon": 2.1666364, "tags": {"amenity": "cafe", "name": "Ciutat Comtal", "name:ca": "Ciutat Comtal", "name:en": "nostrum"}}, {"type": "node", "id": 5883966685, "lat": 41.381278, "lon": 2.1826134, "tags": {"amenity": "cafe", "check_date": "2023-10-14", "name": "Carabela"}}, {"type": "node", "id": 5896440286, "lat": 41.3893805, "lon": 2.1727722, "tags": {"amenity": "cafe", "internet_access": "wlan", "name": "citizen", "opening_hours": "Mo-Su 08:00-16:00"}}, {"type": "node", "id": 5902468192, "lat": 41.3824085, "lon": 2.1660495, "tags": {"amenity": "cafe", "internet_access": "wlan", "name": "365", "name:ca": "365"}}, {"type": "node", "id": 5902468196, "lat": 41.3790298, "lon": 2.1646997, "tags": {"addr:street": "Carrer de Sant Antoni Abat", "amenity": "cafe", "name": "Con Pan"}}, {"type": "node", "id": 5916148891, "lat": 41.3841474, "lon": 2.1818352, "tags": {"amenity": "cafe", "cuisine": "american", "name:en": "Casa Gisper"}}, {"type": "node", "id": 5916216007, "lat": 41.3847689, "lon": 2.1688708, "tags": {"addr:street": "Carrer dels Tallers", "amenity": "cafe", "internet_access": "wlan", "name": "El mos"}}, {"type": "node", "id": 5924668785, "lat": 41.3810393, "lon": 2.1680099, "tags": {"addr:housenumber": "70", "addr:street": "Carrer del Carme", "amenity": "cafe", "name:en": "Teddy's"}}, {"type": "node", "id": 5929496286, "lat": 41.383238, "lon": 2.1647324, "tags": {"amenity": "cafe", "name": "Teter\u00eda Mailuna", "opening_hours": "Mo-Fr 10:00-22:00; Sa 11:00-22:00", "phone": "+34 933 01 20 02", "website": "https://mailuna.net/"}}, {"type": "node", "id": 5951964888, "lat": 41.3882003, "lon": 2.1723419, "tags": {"addr:housenumber": "17", "addr:postcode": "08010", "addr:street": "Carrer de Fontanella", "amenity": "cafe", "indoor_seating": "yes", "name": "el Fornet", "outdoor_seating": "no", "website": "https://elfornet.com/es/", "wheelchair": "yes"}}, {"type": "node", "id": 5951979985, "lat": 41.3844536, "lon": 2.1782952, "tags": {"amenity": "cafe", "name": "Tastap\u00e0", "wheelchair": "yes"}}, {"type": "node", "id": 5951979986, "lat": 41.3891379, "lon": 2.1739259, "tags": {"amenity": "cafe", "name": "Urquinaona"}}, {"type": "node", "id": 5954244986, "lat": 41.3796636, "lon": 2.1616232, "tags": {"amenity": "cafe", "brand": "Granier", "brand:wikidata": "Q102311169", "internet_access": "wlan", "name": "Granier", "shop": "bakery", "toilets:wheelchair": "yes", "wheelchair": "yes"}}, {"type": "node", "id": 5954257490, "lat": 41.3808809, "lon": 2.1614712, "tags": {"amenity": "cafe", "name": "Tarea fina", "wheelchair": "limited"}}, {"type": "node", "id": 5954257585, "lat": 41.3815629, "lon": 2.1596613, "tags": {"amenity": "cafe", "name": "Cooofebar", "toilets:wheelchair": "yes", "wheelchair": "yes"}}, {"type": "node", "id": 5954257588, "lat": 41.3807853, "lon": 2.160093, "tags": {"amenity": "cafe", "internet_access": "wlan", "name": "BIN", "toilets:wheelchair": "no", "wheelchair": "yes"}}, {"type": "node", "id": 5954257594, "lat": 41.3797687, "lon": 2.1621294, "tags": {"amenity": "cafe", "name": "Monpa"}}, {"type": "node", "id": 5954257785, "lat": 41.3808178, "lon": 2.1606979, "tags": {"amenity": "cafe", "internet_access": "wlan", "name": "Sant Pon\u00e7", "name:ca": "Sant Pon\u00e7"}}, {"type": "node", "id": 5954258085, "lat": 41.3784833, "lon": 2.1620923, "tags": {"amenity": "cafe", "name": "Bracaf\u00e9", "wheelchair": "yes"}}, {"type": "node", "id": 5985459087, "lat": 41.3815208, "lon": 2.1614871, "tags": {"addr:postcode": "08001", "amenity": "cafe", "name": "T\u00e0ber", "name:ca": "T\u00e0ber Caf\u00e8", "opening_hours": "Mo-Su 08:30-20:30", "website": "http://www.tabercafe.com/"}}, {"type": "node", "id": 6013058686, "lat": 41.381436, "lon": 2.1671236, "tags": {"amenity": "cafe", "name": "Bismillah-Kebabis"}}, {"type": "node", "id": 6025934087, "lat": 41.3769526, "lon": 2.1666472, "tags": {"addr:housenumber": "10", "addr:street": "Carrer de la Lleialtat", "amenity": "cafe", "name": "Cafeteria La Placa"}}, {"type": "node", "id": 6033522185, "lat": 41.3914977, "lon": 2.1753467, "tags": {"amenity": "cafe", "name": "Yag\u00fce"}}, {"type": "node", "id": 6052329497, "lat": 41.3830971, "lon": 2.1783628, "tags": {"addr:housenumber": "4", "addr:postcode": "08002", "addr:street": "Pla\u00e7a de Sant Just", "amenity": "cafe", "cuisine": "spanish", "internet_access": "wlan", "name": "Bliss", "opening_hours": "Mo-Sa 09:00-23:00; Su 10:00-23:00", "phone": "+34 932681022", "toilets:wheelchair": "no", "wheelchair": "limited", "wheelchair:description": "Small cafe/restaurant. Friendly. Outdoor seating. Lower floor and toilet are not accessible."}}, {"type": "node", "id": 6053050067, "lat": 41.3856816, "lon": 2.1851737, "tags": {"amenity": "cafe", "check_date": "2024-03-02", "level": "0", "name": "Alsur", "opening_hours": "Mo-We,Su 09:00-21:00; Th-Sa 09:00-22:30"}}, {"type": "node", "id": 6053069752, "lat": 41.3836573, "lon": 2.1778183, "tags": {"addr:housenumber": "5", "addr:postcode": "08002", "addr:street": "Baixada de la Llibreteria", "amenity": "cafe", "name": "Farggi"}}, {"type": "node", "id": 6106764321, "lat": 41.3930707, "lon": 2.1642758, "tags": {"addr:city": "Barcelona", "addr:country": "ES", "addr:housenumber": "66", "addr:street": "Passeig de Gr\u00e0cia", "amenity": "cafe", "check_date": "2024-06-14", "name": "Il Caffe di Francesco", "wheelchair": "no"}}, {"type": "node", "id": 6124719985, "lat": 41.3848379, "lon": 2.1801731, "tags": {"addr:housenumber": "3", "addr:postcode": "08003", "addr:street": "Carrer de la Barra de Ferro", "amenity": "cafe", "check_date": "2024-07-02", "internet_access": "wlan", "name": "Bornet"}}, {"type": "node", "id": 6169133886, "lat": 41.3924429, "lon": 2.1772864, "tags": {"addr:housenumber": "52", "addr:street": "Carrer d'Ausi\u00e0s Marc", "amenity": "cafe", "cafe": "board_game", "description": "Juegos de mesa, cartas y rol", "name": "Gamer\u00eda", "opening_hours": "Mo-Th 10:30-14:30,16:30-20:30+; Fr,Sa 10:30-20:30+", "phone": "+34 937 97 67 36"}}, {"type": "node", "id": 6171825236, "lat": 41.3752307, "lon": 2.1612389, "tags": {"addr:city": "Barcelona", "addr:housenumber": "130", "addr:postcode": "08015", "addr:street": "Avinguda del Paral\u00b7lel", "amenity": "cafe", "brand": "Buenas Migas", "brand:wikidata": "Q115258266", "cuisine": "coffee_shop", "diet:gluten_free": "yes", "fast_food": "cafeteria", "internet_access": "wlan", "name": "Buenas Migas", "opening_hours": "Mo-Fr 07:00-23:00; Sa-Su,PH 08:00-23:00", "phone": "+34 937 82 69 91", "takeaway": "yes", "website": "http://www.buenasmigas.com", "wheelchair": "limited"}}, {"type": "node", "id": 6177292085, "lat": 41.392196, "lon": 2.1675915, "tags": {"amenity": "cafe", "check_date": "2025-02-25", "internet_access": "wlan", "name": "365", "name:ca": "365", "wheelchair": "limited"}}, {"type": "node", "id": 6177292285, "lat": 41.3920682, "lon": 2.1677646, "tags": {"addr:housenumber": "117", "addr:street": "Carrer de Pau Claris", "amenity": "cafe", "name": "Forn G\u00f2tic", "name:ca": "Forn G\u00f2tic"}}, {"type": "node", "id": 6182402440, "lat": 41.3874185, "lon": 2.1748803, "tags": {"addr:city": "Barcelona", "addr:country": "ES", "addr:street": "Carrer del Palau de la M\u00fasica", "amenity": "cafe", "name": "Alsur Caf\u00e9"}}, {"type": "node", "id": 6201414185, "lat": 41.3918081, "lon": 2.166454, "tags": {"amenity": "cafe", "name": "El fornet"}}, {"type": "node", "id": 6223019745, "lat": 41.3897854, "lon": 2.1745197, "tags": {"amenity": "cafe", "cuisine": "brunch;coffee;bingsu", "name": "Bingbing Caf\u00e9"}}, {"type": "node", "id": 6223019746, "lat": 41.3846872, "lon": 2.1768651, "tags": {"amenity": "cafe", "cuisine": "chocolate;churro", "name": "Valor Chocolates", "wheelchair": "no"}}, {"type": "node", "id": 6333708759, "lat": 41.3941488, "lon": 2.1694356, "tags": {"amenity": "cafe", "check_date": "2024-05-21", "cuisine": "sandwich", "diet:vegetarian": "yes", "indoor_seating": "yes", "name": "SandwiChez", "opening_hours": "Mo-Su 07:15-21:00", "outdoor_seating": "yes"}}, {"type": "node", "id": 6333736423, "lat": 41.3896358, "lon": 2.1741484, "tags": {"amenity": "cafe", "diet:gluten_free": "yes", "diet:vegan": "yes", "name": "Bingbing Cafe", "opening_hours": "Mo-Fr 09:00-21:00; Sa, Su 10:30-21:00"}}, {"type": "node", "id": 6335943754, "lat": 41.3905194, "lon": 2.1742385, "tags": {"amenity": "cafe", "name": "52 moments", "opening_hours": "Mo-Su 06:00-22:00"}}, {"type": "node", "id": 6357890936, "lat": 41.3907906, "lon": 2.165112, "tags": {"addr:city": "Barcelona", "addr:housenumber": "343", "addr:street": "Carrer del Consell de Cent", "amenity": "cafe", "brand": "Starbucks", "brand:wikidata": "Q37158", "cuisine": "coffee_shop", "diet:gluten_free": "yes", "name": "Starbucks", "name:ca": "Starbucks", "official_name": "Starbucks Coffee", "takeaway": "yes", "wheelchair": "yes"}}, {"type": "node", "id": 6358324785, "lat": 41.3814249, "lon": 2.1754606, "tags": {"amenity": "cafe", "cuisine": "spanish", "name": "Fernando", "name:ca": "Fernando"}}, {"type": "node", "id": 6372001983, "lat": 41.3743906, "lon": 2.1630348, "tags": {"addr:housenumber": "10", "addr:street": "Carrer de Blasco de Garay", "amenity": "cafe", "name": "Cactus Caf\u00e9"}}, {"type": "node", "id": 6372569248, "lat": 41.3865348, "lon": 2.1667428, "tags": {"addr:city": "Barcelona", "addr:housenumber": "10", "addr:street": "Ronda de la Universitat", "amenity": "cafe", "cuisine": "coffee_shop", "name": "Syra Coffee", "opening_hours": "Mo-Fr 08:00-18:00; Sa 08:00-20:00", "operator": "Syra", "shop": "coffee", "website": "https://syra.coffee/"}}, {"type": "node", "id": 6395573149, "lat": 41.3807248, "lon": 2.1601987, "tags": {"amenity": "cafe", "name": "Bracaf\u00e8", "toilets:wheelchair": "no", "wheelchair": "limited"}}, {"type": "node", "id": 6397804287, "lat": 41.3860344, "lon": 2.177176, "tags": {"amenity": "cafe", "name": "365", "name:ca": "365", "opening_hours": "Mo-Su 06:00-22:00"}}, {"type": "node", "id": 6422398585, "lat": 41.3831411, "lon": 2.1773673, "tags": {"amenity": "cafe", "name": "pizzeria da nanni"}}, {"type": "node", "id": 6438381289, "lat": 41.3883674, "lon": 2.1779512, "tags": {"addr:housenumber": "6", "addr:street": "Carrer d'en M\u00f2nec", "amenity": "cafe", "cuisine": "coffee_shop", "indoor_seating": "yes", "name": "Vera Caf\u00e9", "old_name": "La Masala Caf\u00e9", "outdoor_seating": "yes"}}, {"type": "node", "id": 6485836185, "lat": 41.3817361, "lon": 2.171352, "tags": {"amenity": "cafe", "name:en": "Kiosko universal"}}, {"type": "node", "id": 6558235786, "lat": 41.3751944, "lon": 2.1591121, "tags": {"amenity": "cafe", "name": "La Cr\u00eape"}}, {"type": "node", "id": 6563537985, "lat": 41.3852392, "lon": 2.1604445, "tags": {"addr:street": "Carrer de la Diputaci\u00f3", "amenity": "cafe", "name": "Ricordi d'infanzia"}}, {"type": "node", "id": 6563537986, "lat": 41.3856913, "lon": 2.1610224, "tags": {"addr:housenumber": "200", "addr:street": "Carrer de la Diputaci\u00f3", "amenity": "cafe", "name": "Beam"}}, {"type": "node", "id": 6563538087, "lat": 41.3865392, "lon": 2.1621723, "tags": {"addr:housenumber": "222", "addr:street": "Carrer de la Diputaci\u00f3", "amenity": "cafe", "internet_access": "wlan", "name": "Massamara", "opening_hours": "Mo-Su 06:30-22:30"}}, {"type": "node", "id": 6563538088, "lat": 41.387934, "lon": 2.1641861, "tags": {"addr:housenumber": "25", "addr:street": "Carrer de Balmes", "amenity": "cafe", "name": "La Flek", "opening_hours": "Mo-Fr 06:30-20:30; Sa 07:30-14:00"}}, {"type": "node", "id": 6563538386, "lat": 41.3893209, "lon": 2.1653841, "tags": {"amenity": "cafe", "check_date": "2024-12-13", "name": "Forn de pa Rambla 31", "name:ca": "Forn de pa Rambla 31"}}, {"type": "node", "id": 6579626885, "lat": 41.3783651, "lon": 2.163252, "tags": {"addr:housenumber": "79", "addr:street": "Ronda de Sant Pau", "amenity": "cafe", "internet_access": "wlan", "name": "365", "name:ca": "365", "wheelchair": "yes"}}, {"type": "node", "id": 6581735104, "lat": 41.3747668, "lon": 2.1655609, "tags": {"air_conditioning": "yes", "amenity": "cafe", "name": "El Taller", "name:ca": "El Taller"}}, {"type": "node", "id": 6641746885, "lat": 41.3926249, "lon": 2.1857745, "tags": {"addr:housenumber": "31", "addr:street": "Carrer de Buenaventura Mu\u00f1oz", "amenity": "cafe", "cuisine": "coffee_shop", "name": "Orval"}}, {"type": "node", "id": 6646409085, "lat": 41.3843839, "lon": 2.1740634, "tags": {"addr:housenumber": "9", "addr:street": "Carrer de Cucurulla", "amenity": "cafe", "name": "Planelles Donat", "name:ca": "Planelles Donat"}}, {"type": "node", "id": 6746020086, "lat": 41.3926006, "lon": 2.1658182, "tags": {"amenity": "cafe", "check_date": "2025-02-25", "name": "el Fornet"}}, {"type": "node", "id": 6757313692, "lat": 41.3948373, "lon": 2.1681172, "tags": {"addr:housenumber": "307", "addr:street": "Carrer d'Arag\u00f3", "amenity": "cafe", "name": "Santagloria", "wheelchair": "yes"}}, {"type": "node", "id": 6766273094, "lat": 41.3928821, "lon": 2.1661344, "tags": {"amenity": "cafe", "internet_access": "wlan", "name": "el Fornet"}}, {"type": "node", "id": 6766273101, "lat": 41.3896219, "lon": 2.1618293, "tags": {"amenity": "cafe", "internet_access": "wlan", "name": "Francesco Caf\u00e8"}}, {"type": "node", "id": 6766273986, "lat": 41.3906827, "lon": 2.1632206, "tags": {"amenity": "cafe", "name": "Bei & Nannini Lucca"}}, {"type": "node", "id": 6786006588, "lat": 41.3820297, "lon": 2.1697221, "tags": {"addr:housenumber": "38", "addr:street": "Carrer del Carme", "amenity": "cafe", "indoor_seating": "yes", "internet_access": "wlan", "name": "365", "name:ca": "365", "opening_hours": "Mo-Su 06:00-22:00", "outdoor_seating": "no", "wheelchair": "yes"}}, {"type": "node", "id": 6792949985, "lat": 41.3812997, "lon": 2.1670573, "tags": {"amenity": "cafe", "name:en": "Komo En Kasa"}}, {"type": "node", "id": 6900514147, "lat": 41.3934909, "lon": 2.1769349, "tags": {"addr:housenumber": "33", "addr:postcode": "08010", "addr:street": "Passeig de Sant Joan", "amenity": "cafe", "name": "El Arbol", "name:es": "El \u00c1rbol", "phone": "+34932449016"}}, {"type": "node", "id": 6910427026, "lat": 41.3934249, "lon": 2.1780775, "tags": {"amenity": "cafe", "check_date": "2023-04-25", "name": "SandwiChez*", "opening_hours": "Mo-Su 08:00-23:00", "website": "https://www.sandwichez.com/"}}, {"type": "node", "id": 6916232185, "lat": 41.3841896, "lon": 2.1804778, "tags": {"amenity": "cafe", "name:en": "MAG by El Magnifico"}}, {"type": "node", "id": 7003296911, "lat": 41.3767614, "lon": 2.1721158, "tags": {"amenity": "cafe"}}, {"type": "node", "id": 7040899090, "lat": 41.3869265, "lon": 2.166653, "tags": {"amenity": "cafe", "name": "taco alto"}}, {"type": "node", "id": 7047326085, "lat": 41.3780898, "lon": 2.1709697, "tags": {"amenity": "cafe", "name:en": "Shava"}}, {"type": "node", "id": 7085991293, "lat": 41.3951, "lon": 2.16688, "tags": {"amenity": "cafe", "name": "L\u2019Eticina"}}, {"type": "node", "id": 7098224685, "lat": 41.3906382, "lon": 2.1604036, "tags": {"amenity": "cafe", "cuisine": "sandwich;breakfast", "name": "San Fermin La Teresina", "opening_hours": "Mo-Fr 07:15-19:00; Sa-Su 09:15-16:00"}}, {"type": "node", "id": 7099960186, "lat": 41.387805, "lon": 2.1781701, "tags": {"addr:housenumber": "54", "addr:street": "Carrer de Sant Pere M\u00e9s Baix", "amenity": "cafe", "check_date": "2023-02-19", "diet:gluten_free": "yes", "diet:vegan": "yes", "indoor_seating": "no", "name": "Couleur Caf\u00e9", "outdoor_seating": "no", "payment:credit_cards": "yes", "payment:debit_cards": "yes", "takeaway": "only"}}, {"type": "node", "id": 7145688885, "lat": 41.3954515, "lon": 2.1633371, "tags": {"amenity": "cafe", "name": "Secrets", "name:en": "jaime beriestain"}}, {"type": "node", "id": 7177218785, "lat": 41.3760504, "lon": 2.1594711, "tags": {"amenity": "cafe", "internet_access": "wlan", "name:de": "Coco Coffice", "name:en": "Coco Coffice"}}, {"type": "node", "id": 7177389087, "lat": 41.391908, "lon": 2.1865038, "tags": {"amenity": "cafe", "check_date": "2023-11-18", "cuisine": "coffee_shop", "internet_access": "wlan", "internet_access:fee": "no", "name": "Juice Dudes", "name:en": "Juice Dudes", "outdoor_seating": "yes", "payment:cash": "yes", "payment:mastercard": "yes", "payment:visa": "yes", "wheelchair": "yes"}}, {"type": "node", "id": 7182097886, "lat": 41.384795, "lon": 2.1684813, "tags": {"amenity": "cafe", "cuisine": "coffee_shop", "name:de": "Acai", "name:en": "Acai"}}, {"type": "node", "id": 7185164985, "lat": 41.3829094, "lon": 2.1727589, "tags": {"amenity": "cafe"}}, {"type": "node", "id": 7191300586, "lat": 41.3861462, "lon": 2.1647954, "tags": {"amenity": "cafe", "cuisine": "coffee_shop", "internet_access": "wlan", "name": "T8 tea bar", "old_name": "Juice Dudes", "opening_hours": "Mo-Th 09:00-22:00; Fr, Sa 09:00-23:00; Su 09:00-22:00"}}, {"type": "node", "id": 7217933985, "lat": 41.3892798, "lon": 2.1635028, "tags": {"amenity": "cafe", "diet:vegetarian": "yes", "internet_access": "wlan", "name": "Fleca & Cafe"}}, {"type": "node", "id": 7235170546, "lat": 41.3809033, "lon": 2.1731427, "tags": {"amenity": "cafe", "cuisine": "coffee_shop", "internet_access": "wlan", "name:de": "Noa", "name:en": "Noa"}}, {"type": "node", "id": 7238718202, "lat": 41.3774618, "lon": 2.1626599, "tags": {"addr:housenumber": "48", "addr:postcode": "08015", "addr:street": "Carrer del Comte Borrell", "amenity": "cafe", "entrance": "yes", "name": "Caf\u00e9s Roure"}}, {"type": "node", "id": 7249235285, "lat": 41.3898014, "lon": 2.1842008, "tags": {"amenity": "cafe", "check_date": "2023-09-27", "name": "Euro"}}, {"type": "node", "id": 7614795890, "lat": 41.3853411, "lon": 2.1806068, "tags": {"addr:city": "Barcelona", "addr:postcode": "08003", "addr:street": "Carrer de Montcada", "amenity": "cafe", "bar": "yes", "name": "Brunells", "toilets": "customers"}}, {"type": "node", "id": 7640329151, "lat": 41.3873422, "lon": 2.1815598}, {"type": "node", "id": 7999604058, "lat": 41.3873718, "lon": 2.1627034, "tags": {"addr:housenumber": "1", "addr:street": "Carrer d'Enric Granados", "amenity": "cafe", "cuisine": "brunch", "name": "Lilo brunch", "opening_hours": "Mo-Su 09:00-17:00", "outdoor_seating": "yes", "website": "https://lilobrunch.com"}}, {"type": "node", "id": 8068308385, "lat": 41.3835795, "lon": 2.1688486, "tags": {"amenity": "cafe", "check_date": "2024-01-11", "name": "La Central"}}, {"type": "node", "id": 8148351222, "lat": 41.3747303, "lon": 2.1702662, "tags": {"amenity": "cafe", "check_date": "2024-12-21", "name": "Cafe Apolo"}}, {"type": "node", "id": 8148354217, "lat": 41.3847952, "lon": 2.1848402, "tags": {"amenity": "cafe", "indoor_seating": "yes", "name": "Cafeteria Navia", "outdoor_seating": "yes"}}, {"type": "node", "id": 8202110517, "lat": 41.3822008, "lon": 2.1744317, "tags": {"amenity": "cafe", "name": "Lekker"}}, {"type": "node", "id": 8283715918, "lat": 41.3932292, "lon": 2.1620203, "tags": {"addr:housenumber": "246", "addr:street": "Carrer de Mallorca", "amenity": "cafe", "brand": "Buenas Migas", "brand:wikidata": "Q115258266", "cuisine": "coffee_shop", "diet:gluten_free": "yes", "internet_access": "wlan", "name": "Buenas Migas", "opening_hours": "Mo-Fr 07:30-22:00; Sa-Su 09:00-22:00", "phone": "+34 936 11 06 90", "takeaway": "yes", "website": "http://www.buenasmigas.com"}}, {"type": "node", "id": 8418800748, "lat": 41.3905192, "lon": 2.1630881, "tags": {"addr:housenumber": "254", "addr:street": "Carrer d'Arag\u00f3", "amenity": "cafe", "name": "Pannus"}}, {"type": "node", "id": 8661982617, "lat": 41.3780341, "lon": 2.1790132, "tags": {"amenity": "cafe", "name": "Gran Torino"}}, {"type": "node", "id": 8687335277, "lat": 41.391969, "lon": 2.169325, "tags": {"addr:housenumber": "278", "addr:street": "Carrer de la Diputaci\u00f3", "amenity": "cafe", "name": "Camelia Art Caf\u00e9", "phone": "+34936846789"}}, {"type": "node", "id": 8753554517, "lat": 41.3950292, "lon": 2.1660524, "tags": {"addr:housenumber": "87", "addr:street": "Carrer de Roger de Ll\u00faria", "amenity": "cafe", "name": "El teu lloc"}}, {"type": "node", "id": 8753554518, "lat": 41.395351, "lon": 2.1666431, "tags": {"addr:housenumber": "287", "addr:street": "Carrer de Val\u00e8ncia", "amenity": "cafe", "internet_access": "wlan", "name": "Madame Fartine"}}, {"type": "node", "id": 8778940926, "lat": 41.3887745, "lon": 2.1812776, "tags": {"addr:street": "Carrer del Comer\u00e7", "amenity": "cafe", "name": "The Little Basket"}}, {"type": "node", "id": 8937602618, "lat": 41.3916754, "lon": 2.1845521, "tags": {"amenity": "cafe", "name": "El caf\u00e9 del Sandaru"}}, {"type": "node", "id": 9101427117, "lat": 41.386547, "lon": 2.179834, "tags": {"amenity": "cafe", "name": "Espai Puntal", "name:ca": "Espai Puntal"}}, {"type": "node", "id": 9230750654, "lat": 41.3940745, "lon": 2.1761554, "tags": {"amenity": "cafe", "name": "365 Obrador", "shop": "bakery"}}, {"type": "node", "id": 9232386351, "lat": 41.3911673, "lon": 2.1791556, "tags": {"addr:housenumber": "72b", "addr:street": "Ronda de Sant Pere", "amenity": "cafe", "name": "365", "name:ca": "365"}}, {"type": "node", "id": 9233270347, "lat": 41.383399, "lon": 2.1816366, "tags": {"addr:city": "Barcelona", "addr:housenumber": "7", "addr:postcode": "08003", "addr:street": "Pla\u00e7a de Santa Maria", "amenity": "cafe", "name": "demasie", "outdoor_seating": "yes", "website": "https://cookiesdemasie.com"}}, {"type": "node", "id": 9233380571, "lat": 41.3903947, "lon": 2.1784461, "tags": {"amenity": "cafe", "indoor_seating": "yes", "name": "365", "name:ca": "365", "outdoor_seating": "no"}}, {"type": "node", "id": 9238444500, "lat": 41.3901615, "lon": 2.1755066, "tags": {"amenity": "cafe", "indoor_seating": "yes", "name": "Bakery & Tapas", "outdoor_seating": "yes"}}, {"type": "node", "id": 9240224982, "lat": 41.3904463, "lon": 2.1772693, "tags": {"amenity": "cafe", "name": "Hanami"}}, {"type": "node", "id": 9240224983, "lat": 41.3902569, "lon": 2.1773795, "tags": {"amenity": "cafe", "check_date": "2024-01-14", "name": "T\u00eate-\u00e0-t\u00eate"}}, {"type": "node", "id": 9241043556, "lat": 41.3899052, "lon": 2.1757721, "tags": {"amenity": "cafe", "check_date": "2024-07-17", "name": "Vivari"}}, {"type": "node", "id": 9429021627, "lat": 41.3747518, "lon": 2.1826554, "tags": {"amenity": "cafe", "brand": "Starbucks", "brand:wikidata": "Q37158", "brand:wikipedia": "en:Starbucks", "check_date": "2023-04-26", "cuisine": "coffee_shop", "diet:gluten_free": "yes", "level": "1", "name": "Starbucks", "name:ca": "Starbucks", "official_name": "Starbucks Coffee", "survey:date": "2022-01-18", "takeaway": "yes"}}, {"type": "node", "id": 9431243717, "lat": 41.3748975, "lon": 2.1823064, "tags": {"amenity": "cafe", "level": "1", "name": "Lavazza", "survey:date": "2022-01-18"}}, {"type": "node", "id": 9466632439, "lat": 41.3861648, "lon": 2.1602732, "tags": {"addr:city": "Barcelona", "addr:country": "ES", "addr:housenumber": "44", "addr:street": "Carrer de Muntaner", "amenity": "cafe", "check_date": "2024-05-31", "name": "El Meu Mon"}}, {"type": "node", "id": 9699791022, "lat": 41.3912499, "lon": 2.1794021, "tags": {"amenity": "cafe", "name": "Trole", "panoramax": "929b434e-ad40-4a72-b522-118c67b30e2b", "payment:cards": "yes", "payment:cash": "yes"}}, {"type": "node", "id": 9711192132, "lat": 41.3846695, "lon": 2.1699232, "tags": {"amenity": "cafe", "name": "365", "name:ca": "365"}}, {"type": "node", "id": 9717834917, "lat": 41.393128, "lon": 2.1595645, "tags": {"amenity": "cafe", "cuisine": "breakfast;cake;coffee_shop;donut;sandwich;spanish;tea", "name": "El Fornet"}}, {"type": "node", "id": 9831335319, "lat": 41.3901892, "lon": 2.1708409, "tags": {"addr:housenumber": "90", "addr:postcode": "08010", "addr:street": "Carrer de Pau Claris", "amenity": "cafe", "bar": "yes", "check_date": "2024-05-04", "contact:instagram": "https://www.instagram.com/@alicesecret_garden", "email": "contacto@alicesecretgarden.com", "name": "Alice Secret Garden", "name:en": "Alice Secret Garden", "outdoor_seating": "yes", "payment:cash": "yes", "payment:credit_cards": "yes", "payment:debit_cards": "yes", "phone": "+34 936761025; +34 677 60 19 30", "toilets": "yes", "wheelchair": "yes"}}, {"type": "node", "id": 9887048817, "lat": 41.3826857, "lon": 2.1741661, "tags": {"amenity": "cafe", "cuisine": "coffee_shop", "name": "Caf\u00e9 de Finca"}}, {"type": "node", "id": 10040484117, "lat": 41.3824386, "lon": 2.1740318, "tags": {"amenity": "cafe", "indoor_seating": "yes", "name": "Bar del Pi", "outdoor_seating": "yes"}}, {"type": "node", "id": 10055652419, "lat": 41.3803225, "lon": 2.177077, "tags": {"amenity": "cafe", "diet:vegan": "only", "name": "Santa Vegana", "outdoor_seating": "yes"}}, {"type": "node", "id": 10090625920, "lat": 41.3813792, "lon": 2.1784211, "tags": {"amenity": "cafe", "contact:instagram": "https://www.instagram.com/vegan_corner_bcn/", "diet:vegan": "only", "diet:vegetarian": "only", "name": "The Vegan Corner", "opening_hours": "Mo-Th 10:00-21:00; Fr-Su 09:00-23:00", "outdoor_seating": "yes", "website": "https://vegancornerbcn.com/"}}, {"type": "node", "id": 10171120675, "lat": 41.3841479, "lon": 2.1842622, "tags": {"amenity": "cafe", "name": "Lulu & Flyn"}}, {"type": "node", "id": 10171120676, "lat": 41.3846491, "lon": 2.1832799, "tags": {"amenity": "cafe", "name": "Juice Dudes"}}, {"type": "node", "id": 10172005117, "lat": 41.3863252, "lon": 2.1760826, "tags": {"amenity": "cafe", "name": "Miocid"}}, {"type": "node", "id": 10174117945, "lat": 41.3905164, "lon": 2.1645106, "tags": {"amenity": "cafe", "name": "Caf\u00e9 de Francesco"}}, {"type": "node", "id": 10178163296, "lat": 41.3828337, "lon": 2.1678285, "tags": {"amenity": "cafe", "name": "Fleca Els Angels"}}, {"type": "node", "id": 10253074409, "lat": 41.3905506, "lon": 2.1764445, "tags": {"amenity": "cafe", "name": "La Malcriada"}}, {"type": "node", "id": 10302092060, "lat": 41.3869067, "lon": 2.1817034}, {"type": "node", "id": 10559182109, "lat": 41.3944027, "lon": 2.1696029, "tags": {"addr:street": "Carrer del Bruc, 84, 08009 Barcelona, Spain", "amenity": "cafe", "name": "Petit Pot", "name:en": "PETIT POT CAFE BISTRO BRUNCH"}}, {"type": "node", "id": 10572779309, "lat": 41.379218, "lon": 2.1603593, "tags": {"addr:housenumber": "70", "addr:street": "Carrer del Comte Borrell", "amenity": "cafe", "name:en": "The Coffee"}}, {"type": "node", "id": 10586555579, "lat": 41.3779782, "lon": 2.1615954, "tags": {"addr:housenumber": "65", "addr:street": "Carrer del Comte Borrel", "amenity": "cafe", "check_date": "2024-03-21", "name": "Dual Cafe", "opening_hours": "Mo-Sa 08:30-19:30; Su 08:30-17:00", "phone": "+34937825522", "website": "http://www.dual-cafe.com/"}}, {"type": "node", "id": 10686790705, "lat": 41.3897149, "lon": 2.1659423, "tags": {"amenity": "cafe", "name": "La Central - Cerveseria"}}, {"type": "node", "id": 10728420094, "lat": 41.3899281, "lon": 2.174871, "tags": {"addr:city": "Barcelona", "addr:housenumber": "27", "addr:postcode": "08010", "addr:street": "Ronda de Sant Pere", "amenity": "cafe", "brand": "Buenas Migas", "brand:wikidata": "Q115258266", "check_date": "2024-07-16", "cuisine": "coffee_shop", "diet:gluten_free": "yes", "diet:vegetarian": "yes", "indoor_seating": "yes", "internet_access": "wlan", "name": "Buenas Migas", "opening_hours": "Mo-Su 08:00-22:00", "outdoor_seating": "yes", "payment:cash": "yes", "payment:mastercard": "yes", "payment:visa": "yes", "phone": "+34 933 18 37 08", "takeaway": "yes", "website": "http://www.buenasmigas.com"}}, {"type": "node", "id": 10782583443, "lat": 41.3778248, "lon": 2.1639719, "tags": {"amenity": "cafe", "name": "Easo"}}, {"type": "node", "id": 10782636048, "lat": 41.376857, "lon": 2.1635026, "tags": {"addr:city": "Barcelona", "addr:housenumber": "34", "addr:postcode": "08015", "addr:street": "Carrer del Parlament", "amenity": "cafe", "check_date": "2025-01-26", "name": "El Cafet\u00f3", "outdoor_seating": "yes"}}, {"type": "node", "id": 10784182558, "lat": 41.3946062, "lon": 2.1783799, "tags": {"amenity": "cafe", "name": "Brew Coffee"}}, {"type": "node", "id": 10784204896, "lat": 41.3925923, "lon": 2.1790659, "tags": {"amenity": "cafe", "check_date": "2023-04-25", "indoor_seating": "yes", "name": "Antico", "outdoor_seating": "yes"}}, {"type": "node", "id": 10785172887, "lat": 41.3935563, "lon": 2.1810204, "tags": {"amenity": "cafe", "cuisine": "bubble_tea", "name": "Youcha", "opening_hours": "Mo 09:00-17:00; Tu 11:30-21:00; Th-Su 11:30-21:00", "phone": "+34 666697477", "website": "https://youchabcn.negocio.site"}}, {"type": "node", "id": 10785181138, "lat": 41.3947182, "lon": 2.180505, "tags": {"amenity": "cafe", "name": "Vivari", "website": "https://www.vivari.es/ca/"}}, {"type": "node", "id": 10785230763, "lat": 41.3929883, "lon": 2.1753163, "tags": {"amenity": "cafe", "name": "Molika Caf\u00e8"}}, {"type": "node", "id": 10785231969, "lat": 41.3936878, "lon": 2.1795914, "tags": {"amenity": "cafe", "cuisine": "bubble_tea", "name": "Te de fruites fresc"}}, {"type": "node", "id": 10790875322, "lat": 41.3844102, "lon": 2.1702416, "tags": {"amenity": "cafe", "cuisine": "bubble_tea", "indoor_seating": "no", "name": "Zenzoo", "outdoor_seating": "no", "takeaway": "only", "website": "https://zenzoo.es/"}}, {"type": "node", "id": 10801678205, "lat": 41.3792707, "lon": 2.1759702, "tags": {"amenity": "cafe", "contact:instagram": "rumas_coffee", "name:en": "Ruma's Coffee", "opening_hours": "Mo-Su 08:00-19:00"}}, {"type": "node", "id": 10807513406, "lat": 41.3953856, "lon": 2.1705987, "tags": {"addr:housenumber": "76", "addr:street": "Carrer de Girona", "amenity": "cafe", "check_date": "2024-10-20", "contact:instagram": "thecoffee.jp", "cuisine": "japanese", "name": "the coffee", "name:en": "the coffee", "opening_hours": "Mo-Su 08:00-20:00", "website": "http://www.thecoffee.jp"}}, {"type": "node", "id": 10845729381, "lat": 41.3864879, "lon": 2.1783612, "tags": {"amenity": "cafe", "check_date": "2023-04-27", "cuisine": "coffee_shop", "indoor_seating": "yes", "level": "0", "name": "Barestaurant L'Univers", "operator": "Barestaurant L'Univers S.L.", "outdoor_seating": "yes", "wheelchair": "limited"}}, {"type": "node", "id": 11032313003, "lat": 41.3751923, "lon": 2.1613678, "tags": {"addr:housenumber": "130B", "addr:street": "Avinguda del Paral\u00b7lel", "amenity": "cafe", "name": "Bar Cafeteria Poble Sec"}}, {"type": "node", "id": 11032317021, "lat": 41.3750958, "lon": 2.1710672, "tags": {"addr:housenumber": "54", "addr:street": "Avinguda del Paral\u00b7lel", "amenity": "cafe", "name": "365 Cafeteria Forn de Pa", "shop": "bakery"}}, {"type": "node", "id": 11064620924, "lat": 41.3884871, "lon": 2.1620623, "tags": {"addr:city": "Barcelona", "addr:housenumber": "291 A", "addr:street": "Carrer del Consell de Cent", "amenity": "cafe", "check_date": "2024-11-26", "name": "Ripa Coffe", "opening_hours": "Mo-Fr 08:00-19:00; Sa,Su 09:30-19:00", "payment:cash": "yes", "payment:credit_cards": "yes", "payment:debit_cards": "yes", "wheelchair": "yes"}}, {"type": "node", "id": 11089452933, "lat": 41.3839799, "lon": 2.1699098, "tags": {"amenity": "cafe", "contact:facebook": "https://www.facebook.com/BubbolitasBCN", "contact:instagram": "bubbolitasbcn", "cuisine": "bubble_tea", "indoor_seating": "yes", "name": "Bubbolites", "opening_hours": "Mo-Su 11:00-21:30", "outdoor_seating": "yes", "website": "https://www.bubbolitas.es/", "wheelchair": "yes"}}, {"type": "node", "id": 11183388420, "lat": 41.3825742, "lon": 2.1737529, "tags": {"amenity": "cafe", "level": "0", "name": "La Placita Del Pi", "outdoor_seating": "yes", "wheelchair": "no"}}, {"type": "node", "id": 11236462031, "lat": 41.3881324, "lon": 2.1763779, "tags": {"addr:city": "Barcelona", "addr:housenumber": "32", "addr:street": "Carrer de Sant Pere M\u00e9s Alt", "amenity": "cafe", "name": "Syra Coffee", "opening_hours": "Mo-Fr 08:00-18:00; Sa 08:00-20:00", "operator": "Syra", "shop": "coffee", "website": "https://syra.coffee/"}}, {"type": "node", "id": 11236463637, "lat": 41.3889315, "lon": 2.1682652, "tags": {"addr:city": "Barcelona", "addr:floor": "2", "addr:housenumber": "11", "addr:postcode": "08007", "addr:street": "Passeig de Gr\u00e0cia", "amenity": "cafe", "name": "Syra Coffee", "opening_hours": "Mo-Sa 08:00-20:00", "operator": "Syra", "shop": "coffee", "website": "https://syra.coffee/"}}, {"type": "node", "id": 11290540470, "lat": 41.390594, "lon": 2.1852493, "tags": {"addr:city": "Barcelona", "addr:housenumber": "21", "addr:street": "Passeig de Pujades", "amenity": "cafe", "check_date": "2023-11-18", "name": "Flora", "outdoor_seating": "yes"}}, {"type": "node", "id": 11311436869, "lat": 41.3891399, "lon": 2.164576, "tags": {"amenity": "cafe", "name": "Bar Watson"}}, {"type": "node", "id": 11346257899, "lat": 41.3835951, "lon": 2.1813841, "tags": {"amenity": "cafe", "name": "Rodrigo"}}, {"type": "node", "id": 11356986495, "lat": 41.385258, "lon": 2.1834197, "tags": {"addr:city": "Barcelona", "addr:housenumber": "9", "addr:place": "Pla\u00e7a Comercial", "addr:postcode": "08003", "amenity": "cafe", "branch": "Born", "brand": "ch\u00f6k", "contact:facebook": "https://www.facebook.com/ChokBcn/", "contact:instagram": "https://www.instagram.com/thechokshop", "contact:linkedin": "https://www.linkedin.com/company/thechockshop", "diet:gluten_free": "only", "email": "hola@chok.shop", "name": "ch\u00f6k", "opening_hours": "09:00-21:00", "website": "https://www.chok.shop/"}}, {"type": "node", "id": 11358114295, "lat": 41.3935238, "lon": 2.1707925, "tags": {"amenity": "cafe", "name": "Norte"}}, {"type": "node", "id": 11358377943, "lat": 41.3939363, "lon": 2.1692419, "tags": {"amenity": "cafe", "name": "Berry Brunch"}}, {"type": "node", "id": 11358447486, "lat": 41.3923187, "lon": 2.17485, "tags": {"amenity": "cafe", "name": "Saga"}}, {"type": "node", "id": 11359142728, "lat": 41.38127, "lon": 2.1871474, "tags": {"amenity": "cafe", "name": "365"}}, {"type": "node", "id": 11359860808, "lat": 41.387993, "lon": 2.1783882, "tags": {"amenity": "cafe", "name": "Billy Brunch"}}, {"type": "node", "id": 11360015879, "lat": 41.3898497, "lon": 2.1665142, "tags": {"amenity": "cafe", "name": "Hi Cream"}}, {"type": "node", "id": 11360360422, "lat": 41.3856787, "lon": 2.1809781, "tags": {"amenity": "cafe", "name": "Boheme"}}, {"type": "node", "id": 11411767159, "lat": 41.375859, "lon": 2.1620242, "tags": {"addr:city": "Barcelona", "addr:housenumber": "20", "addr:postcode": "08015", "addr:street": "Carrer del Parlament", "air_conditioning": "yes", "amenity": "cafe", "diet:halal": "no", "diet:kosher": "no", "diet:vegan": "yes", "diet:vegetarian": "yes", "indoor_seating": "yes", "name": "Cafe Cometa", "opening_hours": "Tu-Th 09:00-19:00; Fr 09:00-20:00; Sa,Su 10:00-20:00", "outdoor_seating": "parklet", "payment:credit_cards": "yes", "payment:debit_cards": "yes", "smoking": "outside", "wheelchair": "yes"}}, {"type": "node", "id": 11443286441, "lat": 41.3859887, "lon": 2.1769036, "tags": {"amenity": "cafe", "name": "Centre Artistic Sant Lluc", "operator": "Centre Art\u00edstic Sant Lluc"}}, {"type": "node", "id": 11533481924, "lat": 41.3900756, "lon": 2.1749508, "tags": {"amenity": "cafe", "name": "Caf\u00e9lunya", "survey:date": "2024-01-20"}}, {"type": "node", "id": 11533551449, "lat": 41.3891453, "lon": 2.1758925, "tags": {"amenity": "cafe", "name": "Talisman", "survey:date": "2024-01-20"}}, {"type": "node", "id": 11577417069, "lat": 41.3928334, "lon": 2.1683542, "tags": {"addr:housenumber": "53", "addr:street": "Carrer de Roger de Ll\u00faria", "amenity": "cafe", "cuisine": "argentinian", "name": "Tio Bigotes"}}, {"type": "node", "id": 11591447211, "lat": 41.3878661, "lon": 2.1612033, "tags": {"amenity": "cafe", "name": "Caua", "opening_hours": "Mo-Sa 09:00-21:00; Su 10:00-21:00"}}, {"type": "node", "id": 11697325537, "lat": 41.3902924, "lon": 2.1721898, "tags": {"amenity": "cafe", "name": "Vivari"}}, {"type": "node", "id": 11717262369, "lat": 41.3864674, "lon": 2.1756262, "tags": {"amenity": "cafe", "name": "Xurreria Laietana"}}, {"type": "node", "id": 11978457508, "lat": 41.3877065, "lon": 2.1610005, "tags": {"addr:city": "Barcelona", "addr:housenumber": "275", "addr:postcode": "08011", "addr:street": "Carrer del Consell de Cent", "addr:unit": "Bajos 2", "amenity": "cafe", "cuisine": "coffee_shop;grill;ice_cream", "internet_access": "wlan", "internet_access:fee": "customers", "name": "The Moon Caf\u00e9", "name:en": "The Moon Cafe", "name:es": "The Moon Caf\u00e9", "opening_hours": "Mo-Su 10:00-2:30", "outdoor_seating": "yes", "phone": "+34660849890", "website": "https://www.grupothemoon.com"}}, {"type": "node", "id": 12064647161, "lat": 41.380517, "lon": 2.1743138, "tags": {"amenity": "cafe", "check_date": "2024-07-20", "cuisine": "bubble_tea", "name": "Mr. Bubble Tea"}}, {"type": "node", "id": 12206877863, "lat": 41.3832707, "lon": 2.1816282, "tags": {"amenity": "cafe", "cuisine": "breakfast", "diet:vegetarian": "yes", "name": "Nonna's Brunch"}}, {"type": "node", "id": 12222179614, "lat": 41.3876221, "lon": 2.1736824, "tags": {"amenity": "cafe", "name": "Roger"}}, {"type": "node", "id": 12229799901, "lat": 41.3841903, "lon": 2.1725264, "tags": {"amenity": "cafe", "name": "Corgi caf\u00e9"}}, {"type": "node", "id": 12246015901, "lat": 41.3891639, "lon": 2.1759224, "tags": {"amenity": "cafe", "name": "Exotica"}}, {"type": "node", "id": 12254633601, "lat": 41.3874884, "lon": 2.1778508, "tags": {"amenity": "cafe", "name": "Cafes Caracas"}}, {"type": "node", "id": 12278577491, "lat": 41.3873632, "lon": 2.1634594, "tags": {"amenity": "cafe", "name": "Bar Bernat Pescaire", "opening_hours": "Mo-Fr 08:00-20:00"}}, {"type": "node", "id": 12356638201, "lat": 41.3936055, "lon": 2.1742871, "tags": {"addr:housenumber": "700", "addr:postcode": "08010", "addr:street": "Gran Via de les Corts Catalanes", "amenity": "cafe", "name": "TosTao Coffee", "opening_hours": "Mo-Su 08:00-18:00", "phone": "935458070", "website": "https://casabonay.com/"}}, {"type": "node", "id": 12365182180, "lat": 41.3858236, "lon": 2.1693769, "tags": {"amenity": "cafe", "name": "Cafe Zurich"}}, {"type": "node", "id": 12400211273, "lat": 41.3919806, "lon": 2.1807969, "tags": {"addr:housenumber": "3", "addr:street": "Avinguda de Vilanova", "amenity": "cafe", "brand": "Starbucks", "brand:wikidata": "Q37158", "cuisine": "coffee_shop", "name": "Starbucks", "official_name": "Starbucks Coffee", "takeaway": "yes"}}, {"type": "node", "id": 12625944208, "lat": 41.3847422, "lon": 2.1720265, "tags": {"addr:housenumber": "21", "addr:street": "Carrer de la Canuda", "amenity": "cafe", "check_date": "2025-02-28", "name": "Gelatiamo", "opening_hours": "Mo-Fr 08:30-21:30; Sa-Su 11:00-21:30", "payment:cash": "yes", "payment:credit_cards": "yes", "payment:debit_cards": "yes", "phone": "+34 612 47 44 76", "shop": "bakery", "website": "https://gelatiamo.eu", "wheelchair": "yes"}}, {"type": "node", "id": 12690617741, "lat": 41.3914089, "lon": 2.1626643, "tags": {"amenity": "cafe", "brand": "Starbucks", "brand:wikidata": "Q37158", "cuisine": "coffee_shop", "name": "Starbucks", "official_name": "Starbucks Coffee", "takeaway": "yes"}}, {"type": "way", "id": 123197908, "nodes": [1374638022, 1374638076, 1374638110, 1374638056, 1374638022], "tags": {"amenity": "cafe", "building": "yes", "cuisine": "cafe", "internet_access": "yes", "name": "Nappuccino", "opening_hours": "Mo-Su 10:00-22:00"}}, {"type": "way", "id": 167056918, "nodes": [1400647993, 240979740, 10302092060, 2267959308, 7640329151, 1867973686, 1998961100, 2482696173, 1400647993], "tags": {"amenity": "cafe", "contact:email": "museu@pastisseria.cat", "contact:fax": "+34 932682279", "contact:phone": "+34 932687878", "contact:website": "http://www.museuxocolata.cat/", "description": "Private museum about chocolate", "name": "Museu de la Xocolata", "name:ca": "Museu de la Xocolata", "name:es": "museo del chocolate", "name:ko": "\ucd08\ucf5c\ub81b \ubc15\ubb3c\uad00", "opening_hours": "Mo-Sa 10:00-19:00; Su 10:00-15:00", "shop": "deli", "tourism": "museum", "wikidata": "Q2890127", "wikimedia_commons": "Category:Museu de la Xocolata", "wikipedia": "ca:Museu de la Xocolata"}}, {"type": "way", "id": 240695904, "nodes": [1376659434, 2484073303, 1376659430, 1376659432, 1376659434], "tags": {"amenity": "cafe", "level": "0", "name": "Els Tres Tombs", "name:ca": "Els Tres Tombs", "room": "yes", "wheelchair": "yes"}}, {"type": "way", "id": 249407644, "nodes": [2560089210, 2560089714, 1374638663, 1374638638, 2560089210], "tags": {"amenity": "cafe", "building": "apartments", "description": "First come first serve", "name": "Billy Brunch & Garden", "opening_hours": "Mo-Su 09:30-17:00", "source": "Ajuntament de Barcelona - CartoBCN (@2013-11-10)", "website": "https://billybrunch.com/"}}]}