{"version": 0.6, "generator": "Overpass API 0.7.62.5 1bd436f1", "osm3s": {"timestamp_osm_base": "2025-03-24T00:11:44Z", "copyright": "The data included in this document is from www.openstreetmap.org. The data is made available under ODbL."}, "elements": [{"type": "node", "id": 4215807785, "lat": 6.3742909, "lon": 2.4620924, "tags": {"amenity": "cafe", "name": "Caf\u00e9 P\u00e9l\u00e9"}}, {"type": "node", "id": 4222604293, "lat": 6.5036021, "lon": 2.6112749, "tags": {"amenity": "cafe", "name": "Caf\u00e9 pas de Soucis"}}, {"type": "node", "id": 4321466041, "lat": 6.4747303, "lon": 2.6045805, "tags": {"amenity": "cafe", "name": "Caf\u00e9t\u00e9ria\"Tout est Gr\u00e2ce\"", "phone": "66779944"}}, {"type": "node", "id": 4343038456, "lat": 6.3760016, "lon": 2.5459725, "tags": {"amenity": "cafe"}}, {"type": "node", "id": 4363621604, "lat": 6.3705956, "lon": 2.4779677, "tags": {"amenity": "cafe"}}, {"type": "node", "id": 4453281417, "lat": 6.3859305, "lon": 2.5440655, "tags": {"amenity": "cafe", "name": "Cafeteria"}}, {"type": "node", "id": 5171495963, "lat": 6.5166215, "lon": 2.6762136, "tags": {"amenity": "cafe", "internet_access": "no", "internet_access:fee": "no", "name": "Caf\u00e9tariat Prunelle de Dieu"}}, {"type": "node", "id": 5464348319, "lat": 6.3648518, "lon": 2.5255184, "tags": {"amenity": "cafe", "name": "Bar R\u00e9veil"}}, {"type": "node", "id": 5464608950, "lat": 6.3640961, "lon": 2.5226498, "tags": {"amenity": "cafe"}}, {"type": "node", "id": 5464618057, "lat": 6.3651617, "lon": 2.5222753, "tags": {"amenity": "cafe"}}, {"type": "node", "id": 5464734789, "lat": 6.3696264, "lon": 2.520857, "tags": {"amenity": "cafe", "name": "Le Parisien"}}, {"type": "node", "id": 5464759775, "lat": 6.3661987, "lon": 2.5218605, "tags": {"amenity": "cafe"}}, {"type": "node", "id": 5464823791, "lat": 6.3630079, "lon": 2.5180464, "tags": {"amenity": "cafe", "name": "Petit \u00e0 Petit"}}, {"type": "node", "id": 5491925479, "lat": 6.3679713, "lon": 2.5251526, "tags": {"amenity": "cafe"}}, {"type": "node", "id": 5588621203, "lat": 6.5156588, "lon": 2.675356, "tags": {"amenity": "cafe"}}, {"type": "node", "id": 5588658572, "lat": 6.5180193, "lon": 2.6774957, "tags": {"amenity": "cafe", "name": "Aw\u00e9 la Vitoire", "source": "serveur"}}, {"type": "node", "id": 5598167667, "lat": 6.4707853, "lon": 2.6481703, "tags": {"amenity": "cafe", "name": "Caf\u00e9t\u00e9ria la Libert\u00e9"}}, {"type": "node", "id": 5764266075, "lat": 6.4746385, "lon": 2.6050425, "tags": {"amenity": "cafe", "name": "Caf\u00e9 \u00c9l\u00e9gance"}}, {"type": "node", "id": 5768258583, "lat": 6.4991176, "lon": 2.6042663, "tags": {"amenity": "cafe", "name": "Hosana Fast Food"}}, {"type": "node", "id": 6989624760, "lat": 6.5137681, "lon": 2.6058447, "tags": {"amenity": "cafe", "name": "Palais de Glace"}}, {"type": "node", "id": 7781904996, "lat": 6.3735833, "lon": 2.5627778, "tags": {"amenity": "cafe"}}, {"type": "node", "id": 10980484203, "lat": 6.4930244, "lon": 2.6897658, "tags": {"amenity": "cafe", "name": "bar caf\u00e9t\u00e9ria bonne appetie", "phone": "97860123"}}, {"type": "node", "id": 10990073214, "lat": 6.5112634, "lon": 2.6557849, "tags": {"amenity": "cafe", "name": "Chez Dialo"}}, {"type": "node", "id": 10990165993, "lat": 6.5005703, "lon": 2.7018252, "tags": {"amenity": "cafe"}}, {"type": "node", "id": 10990172338, "lat": 6.5042352, "lon": 2.6875366, "tags": {"amenity": "cafe", "name": "Caf\u00e9 bar restaurant chez kinhougbande"}}, {"type": "node", "id": 10990172339, "lat": 6.5166801, "lon": 2.6929627, "tags": {"amenity": "cafe", "name": "Caf\u00e9t\u00e9ria le r\u00e9dempteur"}}, {"type": "node", "id": 10990175752, "lat": 6.5148637, "lon": 2.6934595, "tags": {"amenity": "cafe", "name": "Caf\u00e9 bar chez rich"}}, {"type": "node", "id": 10990254900, "lat": 6.513534, "lon": 2.6875098, "tags": {"amenity": "cafe", "name": "Adongle"}}, {"type": "node", "id": 10990266938, "lat": 6.5047268, "lon": 2.6452103, "tags": {"amenity": "cafe", "name": "Fouta-Djallon", "phone": "96231505"}}, {"type": "node", "id": 10992696358, "lat": 6.4922499, "lon": 2.6561688, "tags": {"amenity": "cafe", "name": "Caf\u00e9 restau la main de Dieu"}}, {"type": "node", "id": 10992727719, "lat": 6.4888302, "lon": 2.6611533, "tags": {"amenity": "cafe", "name": "Caf\u00e9 restau"}}, {"type": "node", "id": 10992755690, "lat": 6.4825875, "lon": 2.6645331, "tags": {"amenity": "cafe", "name": "Caf\u00e9t\u00e9ria la sant\u00e9", "phone": "96971149"}}, {"type": "node", "id": 11079062456, "lat": 6.4678487, "lon": 2.687214, "tags": {"amenity": "cafe", "name": "Chez Flora"}}, {"type": "node", "id": 11079062457, "lat": 6.4729551, "lon": 2.6848537, "tags": {"amenity": "cafe", "name": "Dieu merci"}}, {"type": "node", "id": 12159475221, "lat": 6.507506, "lon": 2.6010209, "tags": {"amenity": "cafe", "name": "Caf\u00e9t\u00e9ria fouta djallon"}}]}