{"version": 0.6, "generator": "Overpass API 0.7.62.5 1bd436f1", "osm3s": {"timestamp_osm_base": "2025-03-23T23:12:30Z", "copyright": "The data included in this document is from www.openstreetmap.org. The data is made available under ODbL."}, "elements": [{"type": "node", "id": 588002549, "lat": 41.4018928, "lon": 2.1619419, "tags": {"amenity": "bar", "check_date": "2024-07-03", "name": "La Cigale"}}, {"type": "node", "id": 588012926, "lat": 41.4019257, "lon": 2.1616543, "tags": {"addr:postcode": "08012", "addr:street": "Carrer de Mil\u00e0 i Fontanals", "amenity": "bar", "check_date": "2024-10-22", "contact:instagram": "lafourmibarcelona", "level": "0", "name": "La Fourmi", "payment:cash": "yes", "payment:credit_cards": "yes", "payment:debit_cards": "yes", "wheelchair": "yes"}}, {"type": "node", "id": 1050141036, "lat": 41.4037112, "lon": 2.1620046, "tags": {"addr:city": "Barcelona", "addr:housenumber": "244", "addr:postcode": "08037", "addr:street": "Carrer de Bailen", "amenity": "bar", "cuisine": "tapas", "email": "pinneos1935@telefonica.net", "name": "Pirineus 1935 Bar & Cuina", "name:ca": "Pirineus 1935 Bar & Cuina", "opening_hours": "Mo-Su 07:00-02:30", "source": "survey"}}, {"type": "node", "id": 1368518046, "lat": 41.4043193, "lon": 2.1602354, "tags": {"amenity": "bar", "check_date": "2024-11-05", "name": "L'Oficina II", "wheelchair": "limited"}}, {"type": "node", "id": 1377225928, "lat": 41.4055038, "lon": 2.160265, "tags": {"addr:housenumber": "47", "addr:street": "Carrer de Sant Llu\u00eds", "amenity": "bar", "check_date": "2023-10-16", "contact:facebook": "https://m.facebook.com/GatoNegro.BCN/?locale2=es_LA", "name": "Gat Negre", "name:ca": "Gat Negre", "name:es": "Gato Negro"}}, {"type": "node", "id": 1420760649, "lat": 41.4073794, "lon": 2.1678414, "tags": {"addr:city": "Barcelona", "addr:housenumber": "403", "addr:street": "Carrer de Sardenya", "amenity": "bar", "internet_access": "wlan", "internet_access:fee": "no", "name": "El Sabor"}}, {"type": "node", "id": 1445594488, "lat": 41.3972642, "lon": 2.1810241, "tags": {"amenity": "bar", "name": "Bar Teatre", "source": "Trabajo de campo"}}, {"type": "node", "id": 1445598554, "lat": 41.3954743, "lon": 2.1819512, "tags": {"amenity": "bar", "name": "Bar Lugo", "source": "Trabajo de campo"}}, {"type": "node", "id": 1445598555, "lat": 41.3974156, "lon": 2.1815331, "tags": {"amenity": "bar", "name": "Bar Norte", "source": "Trabajo de campo"}}, {"type": "node", "id": 1445598556, "lat": 41.3955442, "lon": 2.1810719, "tags": {"amenity": "bar", "name": "Bar Territori", "source": "Trabajo de campo"}}, {"type": "node", "id": 1445598558, "lat": 41.3971799, "lon": 2.1817149, "tags": {"amenity": "bar", "name": "La Catrina", "phone": "+34935308087", "source": "Trabajo de campo"}}, {"type": "node", "id": 1445598561, "lat": 41.3955456, "lon": 2.181968, "tags": {"addr:housenumber": "35", "addr:postcode": "08013", "addr:street": "Carrer de Ribes", "amenity": "bar", "check_date": "2024-11-11", "email": "info@contracorrentbar.com", "name": "Contracorrent", "opening_hours": "Mo,Th 17:30-23:00; Fr-Su 12:30-16:30,19:00-23:00", "outdoor_seating": "yes", "phone": "+34 608865917", "website": "https://contracorrentbar.com/"}}, {"type": "node", "id": 1457557311, "lat": 41.4040098, "lon": 2.1753482}, {"type": "node", "id": 1457557312, "lat": 41.4040364, "lon": 2.1753376}, {"type": "node", "id": 1457557313, "lat": 41.4040385, "lon": 2.1754764}, {"type": "node", "id": 1457557314, "lat": 41.4040651, "lon": 2.1754658}, {"type": "node", "id": 1514071137, "lat": 41.4077814, "lon": 2.1625342, "tags": {"amenity": "bar", "internet_access": "wlan", "name": "Secuita"}}, {"type": "node", "id": 1517875857, "lat": 41.3983766, "lon": 2.1678633, "tags": {"addr:housenumber": "337", "addr:postcode": "08037", "addr:street": "Avinguda Diagonal", "amenity": "bar", "entrance": "yes", "internet_access": "wlan", "internet_access:fee": "no", "name": "San Basilio BCN", "was:email": "lerougebcn@gmail.com", "was:phone": "+34936670473", "was:website": "http://pixelhub.me/lerouge"}}, {"type": "node", "id": 1563677788, "lat": 41.4060496, "lon": 2.1651571, "tags": {"amenity": "bar", "check_date": "2024-03-11", "name": "Galeno", "opening_hours": "We-Mo 07:00-22:00", "wheelchair": "limited"}}, {"type": "node", "id": 1960248155, "lat": 41.3994885, "lon": 2.165101, "tags": {"addr:city": "Barcelona", "addr:country": "ES", "addr:housenumber": "162", "addr:postcode": "08009", "addr:street": "Carrer de Girona", "amenity": "bar", "check_date": "2023-10-28", "cuisine": "tapas;mediterranean", "entrance": "yes", "food": "yes", "name": "Bar Morryssom", "opening_hours": "Mo-Fr 08:00-01:00; Sa 08:00-18:00", "phone": "+34 934 58 40 17", "smoking": "no", "wheelchair": "no"}}, {"type": "node", "id": 1960258200, "lat": 41.4012594, "lon": 2.1650904, "tags": {"addr:city": "Barcelona", "addr:housenumber": "188", "addr:postcode": "08037", "addr:street": "Carrer de Bail\u00e8n", "amenity": "bar", "check_date": "2024-10-22", "food": "yes", "internet_access": "wlan", "name": "Caf\u00e9 Adonis 1940", "smoking": "no", "wheelchair": "no"}}, {"type": "node", "id": 2329426402, "lat": 41.4082453, "lon": 2.1842843, "tags": {"amenity": "bar", "name": "Bodega Marcel Cava-vino"}}, {"type": "node", "id": 2576974231, "lat": 41.4003824, "lon": 2.1841121, "tags": {"amenity": "bar", "name": "Seneca"}}, {"type": "node", "id": 2683169296, "lat": 41.4093999, "lon": 2.1646889, "tags": {"amenity": "bar", "name": "Jazz petit"}}, {"type": "node", "id": 2710652088, "lat": 41.3998575, "lon": 2.1620158, "tags": {"addr:city": "Barcelona", "addr:housenumber": "3", "addr:postcode": "08012", "addr:street": "Carrer de Venus", "amenity": "bar", "check_date": "2023-11-01", "contact:instagram": "barfalstaff", "email": "info@barfalstaff.com", "name": "Bar Falstaff", "opening_hours": "Th 20:00-02:30; Fr-Sa 20:00-03:00", "phone": "+34932073924", "smoking": "no", "website": "http://barfalstaff.com/"}}, {"type": "node", "id": 2967370350, "lat": 41.4046804, "lon": 2.1608671, "tags": {"addr:housenumber": "17", "addr:street": "Carrer de Joan Blanques", "amenity": "bar", "check_date": "2024-02-09", "contact:facebook": "https://m.facebook.com/VermuteriaTano/", "name": "La Vermuteria del Tano", "name:ca": "La Vermuteria del Tano", "payment:cash": "yes", "payment:mastercard": "yes", "payment:visa": "yes", "wheelchair": "no"}}, {"type": "node", "id": 2969274952, "lat": 41.402181, "lon": 2.171137, "tags": {"amenity": "bar", "name": "Wiesbaden"}}, {"type": "node", "id": 2969276208, "lat": 41.4018796, "lon": 2.166807, "tags": {"amenity": "bar", "check_date": "2023-04-25", "name": "Cerveseria Oller", "name:ca": "Cerveseria Oller", "smoking": "outside", "wheelchair": "yes"}}, {"type": "node", "id": 2969276707, "lat": 41.4020744, "lon": 2.1709765, "tags": {"amenity": "bar", "name": "Insbruck"}}, {"type": "node", "id": 2969276825, "lat": 41.4010302, "lon": 2.1694115, "tags": {"amenity": "bar", "name": "Toni", "name:ca": "Can Joan"}}, {"type": "node", "id": 2969276827, "lat": 41.4007814, "lon": 2.1693528, "tags": {"amenity": "bar", "name": "Pereira"}}, {"type": "node", "id": 2969277282, "lat": 41.4007106, "lon": 2.1672657, "tags": {"amenity": "bar", "name": "Espai Caf\u00e8", "name:ca": "Espai Caf\u00e8"}}, {"type": "node", "id": 3009100214, "lat": 41.4078382, "lon": 2.1881211, "tags": {"addr:housenumber": "55", "addr:postcode": "08018", "addr:street": "Carrer del Clot", "amenity": "bar", "name": "Bodega Sopena", "phone": "+34 932311505", "wheelchair": "limited"}}, {"type": "node", "id": 3049368344, "lat": 41.4082815, "lon": 2.1885259, "tags": {"addr:city": "Barcelona", "addr:country": "ES", "addr:housenumber": "76", "addr:postcode": "08018", "addr:street": "Carrer del Clot", "amenity": "bar", "name": "Clot76", "outdoor_seating": "no", "wheelchair": "no"}}, {"type": "node", "id": 3157278771, "lat": 41.4141072, "lon": 2.1811729, "tags": {"amenity": "bar", "name": "L'Ombra"}}, {"type": "node", "id": 3586001258, "lat": 41.4117301, "lon": 2.1784624, "tags": {"addr:housenumber": "362", "addr:street": "Carrer de la Independ\u00e8ncia", "amenity": "bar", "name": "Los Panda Lounge", "payment:coins": "yes"}}, {"type": "node", "id": 3673161229, "lat": 41.4110582, "lon": 2.1614429, "tags": {"amenity": "bar"}}, {"type": "node", "id": 3713349650, "lat": 41.4108415, "lon": 2.1637178, "tags": {"amenity": "bar", "name": "Groin's", "outdoor_seating": "yes", "wheelchair": "yes"}}, {"type": "node", "id": 3892708824, "lat": 41.3970928, "lon": 2.1628073, "tags": {"addr:city": "Barcelona", "addr:housenumber": "365", "addr:street": "Avinguda Diagonal", "amenity": "bar", "entrance": "yes", "lgbtq:men": "only", "name": "New Chaps", "opening_hours": "Mo-Th 21:00-03:00; Fr-Sa 21:00-03:30; Su 19:00-03:00", "phone": "+34 932155365", "website": "http://www.newchaps.com/"}}, {"type": "node", "id": 3959114240, "lat": 41.4035629, "lon": 2.1603403, "tags": {"addr:housenumber": "80", "addr:street": "Carrer de Ram\u00f3n y Cajal", "amenity": "bar", "harassment_prevention": "No Callem", "name": "Heliog\u00e0bal", "sexual_antiharassment_policy": "yes", "sexual_antiharassment_policy:name": "NoCallem", "website": "https://www.heliogabal.com/"}}, {"type": "node", "id": 3996165257, "lat": 41.4016882, "lon": 2.1757519, "tags": {"addr:city": "Barcelona", "addr:housenumber": "292", "addr:postcode": "08013", "addr:street": "Carrer de Sardenya", "amenity": "bar", "description": "Bar barcelona : los due\u00f1os son muy majos ^.^", "name": "Bar barcelona"}}, {"type": "node", "id": 4011458618, "lat": 41.3983385, "lon": 2.182871, "tags": {"addr:city": "Barcelona", "addr:housenumber": "192", "addr:postcode": "08013", "addr:street": "Carrer de Casp", "amenity": "bar", "contact:facebook": "https://www.facebook.com/elcafeblau/", "name": "El Caf\u00e8 Blau", "opening_hours": "Mo-Fr 10:30-22:30; Sa 12:00-24:00; Su off", "phone": "+34 932 47 16 59", "smoking": "outside"}}, {"type": "node", "id": 4025634263, "lat": 41.4015434, "lon": 2.1643351, "tags": {"addr:city": "Barcelona", "addr:housenumber": "187", "addr:postcode": "08037", "addr:street": "Carrer de Bail\u00e8n", "amenity": "bar", "name": "C\u00e8ntric", "name:ca": "C\u00e8ntric", "smoking": "outside", "wheelchair": "no"}}, {"type": "node", "id": 4054706937, "lat": 41.4121053, "lon": 2.1626415, "tags": {"amenity": "bar"}}, {"type": "node", "id": 4054706938, "lat": 41.4122341, "lon": 2.1644891, "tags": {"addr:housenumber": "2", "addr:street": "Pla\u00e7a d'Alfons el Savi", "amenity": "bar", "internet_access": "wlan", "name": "Can Chen"}}, {"type": "node", "id": 4128230391, "lat": 41.4069241, "lon": 2.1848471, "tags": {"addr:housenumber": "558", "addr:street": "Carrer d'Arag\u00f3", "amenity": "bar", "contact:facebook": "https://www.facebook.com/BodegaCarol", "name": "Bodega Carol", "opening_hours": "Tu, We 09:30-15:00, 18:00-22:00; Th 09:30-15:00, 18:00-23:00; Fr 09:30-23:30; Sa 11:30-23:30; Su 12:00-17:00", "phone": "+34 932 45 11 99"}}, {"type": "node", "id": 4150499794, "lat": 41.4023622, "lon": 2.1612062, "tags": {"addr:housenumber": "68", "addr:street": "Carrer de Mil\u00e0 i Fontanals", "amenity": "bar", "brewery": "yes", "check_date": "2024-09-17", "internet_access": "wlan", "internet_access:fee": "customers", "name": "El 68", "outdoor_seating": "no", "payment:cash": "yes", "payment:credit_cards": "yes", "payment:debit_cards": "yes", "wheelchair": "no"}}, {"type": "node", "id": 4210324695, "lat": 41.4034512, "lon": 2.1729699, "tags": {"addr:street": "Carrer de Proven\u00e7a", "amenity": "bar"}}, {"type": "node", "id": 4254071889, "lat": 41.392924, "lon": 2.175234, "tags": {"amenity": "bar", "name": "Noumades", "old_name": "Bar centro"}}, {"type": "node", "id": 4254709544, "lat": 41.3936112, "lon": 2.1747834, "tags": {"addr:housenumber": "43", "addr:street": "Carrer de Bail\u00e8n", "amenity": "bar", "check_date": "2024-10-19", "level": "0", "name": "Checkpoint Arcade"}}, {"type": "node", "id": 4321334989, "lat": 41.3955828, "lon": 2.1676294, "tags": {"addr:housenumber": "97", "addr:postcode": "08009", "addr:street": "Carrer del Bruc", "amenity": "bar", "name": "Bar Cugat", "name:ca": "Bar Cugat", "name:es": "Bar Cugat", "opening_hours": "Mo-Th 09:00-00:30; Fr 09:00-02:30; Sa 11:00-02:30", "phone": "+34 93 1398194", "website": "http://barcugat.com"}}, {"type": "node", "id": 4406708695, "lat": 41.401192, "lon": 2.1605852, "tags": {"addr:housenumber": "8", "addr:postcode": "08012", "addr:street": "Pla\u00e7a del Raspall", "amenity": "bar", "check_date": "2024-06-16", "contact:instagram": "raspallbcn", "cuisine": "regional;spanish", "dog": "yes", "internet_access": "wlan", "name": "Raspall", "name:ca": "Raspall", "opening_hours": "Mo-Th 18:30-02:00; Fr 12:00-16:00, 18:30-02:30; Sa 12:00-02:30; Su 12:00-02:00", "outdoor_seating": "yes", "payment:cash": "yes", "payment:credit_cards": "yes", "payment:debit_cards": "yes", "smoking": "outside"}}, {"type": "node", "id": 4423511507, "lat": 41.4098314, "lon": 2.1727363, "tags": {"addr:street": "Carrer de Sant Antoni Maria Claret", "amenity": "bar", "cuisine": "spanish", "name:en": "Nou Face"}}, {"type": "node", "id": 4534064194, "lat": 41.4103238, "lon": 2.1735754, "tags": {"amenity": "bar", "name:en": "Espa\u00f1ol"}}, {"type": "node", "id": 4547841604, "lat": 41.3961795, "lon": 2.1743904, "tags": {"amenity": "bar", "name": "Cosmopolita"}}, {"type": "node", "id": 4666225341, "lat": 41.4049984, "lon": 2.1642241, "tags": {"addr:housenumber": "303", "addr:street": "Roger de Flor", "amenity": "bar", "name": "Can Ros", "name:ca": "Can Ros", "opening_hours": "Mo-Fr 07:00-00:00, 09:00-18:00; Su 08:00-00:00"}}, {"type": "node", "id": 4667835089, "lat": 41.3972943, "lon": 2.1609117, "tags": {"addr:city": "Barcelona", "addr:country": "ES", "addr:housenumber": "189", "addr:street": "Carrer de Pau Claris", "amenity": "bar", "name": "Entrepanes D\u00edaz", "name:es": "Entrepanes D\u00edaz"}}, {"type": "node", "id": 4675181270, "lat": 41.4030154, "lon": 2.1735187, "tags": {"amenity": "bar"}}, {"type": "node", "id": 4719191291, "lat": 41.4045622, "lon": 2.1832598, "tags": {"amenity": "bar", "check_date": "2024-05-27", "name": "Casa Falc\u00f3n", "name:es": "Casa Falc\u00f3n", "opening_hours": "Mo-Sa"}}, {"type": "node", "id": 4719191292, "lat": 41.4037955, "lon": 2.1820599, "tags": {"amenity": "bar", "check_date": "2023-10-18", "name": "Ruta de Francia", "name:es": "Ruta de Francia"}}, {"type": "node", "id": 4719259890, "lat": 41.4054293, "lon": 2.1844074, "tags": {"amenity": "bar", "name": "Ribas D'o Sil", "name:es": "Ribas D'o Sil", "opening_hours": "Mo-Sa"}}, {"type": "node", "id": 4719260689, "lat": 41.3981541, "lon": 2.1778188, "tags": {"amenity": "bar", "name": "Yuste", "name:es": "Yuste", "opening_hours": "Mo-Su 08:00-01:00", "wheelchair": "limited"}}, {"type": "node", "id": 4726080090, "lat": 41.3995758, "lon": 2.1646553, "tags": {"addr:housenumber": "173", "addr:postcode": "08037", "addr:street": "Carrer de Girona", "amenity": "bar", "check_date": "2023-06-12", "entrance": "yes", "name": "La Gilda", "name:es": "La Gilda", "wheelchair": "no"}}, {"type": "node", "id": 4727204690, "lat": 41.4029163, "lon": 2.1631401, "tags": {"amenity": "bar", "check_date": "2023-08-29", "name": "Toni", "name:es": "Toni", "wheelchair": "no"}}, {"type": "node", "id": 4727954092, "lat": 41.4131841, "lon": 2.1814167, "tags": {"amenity": "bar", "name": "Lluna Plena", "name:ca": "Lluna Plena", "name:es": "Lluna Plena"}}, {"type": "node", "id": 4727975189, "lat": 41.410774, "lon": 2.1827069, "tags": {"amenity": "bar", "name": "Esber", "name:es": "Esber", "toilets:wheelchair": "no", "wheelchair": "limited"}}, {"type": "node", "id": 4728093792, "lat": 41.4122174, "lon": 2.180827, "tags": {"amenity": "bar", "name": "La Uni\u00f3n", "name:es": "La Uni\u00f3n"}}, {"type": "node", "id": 4762854028, "lat": 41.3942127, "lon": 2.1739835, "tags": {"amenity": "bar", "check_date": "2023-10-03", "name": "Len's Comic Cafe", "name:es": "Len's Comic Cafe"}}, {"type": "node", "id": 4776357933, "lat": 41.4102114, "lon": 2.1714804, "tags": {"amenity": "bar", "name": "Bar Luis", "name:es": "Bar Luis"}}, {"type": "node", "id": 4776357936, "lat": 41.4111044, "lon": 2.1746442, "tags": {"amenity": "bar", "cuisine": "sandwich", "internet_access": "wlan", "name": "Garrofer Gaud\u00ed"}}, {"type": "node", "id": 4776358125, "lat": 41.4126587, "lon": 2.1767507, "tags": {"amenity": "bar", "name": "Cruzeiro", "name:es": "Cruzeiro", "wheelchair": "no"}}, {"type": "node", "id": 4776361626, "lat": 41.4049049, "lon": 2.1637078, "tags": {"amenity": "bar", "check_date": "2024-03-11", "name": "O Barqui\u00f1o", "name:es": "O Barqui\u00f1o"}}, {"type": "node", "id": 4776361630, "lat": 41.40911, "lon": 2.1707234, "tags": {"amenity": "bar", "name": "Frankfurt", "name:ca": "Frankfurt", "name:es": "Frankfurt"}}, {"type": "node", "id": 4776361631, "lat": 41.409509, "lon": 2.1706685, "tags": {"amenity": "bar", "name": "La Graella", "name:ca": "La Graella", "wheelchair": "no"}}, {"type": "node", "id": 4776361636, "lat": 41.4134869, "lon": 2.1778053, "tags": {"amenity": "bar", "name": "SQ-47", "name:es": "SQ-47"}}, {"type": "node", "id": 4777016825, "lat": 41.4109185, "lon": 2.1825195, "tags": {"amenity": "bar"}}, {"type": "node", "id": 4777016826, "lat": 41.4091439, "lon": 2.184618, "tags": {"addr:housenumber": "25", "addr:street": "Carrer de Rogent", "amenity": "bar", "name": "Gent del Barri", "name:ca": "Gent del Barri", "toilets:wheelchair": "no", "wheelchair": "limited"}}, {"type": "node", "id": 4779817139, "lat": 41.4130954, "lon": 2.1806328, "tags": {"amenity": "bar", "name": "Pika Tapa", "name:es": "Pika Tapa"}}, {"type": "node", "id": 4779817140, "lat": 41.4110149, "lon": 2.1823682, "tags": {"amenity": "bar", "name": "El rovell del clot", "name:ca": "El rovell del clot", "toilets:wheelchair": "no", "wheelchair": "yes"}}, {"type": "node", "id": 4789751822, "lat": 41.4142674, "lon": 2.180649, "tags": {"amenity": "bar", "name": "Lisboa", "name:es": "Lisboa"}}, {"type": "node", "id": 4837818021, "lat": 41.3998511, "lon": 2.1600282, "tags": {"addr:city": "Barcelona", "addr:housenumber": "48", "addr:postcode": "08012", "addr:street": "Carrer del Torrent de l'Olla", "amenity": "bar", "check_date": "2024-09-14", "name": "Copa", "wheelchair": "no"}}, {"type": "node", "id": 5048599922, "lat": 41.4059084, "lon": 2.1604518, "tags": {"addr:housenumber": "43", "addr:street": "Carrer del Torrent de les Flors", "amenity": "bar", "cuisine": "hot_dog;tapas", "name": "Speed 58", "name:ca": "Speed 58"}}, {"type": "node", "id": 5048602524, "lat": 41.4059162, "lon": 2.1606083, "tags": {"addr:housenumber": "46", "addr:postcode": "08024", "addr:street": "Carrer del Torrent de les Flors", "amenity": "bar", "check_date": "2023-10-14", "contact:facebook": "https://www.facebook.com/el.colleccionista/", "contact:instagram": "elcol.leccionista", "contact:tripadvisor": "https://www.tripadvisor.es/Attraction_Review-g187497-d8488778-Reviews-El_Col_leccionista-Barcelona_Catalonia.html", "live_music": "yes", "name": "El Col\u00b7leccionista", "name:ca": "El Col\u00b7leccionista", "name:es": "El Coleccionista", "opening_hours": "Th-Sa 21:00-03:00", "piano": "yes"}}, {"type": "node", "id": 5048602525, "lat": 41.4043091, "lon": 2.1612896, "tags": {"amenity": "bar", "check_date": "2024-02-09", "cuisine": "tapas", "name": "Blau Cel", "name:ca": "Blau Cel", "outdoor_seating": "yes"}}, {"type": "node", "id": 5048602532, "lat": 41.4083753, "lon": 2.1601301, "tags": {"addr:housenumber": "117", "addr:street": "Carrer de l'Escorial", "amenity": "bar", "name": "Inch", "name:ca": "Inch", "wheelchair": "limited"}}, {"type": "node", "id": 5048602534, "lat": 41.4061628, "lon": 2.1622541, "tags": {"addr:housenumber": "11,13", "addr:street": "Carrer de l'Escorial", "amenity": "bar", "name": "Navia 2", "name:ca": "Navia 2", "wheelchair": "no"}}, {"type": "node", "id": 5076555929, "lat": 41.4060079, "lon": 2.1655839, "tags": {"amenity": "bar", "name": "Malabar", "name:ca": "Malabar", "name:en": "Malabar", "name:es": "Malabar"}}, {"type": "node", "id": 5135765321, "lat": 41.4100051, "lon": 2.1622617, "tags": {"addr:street": "Carrer de Pau Alsina", "amenity": "bar", "name": "Cervesaria Marqu\u00e9s", "name:ca": "Cervesaria Marqu\u00e9s"}}, {"type": "node", "id": 5163167623, "lat": 41.4098824, "lon": 2.1623858, "tags": {"addr:street": "Carrer de Pau Alsina", "amenity": "bar", "name": "La Catalana", "name:ca": "La Catalana"}}, {"type": "node", "id": 5163167624, "lat": 41.4132326, "lon": 2.1632293, "tags": {"addr:street": "Carrer de les Cam\u00e8lies", "amenity": "bar", "name": "Rafa", "name:ca": "Rafa"}}, {"type": "node", "id": 5186368721, "lat": 41.4070677, "lon": 2.1827567, "tags": {"addr:housenumber": "554", "addr:street": "Carrer de Val\u00e8ncia", "amenity": "bar", "check_date": "2023-05-10", "name": "Delas", "name:ca": "Delas"}}, {"type": "node", "id": 5190930121, "lat": 41.4070235, "lon": 2.1818566, "tags": {"addr:housenumber": "239", "addr:street": "Carrer del Dos de Maig", "amenity": "bar", "check_date": "2023-05-10", "name": "Casa \u00c1ngel", "name:ca": "Casa \u00c1ngel"}}, {"type": "node", "id": 5198200835, "lat": 41.3978535, "lon": 2.1627843, "tags": {"addr:housenumber": "124", "addr:postcode": "08037", "addr:street": "Carrer de Roger de Ll\u00faria", "amenity": "bar", "check_date": "2024-07-01", "name": "Bauma", "name:ca": "Bauma", "wheelchair": "no"}}, {"type": "node", "id": 5198200924, "lat": 41.3937883, "lon": 2.1727144, "tags": {"amenity": "bar", "check_date": "2024-10-20", "name": "Sidreria el Furaco", "name:ca": "Sidreria el Furaco"}}, {"type": "node", "id": 5198201034, "lat": 41.3981841, "lon": 2.1617222, "tags": {"addr:housenumber": "344-352", "addr:postcode": "08037", "addr:street": "Carrer de C\u00f2rsega", "amenity": "bar", "entrance": "yes", "name": "El Chiringuito Bar", "name:ca": "El Chiringuito Bar", "wheelchair": "yes;limited"}}, {"type": "node", "id": 5198633426, "lat": 41.4054675, "lon": 2.161904, "tags": {"addr:street": "Carrer de Bruniquer", "amenity": "bar", "name": "Baloo", "name:ca": "Baloo", "wheelchair": "limited"}}, {"type": "node", "id": 5198645321, "lat": 41.4057577, "lon": 2.1623966, "tags": {"addr:street": "Carrer de Bruniquer", "amenity": "bar", "name": "De Copas", "name:es": "De Copas", "wheelchair": "no"}}, {"type": "node", "id": 5200135123, "lat": 41.4091036, "lon": 2.1632227, "tags": {"addr:street": "Carrer de Pau Alsina", "amenity": "bar", "name": "Coloma", "name:ca": "Coloma", "opening_hours:signed": "no"}}, {"type": "node", "id": 5200135126, "lat": 41.4075212, "lon": 2.1637628, "tags": {"addr:street": "Carrer de Pi i Margall", "amenity": "bar", "name": "Calder\u00f3n", "name:ca": "Calder\u00f3n", "wheelchair": "no"}}, {"type": "node", "id": 5200163421, "lat": 41.4065794, "lon": 2.1630872, "tags": {"addr:housenumber": "15", "addr:street": "Carrer de Pi i Margall", "amenity": "bar", "name": "Frankfurt Monfort", "name:ca": "Frankfurt Monfort", "wheelchair": "no"}}, {"type": "node", "id": 5209300421, "lat": 41.4000239, "lon": 2.1681962, "tags": {"addr:housenumber": "111B", "addr:street": "Passeig de Sant Joan", "amenity": "bar", "name": "Gredos", "name:ca": "Gredos", "smoking": "outside"}}, {"type": "node", "id": 5209300521, "lat": 41.4040796, "lon": 2.1624313, "tags": {"amenity": "bar", "name": "The Butcher", "name:ca": "The Butcher"}}, {"type": "node", "id": 5226505321, "lat": 41.4025586, "lon": 2.1609645, "tags": {"addr:housenumber": "72", "addr:postcode": "08012", "addr:street": "Carrer de Mil\u00e0 i Fontanals", "amenity": "bar", "check_date": "2024-01-23", "contact:instagram": "bodegamarin", "cuisine": "tapas", "name": "Bodega E. Marin", "opening_hours": "Mo-Fr 07:00-15:00, 17:00-22:00; Sa 08:00-15:00", "outdoor_seating": "standing", "shop": "alcohol", "start_date": "1896"}}, {"type": "node", "id": 5327570662, "lat": 41.3977332, "lon": 2.1656576, "tags": {"addr:housenumber": "340", "addr:postcode": "08037", "addr:street": "Carrer de Proven\u00e7a", "amenity": "bar", "level": "0", "name": "Ancestral", "outdoor_seating": "yes", "wheelchair": "yes"}}, {"type": "node", "id": 5494755522, "lat": 41.4003335, "lon": 2.1714778, "tags": {"addr:housenumber": "354", "addr:street": "Carrer de Mallorca", "amenity": "bar", "name": "Tapas & Bar siqui", "name:ru": "\u0410\u0437\u0438\u0430\u0442\u0441\u043a\u0430\u044f \u043a\u0443\u0445\u043d\u044f"}}, {"type": "node", "id": 5880596385, "lat": 41.4010072, "lon": 2.1761471, "tags": {"addr:housenumber": "310", "addr:postcode": "08013", "addr:street": "Avinguda Diagonal", "amenity": "bar", "name:en": "En Diagonal Bar"}}, {"type": "node", "id": 5914744894, "lat": 41.402071, "lon": 2.1647815, "tags": {"addr:city": "Barcelona", "addr:housenumber": "8", "addr:postcode": "08037", "addr:street": "Carrer de la Ind\u00fastria", "amenity": "bar", "check_date": "2024-10-06", "dog": "no", "name": "Vesta", "outdoor_seating": "yes", "smoking": "outside", "source": "survey", "wheelchair": "no"}}, {"type": "node", "id": 6030376285, "lat": 41.398619, "lon": 2.18006, "tags": {"addr:housenumber": "731", "addr:street": "Gran Via de les Corts Catalanes (lateral muntanya)", "amenity": "bar", "name": "Bar Granvja", "name:ca": "Gran Via", "name:es": "Gran V\u00eda", "phone": "+34 9363226"}}, {"type": "node", "id": 6069532287, "lat": 41.3973502, "lon": 2.1607595, "tags": {"addr:housenumber": "318", "addr:postcode": "08037", "addr:street": "Carrer de C\u00f2rsega", "amenity": "bar", "entrance": "yes", "name": "MutiClub", "phone": "+34 933885866"}}, {"type": "node", "id": 6093865397, "lat": 41.3975795, "lon": 2.1646733, "tags": {"amenity": "bar", "name": "Why Not"}}, {"type": "node", "id": 6093886612, "lat": 41.4001066, "lon": 2.1728166, "tags": {"addr:housenumber": "340", "addr:street": "Avinguda Diagonal", "amenity": "bar", "check_date": "2024-10-22", "name": "Kadushi"}}, {"type": "node", "id": 6121076545, "lat": 41.4019324, "lon": 2.1795042, "tags": {"addr:housenumber": "7", "addr:street": "Carrer Enamorats", "amenity": "bar", "name": "Balcony"}}, {"type": "node", "id": 6121155277, "lat": 41.4061796, "lon": 2.1860894, "tags": {"amenity": "bar", "name": "Bar La Fusta"}}, {"type": "node", "id": 6122391672, "lat": 41.4079845, "lon": 2.186163, "tags": {"addr:housenumber": "584", "addr:street": "Carrer Arag\u00f3", "amenity": "bar", "name": "AKBAR"}}, {"type": "node", "id": 6125429032, "lat": 41.4080485, "lon": 2.1840719, "tags": {"amenity": "bar", "name": "Galicia Bar"}}, {"type": "node", "id": 6164496085, "lat": 41.3993226, "lon": 2.1603032, "tags": {"addr:housenumber": "21", "addr:street": "Carrer del Torrent de l'Olla", "amenity": "bar", "check_date": "2024-05-05", "name": "El Cine", "phone": "+34 932177852", "wheelchair": "no"}}, {"type": "node", "id": 6179289415, "lat": 41.4006622, "lon": 2.1748892, "tags": {"addr:city": "Barcelona", "addr:country": "ES", "amenity": "bar", "name": "Casa Rufo's"}}, {"type": "node", "id": 6196317429, "lat": 41.4059417, "lon": 2.1860262, "tags": {"amenity": "bar", "description": "comprobar nombre", "name": "Bar 27"}}, {"type": "node", "id": 6332589894, "lat": 41.3966874, "lon": 2.1736776, "tags": {"amenity": "bar", "name": "Baccardi Cafe", "wheelchair": "yes"}}, {"type": "node", "id": 6333084528, "lat": 41.4000156, "lon": 2.1637603, "tags": {"addr:street": "Carrer de C\u00f2rsega", "amenity": "bar", "check_date": "2024-04-11", "name": "costa sol", "not:brand:wikidata": "Q608845", "wheelchair": "no"}}, {"type": "node", "id": 6333755193, "lat": 41.3987032, "lon": 2.1811514, "tags": {"amenity": "bar", "cuisine": "tapas", "name": "Bar Marina"}}, {"type": "node", "id": 6357834156, "lat": 41.3936947, "lon": 2.1648505, "tags": {"addr:housenumber": "286", "addr:postcode": "08007", "addr:street": "Carrer de Val\u00e8ncia", "amenity": "bar", "name": "Les gens que j'aime bar"}}, {"type": "node", "id": 6497296642, "lat": 41.4095451, "lon": 2.1605136, "tags": {"amenity": "bar", "facebook": "https://www.facebook.com/rosmay.restaurante", "name": "Rosmay", "opening_hours": "Mo-Sa 07:00-02:00"}}, {"type": "node", "id": 6574151685, "lat": 41.3938207, "lon": 2.1633655, "tags": {"amenity": "bar", "check_date": "2023-07-14", "name": "la vinoteca terassa"}}, {"type": "node", "id": 6750085589, "lat": 41.4066414, "lon": 2.1800529, "tags": {"addr:street": "Carrer de Cartagena", "amenity": "bar", "name": "Olimpo"}}, {"type": "node", "id": 6750095387, "lat": 41.4056447, "lon": 2.1796519, "tags": {"addr:housenumber": "246 bis", "addr:street": "Carrer de los Castillejos", "amenity": "bar", "check_date": "2023-05-10", "name": "El Cafete"}}, {"type": "node", "id": 6757278789, "lat": 41.3997955, "lon": 2.1753577, "tags": {"addr:street": "Carrer d'Arag\u00f3", "amenity": "bar", "name": "Taverna Chrison"}}, {"type": "node", "id": 6757314485, "lat": 41.4035327, "lon": 2.1803575, "tags": {"amenity": "bar", "check_date": "2023-10-18", "name": "Can Tansi"}}, {"type": "node", "id": 6776762191, "lat": 41.4106847, "lon": 2.1809559, "tags": {"addr:housenumber": "89", "addr:street": "Carrer de Xifr\u00e9", "amenity": "bar", "name": "Frankfurt Rafa", "name:ca": "Frankfurt Rafa"}}, {"type": "node", "id": 6805613287, "lat": 41.4064936, "lon": 2.176386, "tags": {"amenity": "bar", "internet_access": "wlan", "name": "Enoteca monkstation"}}, {"type": "node", "id": 6855395487, "lat": 41.4112298, "lon": 2.1643267, "tags": {"addr:housenumber": "93-95", "addr:street": "Carrer de Pi i Margall", "amenity": "bar", "cuisine": "tapas", "internet_access": "wlan", "name": "Vermuteria Lorenz"}}, {"type": "node", "id": 6972592685, "lat": 41.3985694, "lon": 2.1622287, "tags": {"amenity": "bar", "check_date": "2023-11-02", "name": "Luzi", "wheelchair": "limited"}}, {"type": "node", "id": 7095376857, "lat": 41.4093913, "lon": 2.1857393, "tags": {"addr:housenumber": "606", "addr:street": "Carrer de Val\u00e8ncia", "amenity": "bar"}}, {"type": "node", "id": 7124857728, "lat": 41.3964797, "lon": 2.1851438, "tags": {"addr:city": "Barcelona", "addr:housenumber": "124", "addr:postcode": "08013", "addr:street": "Carrer de la Marina", "amenity": "bar", "check_date": "2024-09-24", "contact:instagram": "https://www.instagram.com/cabobarbcn", "internet_access": "wlan", "internet_access:fee": "customers", "level": "0", "name": "Cabo", "outdoor_seating": "yes", "payment:cash": "yes", "payment:credit_cards": "yes", "payment:debit_cards": "yes", "phone": "+34 936 76 23 54", "smoking": "outside", "website": "https://grupocabo.es/cabo-bar/", "wheelchair": "yes"}}, {"type": "node", "id": 7572644787, "lat": 41.3973555, "lon": 2.1856288, "tags": {"amenity": "bar", "name": "Cerveseria del Roser", "name:ca": "Cerveseria del Roser"}}, {"type": "node", "id": 7572733712, "lat": 41.3957533, "lon": 2.1819773, "tags": {"amenity": "bar", "name": "las 4Estaciones"}}, {"type": "node", "id": 7847211885, "lat": 41.3927616, "lon": 2.1659528, "tags": {"amenity": "bar", "name": "CocoVail - WINGS"}}, {"type": "node", "id": 7989011188, "lat": 41.410666, "lon": 2.1747712, "tags": {"addr:housenumber": "317", "addr:street": "Carrer de Cartagena", "amenity": "bar", "name": "Bodega la Parra"}}, {"type": "node", "id": 8438977118, "lat": 41.41146, "lon": 2.1759765, "tags": {"addr:housenumber": "319", "addr:street": "Carrer del Dos de Maig", "amenity": "bar", "name": "Bar Bagianni"}}, {"type": "node", "id": 8497996717, "lat": 41.4028732, "lon": 2.16052, "tags": {"addr:housenumber": "88", "addr:street": "Carrer de Mil\u00e0 i Fontanals", "amenity": "bar", "check_date": "2024-06-01", "name": "La Graciosa", "wheelchair": "no"}}, {"type": "node", "id": 8506259430, "lat": 41.4023604, "lon": 2.1673468, "tags": {"addr:housenumber": "450", "addr:street": "Carrer de C\u00f2rsega", "amenity": "bar", "name": "Casa Vostra", "wheelchair": "limited"}}, {"type": "node", "id": 8506259726, "lat": 41.4092381, "lon": 2.1759967, "tags": {"addr:housenumber": "621", "addr:street": "Carrer de C\u00f2rsega", "amenity": "bar", "name": "Frankfurt Galicia"}}, {"type": "node", "id": 8529650617, "lat": 41.4098546, "lon": 2.1736868, "tags": {"addr:housenumber": "345", "addr:street": "Carrer de los Castillejos", "amenity": "bar", "name": "Celler Miquel", "name:ca": "Celler Miquel", "opening_hours": "Tu 19:00-22:30; We-Fr 11:30-15:00, 19:00-22:30; Sa-Su 11:30-15:30"}}, {"type": "node", "id": 8564811126, "lat": 41.4116278, "lon": 2.1762189, "tags": {"addr:housenumber": "326", "addr:street": "Carrer del Dos de Maig", "amenity": "bar", "name": "Bodega Montferry"}}, {"type": "node", "id": 8578962719, "lat": 41.3962828, "lon": 2.173227, "tags": {"addr:housenumber": "47", "addr:street": "Passeig de Sant Joan", "amenity": "bar", "indoor_seating": "yes", "name": "Sort", "name:ca": "Sort", "outdoor_seating": "yes"}}, {"type": "node", "id": 8871044720, "lat": 41.4087359, "lon": 2.1751526, "tags": {"addr:housenumber": "611", "addr:street": "Carrer de C\u00f2rsega", "amenity": "bar", "name": "La Cervesaria Clandestina"}}, {"type": "node", "id": 9230750652, "lat": 41.3936062, "lon": 2.1766939, "tags": {"amenity": "bar", "name": "local"}}, {"type": "node", "id": 9735540586, "lat": 41.3969724, "lon": 2.1715371, "tags": {"addr:housenumber": "364", "addr:street": "Carrer d'Arag\u00f3", "amenity": "bar", "internet_access": "wlan", "name": "La Cueva Lounge Club", "name:ca": "Transcendir"}}, {"type": "node", "id": 10118537517, "lat": 41.3939461, "lon": 2.1787407, "tags": {"amenity": "bar", "name": "Bescuit"}}, {"type": "node", "id": 10175898599, "lat": 41.3977448, "lon": 2.171293, "tags": {"amenity": "bar", "name": "100 Montaditos"}}, {"type": "node", "id": 10202550005, "lat": 41.4009959, "lon": 2.1814915, "tags": {"amenity": "bar", "name": "Bar restaurante gaza"}}, {"type": "node", "id": 10695734808, "lat": 41.4134561, "lon": 2.1694985, "tags": {"addr:city": "Barcelona", "addr:housenumber": "69", "addr:postcode": "08024", "addr:street": "Ronda del Guinard\u00f3", "amenity": "bar", "name": "La Perla", "opening_hours": "Mo-Fr 07:00-16:00; Su 08:00-14:00"}}, {"type": "node", "id": 10763427298, "lat": 41.404541, "lon": 2.1735047, "tags": {"amenity": "bar", "name": "Sagrades Tannines"}}, {"type": "node", "id": 10785206630, "lat": 41.3947399, "lon": 2.1816521, "tags": {"amenity": "bar", "name": "La Llesca"}}, {"type": "node", "id": 10785247110, "lat": 41.3936986, "lon": 2.1789779, "tags": {"amenity": "bar", "name": "Bescuit"}}, {"type": "node", "id": 10911844605, "lat": 41.4076793, "lon": 2.1739026, "tags": {"amenity": "bar", "name:en": "BEERIVINS - cerveseria"}}, {"type": "node", "id": 11100962505, "lat": 41.3955024, "lon": 2.1677449, "tags": {"addr:housenumber": "97", "addr:street": "Carrer del Bruc", "amenity": "bar", "name:en": "Bar Dow Jones", "website": "http://Dowjonesbar.com"}}, {"type": "node", "id": 11150233030, "lat": 41.3978501, "lon": 2.1608863, "tags": {"addr:housenumber": "339", "addr:street": "Carrer de C\u00f2rsega", "amenity": "bar", "check_date": "2024-07-13", "name": "mini pepita", "wheelchair": "no"}}, {"type": "node", "id": 11150234664, "lat": 41.3978138, "lon": 2.1608423, "tags": {"addr:housenumber": "339", "addr:street": "Carrer de C\u00f2rsega", "amenity": "bar", "check_date": "2024-07-13", "internet_access": "no", "name": "Bodega Solera"}}, {"type": "node", "id": 11186236506, "lat": 41.3976893, "lon": 2.1656118, "tags": {"amenity": "bar", "level": "0", "name": "Bar Joan", "outdoor_seating": "yes", "wheelchair": "limited"}}, {"type": "node", "id": 11189068324, "lat": 41.3976002, "lon": 2.1649817, "tags": {"amenity": "bar", "check_date": "2024-05-18", "level": "0", "name": "Salto Alto", "outdoor_seating": "yes", "wheelchair": "limited"}}, {"type": "node", "id": 11308435590, "lat": 41.4006099, "lon": 2.164993, "tags": {"addr:housenumber": "416", "addr:street": "Carrer de C\u00f2rsega", "amenity": "bar", "check_date": "2023-11-02", "name": "Tapitas Bar"}}, {"type": "node", "id": 11308448562, "lat": 41.4005936, "lon": 2.1654911, "tags": {"amenity": "bar", "check_date": "2023-11-02", "name": "Schultz", "smoking": "outside"}}, {"type": "node", "id": 11358114297, "lat": 41.3932964, "lon": 2.1705787, "tags": {"amenity": "bar", "name": "Adlivitum", "opening_hours": "Mo-Fr 09:30-23:00"}}, {"type": "node", "id": 11358377944, "lat": 41.3937062, "lon": 2.1693831, "tags": {"amenity": "bar", "check_date": "2024-05-04", "name": "Animar"}}, {"type": "node", "id": 11384477969, "lat": 41.4035628, "lon": 2.1600702, "tags": {"amenity": "bar", "name": "Canana"}}, {"type": "node", "id": 11491702269, "lat": 41.3981735, "lon": 2.1704068, "tags": {"addr:postcode": "08009", "amenity": "bar", "contact:facebook": "LordByronBarcelona", "name": "Lord Byron", "opening_hours": "Su-Th 23:30-04:45; Fr-Sa 23:30-05:30"}}, {"type": "node", "id": 11565226969, "lat": 41.4073492, "lon": 2.1781014, "tags": {"addr:city": "Barcelona", "addr:housenumber": "505", "addr:postcode": "08025", "addr:street": "Carrer de Proven\u00e7a", "amenity": "bar", "brewery": "yes", "name": "Pivobar"}}, {"type": "node", "id": 11684558635, "lat": 41.4004935, "lon": 2.1631813, "tags": {"addr:city": "Barcelona", "addr:postcode": "08012", "addr:street": "Carrer de Mil\u00e0 i Fontanals", "amenity": "bar", "name": "Gracia's Bar"}}, {"type": "node", "id": 11728773869, "lat": 41.4057074, "lon": 2.1700289, "tags": {"addr:housenumber": "361", "addr:postcode": "08025", "addr:street": "Carrer de Sardenya", "amenity": "bar", "cuisine": "tapas", "name": "Bodega Iturre", "opening_hours": "Mo-Fr 09:30-14:00, 17:30-22:00; Sa-Su 10:00-15:00"}}, {"type": "node", "id": 11880924678, "lat": 41.4055775, "lon": 2.1620441, "tags": {"addr:housenumber": "57", "addr:street": "Carrer de Bruniquer", "amenity": "bar", "check_date": "2024-05-05", "name": "La Sala"}}, {"type": "node", "id": 11886487036, "lat": 41.4055774, "lon": 2.162044, "tags": {"addr:housenumber": "57", "addr:street": "Carrer de Bruniquer", "amenity": "bar", "check_date": "2024-05-05", "name": "La Sala"}}, {"type": "node", "id": 12186811702, "lat": 41.4098902, "lon": 2.1711906, "tags": {"amenity": "bar", "name": "TWIST"}}, {"type": "node", "id": 12222704601, "lat": 41.3990948, "lon": 2.1747046, "tags": {"addr:housenumber": "196", "addr:postcode": "08013", "addr:street": "Carrer de N\u00e0pols", "amenity": "bar", "check_date": "2024-10-22", "contact:facebook": "milanesabarcelona", "contact:instagram": "milanesabarcelona", "cuisine": "argentinian", "email": "milanesabarcelona@gmail.com", "fixme": "duplicate", "name": "Milanesa", "opening_hours": "Mo-Sa 11:00-00:00; Su 13:00-23:00", "phone": "607958726", "website": "https://milanesabarcelona.com/", "website:menu": "http://milanesabarcelona.com/cartamilanesabar"}}, {"type": "node", "id": 12279064242, "lat": 41.3989837, "lon": 2.168096, "tags": {"amenity": "bar", "check_date": "2024-10-22", "name": "La Tasca d'Or"}}, {"type": "node", "id": 12299278928, "lat": 41.4034432, "lon": 2.1613955, "tags": {"addr:housenumber": "210", "addr:street": "Travessera de Gr\u00e0cia", "amenity": "bar", "check_date": "2024-10-30", "level": "0", "name": "Bar Costa Rica"}}, {"type": "node", "id": 12373325901, "lat": 41.4068168, "lon": 2.1841962, "tags": {"amenity": "bar", "contact:city": "Barcelona", "contact:housenumber": "551", "contact:phone": "+34 650 32 31 65", "contact:postcode": "8026", "contact:street": "Carrer d'Arag\u00f3", "name": "BPM Bar", "website": "https://www.privateaser.es/local/51140-bpm-bar"}}, {"type": "node", "id": 12384358374, "lat": 41.400399, "lon": 2.1823507, "tags": {"amenity": "bar"}}, {"type": "node", "id": 12461428227, "lat": 41.3991021, "lon": 2.1708201, "tags": {"addr:city": "Barcelona", "addr:country": "ES", "addr:housenumber": "323", "addr:postcode": "08009", "addr:street": "Avinguda Diagonal", "amenity": "bar", "mobile": "+34 649 73 24 84", "name": "La clave", "opening_hours": "Tu-Su 20:00-03:00;"}}, {"type": "node", "id": 12493096601, "lat": 41.4093155, "lon": 2.171607, "tags": {"addr:housenumber": "127", "addr:street": "Carrer de Sant Antoni Maria Claret", "amenity": "bar", "name": "Capit\u00e1n K10"}}, {"type": "node", "id": 12613187125, "lat": 41.4108163, "lon": 2.1826425, "tags": {"addr:housenumber": "100", "addr:street": "Carrer de Rogent", "amenity": "bar", "check_date": "2025-02-23", "name": "Bar Do"}}, {"type": "node", "id": 12684307703, "lat": 41.4088531, "lon": 2.1792682, "tags": {"amenity": "bar", "contact:city": "Barcelona", "contact:housenumber": "277", "contact:phone": "+34 910 78 06 76", "contact:postcode": "08025", "contact:street": "Carrer Del Dos de Maig", "name": "Neverland Cocktail Bar", "website": "https://www.privateaser.es/local/51748-Neverland"}}, {"type": "way", "id": 132513778, "nodes": [1457557311, 1457557312, 1457557314, 1457557313, 1457557311], "tags": {"amenity": "bar", "building": "yes"}}]}