{"version": 0.6, "generator": "Overpass API 0.7.62.5 1bd436f1", "osm3s": {"timestamp_osm_base": "2025-03-24T09:17:02Z", "copyright": "The data included in this document is from www.openstreetmap.org. The data is made available under ODbL."}, "elements": [{"type": "node", "id": 1445594488, "lat": 41.3972642, "lon": 2.1810241, "tags": {"amenity": "bar", "name": "Bar Teatre", "source": "Trabajo de campo"}}, {"type": "node", "id": 1445598554, "lat": 41.3954743, "lon": 2.1819512, "tags": {"amenity": "bar", "name": "Bar Lugo", "source": "Trabajo de campo"}}, {"type": "node", "id": 1445598555, "lat": 41.3974156, "lon": 2.1815331, "tags": {"amenity": "bar", "name": "Bar Norte", "source": "Trabajo de campo"}}, {"type": "node", "id": 1445598556, "lat": 41.3955442, "lon": 2.1810719, "tags": {"amenity": "bar", "name": "Bar Territori", "source": "Trabajo de campo"}}, {"type": "node", "id": 1445598558, "lat": 41.3971799, "lon": 2.1817149, "tags": {"amenity": "bar", "name": "La Catrina", "phone": "+34935308087", "source": "Trabajo de campo"}}, {"type": "node", "id": 1445598561, "lat": 41.3955456, "lon": 2.181968, "tags": {"addr:housenumber": "35", "addr:postcode": "08013", "addr:street": "Carrer de Ribes", "amenity": "bar", "check_date": "2024-11-11", "email": "info@contracorrentbar.com", "name": "Contracorrent", "opening_hours": "Mo,Th 17:30-23:00; Fr-Su 12:30-16:30,19:00-23:00", "outdoor_seating": "yes", "phone": "+34 608865917", "website": "https://contracorrentbar.com/"}}, {"type": "node", "id": 1457557311, "lat": 41.4040098, "lon": 2.1753482}, {"type": "node", "id": 1457557312, "lat": 41.4040364, "lon": 2.1753376}, {"type": "node", "id": 1457557313, "lat": 41.4040385, "lon": 2.1754764}, {"type": "node", "id": 1457557314, "lat": 41.4040651, "lon": 2.1754658}, {"type": "node", "id": 1497569346, "lat": 41.3890209, "lon": 2.1865838}, {"type": "node", "id": 1497569348, "lat": 41.3890338, "lon": 2.1866325}, {"type": "node", "id": 1497569350, "lat": 41.3890433, "lon": 2.1866683}, {"type": "node", "id": 1497569360, "lat": 41.3890624, "lon": 2.1865643}, {"type": "node", "id": 1497569361, "lat": 41.3890848, "lon": 2.1866488}, {"type": "node", "id": 2085728733, "lat": 41.3906905, "lon": 2.1983305, "tags": {"amenity": "bar", "name": "Bamb\u00fa Beach Bar"}}, {"type": "node", "id": 2187257123, "lat": 41.4047259, "lon": 2.1943414, "tags": {"amenity": "bar", "name": "24 mm"}}, {"type": "node", "id": 2193095338, "lat": 41.40326, "lon": 2.1985353, "tags": {"addr:housenumber": "118", "addr:street": "Rambla de Poblenou", "amenity": "bar", "name": "Beercelona bar"}}, {"type": "node", "id": 2329426402, "lat": 41.4082453, "lon": 2.1842843, "tags": {"amenity": "bar", "name": "Bodega Marcel Cava-vino"}}, {"type": "node", "id": 2576974231, "lat": 41.4003824, "lon": 2.1841121, "tags": {"amenity": "bar", "name": "Seneca"}}, {"type": "node", "id": 2918936192, "lat": 41.4035872, "lon": 2.2033968, "tags": {"amenity": "bar", "name": "Bar Restaurant Vendrell"}}, {"type": "node", "id": 2966340931, "lat": 41.4022886, "lon": 2.1998883, "tags": {"addr:housenumber": "100", "addr:street": "Rambla del Poblenou", "amenity": "bar", "indoor_seating": "yes", "name": "El Capritx", "outdoor_seating": "yes"}}, {"type": "node", "id": 3009100214, "lat": 41.4078382, "lon": 2.1881211, "tags": {"addr:housenumber": "55", "addr:postcode": "08018", "addr:street": "Carrer del Clot", "amenity": "bar", "name": "Bodega Sopena", "phone": "+34 932311505", "wheelchair": "limited"}}, {"type": "node", "id": 3009145177, "lat": 41.4086673, "lon": 2.1927392, "tags": {"addr:housenumber": "53", "addr:postcode": "08018", "addr:street": "Carrer de Sant Joan de Malta", "amenity": "bar", "contact:facebook": "https://www.facebook.com/CellerCaLaPaqui", "name": "Celler Ca la Paqui", "phone": "+34 654366853"}}, {"type": "node", "id": 3048076438, "lat": 41.4004427, "lon": 2.2022947, "tags": {"addr:city": "Barcelona", "addr:housenumber": "58", "addr:postcode": "08005", "addr:street": "Rambla del Poblenou", "amenity": "bar", "check_date": "2024-05-09", "contact:facebook": "https://m.facebook.com/el58poblenou", "cuisine": "tapas", "name": "le cinquante huit", "name:ca": "El 58", "smoking": "no"}}, {"type": "node", "id": 3049368344, "lat": 41.4082815, "lon": 2.1885259, "tags": {"addr:city": "Barcelona", "addr:country": "ES", "addr:housenumber": "76", "addr:postcode": "08018", "addr:street": "Carrer del Clot", "amenity": "bar", "name": "Clot76", "outdoor_seating": "no", "wheelchair": "no"}}, {"type": "node", "id": 3049395439, "lat": 41.4075568, "lon": 2.1891002, "tags": {"addr:city": "Barcelona", "addr:housenumber": "19", "addr:street": "Pla\u00e7a del Mercat", "amenity": "bar", "name": "El refugio de los 33"}}, {"type": "node", "id": 3504769719, "lat": 41.3908977, "lon": 2.1900669, "tags": {"amenity": "bar", "indoor_seating": "yes", "name": "El Rinc\u00f3n", "name:ca": "El Rac\u00f3", "not:brand:wikidata": "Q98456614", "outdoor_seating": "yes"}}, {"type": "node", "id": 3608776243, "lat": 41.4065498, "lon": 2.2032262, "tags": {"amenity": "bar", "name": "Jaume's"}}, {"type": "node", "id": 3996165257, "lat": 41.4016882, "lon": 2.1757519, "tags": {"addr:city": "Barcelona", "addr:housenumber": "292", "addr:postcode": "08013", "addr:street": "Carrer de Sardenya", "amenity": "bar", "description": "Bar barcelona : los due\u00f1os son muy majos ^.^", "name": "Bar barcelona"}}, {"type": "node", "id": 4011458618, "lat": 41.3983385, "lon": 2.182871, "tags": {"addr:city": "Barcelona", "addr:housenumber": "192", "addr:postcode": "08013", "addr:street": "Carrer de Casp", "amenity": "bar", "contact:facebook": "https://www.facebook.com/elcafeblau/", "name": "El Caf\u00e8 Blau", "opening_hours": "Mo-Fr 10:30-22:30; Sa 12:00-24:00; Su off", "phone": "+34 932 47 16 59", "smoking": "outside"}}, {"type": "node", "id": 4128230391, "lat": 41.4069241, "lon": 2.1848471, "tags": {"addr:housenumber": "558", "addr:street": "Carrer d'Arag\u00f3", "amenity": "bar", "contact:facebook": "https://www.facebook.com/BodegaCarol", "name": "Bodega Carol", "opening_hours": "Tu, We 09:30-15:00, 18:00-22:00; Th 09:30-15:00, 18:00-23:00; Fr 09:30-23:30; Sa 11:30-23:30; Su 12:00-17:00", "phone": "+34 932 45 11 99"}}, {"type": "node", "id": 4137545690, "lat": 41.3886077, "lon": 2.1801454, "tags": {"addr:housenumber": "10", "addr:street": "Carrer de les Basses de Sant Pere", "amenity": "bar", "name": "Paspartu"}}, {"type": "node", "id": 4190964190, "lat": 41.3886068, "lon": 2.1801679, "tags": {"addr:housenumber": "10", "addr:street": "Carrer de les Basses de Sant Pere", "amenity": "bar", "name": "Ale&Hop", "opening_hours": "Mo-We 17:00-01:30; Th 17:00-02:30; Fr 17:00-03:00; Sa 13:00-03:00; Su 13:00-01:30"}}, {"type": "node", "id": 4254071889, "lat": 41.392924, "lon": 2.175234, "tags": {"amenity": "bar", "name": "Noumades", "old_name": "Bar centro"}}, {"type": "node", "id": 4590905690, "lat": 41.3882413, "lon": 2.1949805, "tags": {"amenity": "bar", "cuisine": "american;burger", "internet_access": "wlan", "name": "Bamb\u00fa Beach Bar", "name:en": "Rembrandt Caf\u00e9", "name:ru": "\u0420\u0435\u043c\u0431\u0440\u0430\u043d\u0434\u0442 \u0431\u0430\u0440"}}, {"type": "node", "id": 4689020592, "lat": 41.4022025, "lon": 2.2016256, "tags": {"addr:city": "Barcelona", "addr:housenumber": "196", "addr:postcode": "08005", "addr:street": "Carrer de Pujades", "amenity": "bar", "contact:facebook": "https://m.facebook.com/BaliusBar/", "cuisine": "tapas", "description": "Cocktail bar", "name": "Balius", "name:es": "Balius", "phone": "+34 933 15 86 50"}}, {"type": "node", "id": 4719191291, "lat": 41.4045622, "lon": 2.1832598, "tags": {"amenity": "bar", "check_date": "2024-05-27", "name": "Casa Falc\u00f3n", "name:es": "Casa Falc\u00f3n", "opening_hours": "Mo-Sa"}}, {"type": "node", "id": 4719191292, "lat": 41.4037955, "lon": 2.1820599, "tags": {"amenity": "bar", "check_date": "2023-10-18", "name": "Ruta de Francia", "name:es": "Ruta de Francia"}}, {"type": "node", "id": 4719259890, "lat": 41.4054293, "lon": 2.1844074, "tags": {"amenity": "bar", "name": "Ribas D'o Sil", "name:es": "Ribas D'o Sil", "opening_hours": "Mo-Sa"}}, {"type": "node", "id": 4719260689, "lat": 41.3981541, "lon": 2.1778188, "tags": {"amenity": "bar", "name": "Yuste", "name:es": "Yuste", "opening_hours": "Mo-Su 08:00-01:00", "wheelchair": "limited"}}, {"type": "node", "id": 4726582797, "lat": 41.3892191, "lon": 2.1783959, "tags": {"amenity": "bar", "name": "Andorra", "name:es": "Andorra"}}, {"type": "node", "id": 4726583197, "lat": 41.3895056, "lon": 2.1779383, "tags": {"amenity": "bar", "name": "Obrador", "name:ca": "Obrador"}}, {"type": "node", "id": 4726583198, "lat": 41.3879295, "lon": 2.1794342, "tags": {"amenity": "bar"}}, {"type": "node", "id": 4777016826, "lat": 41.4091439, "lon": 2.184618, "tags": {"addr:housenumber": "25", "addr:street": "Carrer de Rogent", "amenity": "bar", "name": "Gent del Barri", "name:ca": "Gent del Barri", "toilets:wheelchair": "no", "wheelchair": "limited"}}, {"type": "node", "id": 4787974651, "lat": 41.4045885, "lon": 2.1993428, "tags": {"amenity": "bar", "name": "El Menjador de la Beckett"}}, {"type": "node", "id": 4965677492, "lat": 41.4032881, "lon": 2.2001895, "tags": {"amenity": "bar", "name": "La tasqueta de Can Felipa", "wheelchair": "yes"}}, {"type": "node", "id": 5085584670, "lat": 41.3947338, "lon": 2.2034357, "tags": {"amenity": "bar"}}, {"type": "node", "id": 5158417921, "lat": 41.4090397, "lon": 2.1888164, "tags": {"addr:street": "Carrer del Clot", "amenity": "bar", "name": "El Nou CloTiberi", "name:ca": "El Nou CloTiberi"}}, {"type": "node", "id": 5186368721, "lat": 41.4070677, "lon": 2.1827567, "tags": {"addr:housenumber": "554", "addr:street": "Carrer de Val\u00e8ncia", "amenity": "bar", "check_date": "2023-05-10", "name": "Delas", "name:ca": "Delas"}}, {"type": "node", "id": 5190930121, "lat": 41.4070235, "lon": 2.1818566, "tags": {"addr:housenumber": "239", "addr:street": "Carrer del Dos de Maig", "amenity": "bar", "check_date": "2023-05-10", "name": "Casa \u00c1ngel", "name:ca": "Casa \u00c1ngel"}}, {"type": "node", "id": 5522265621, "lat": 41.3990264, "lon": 2.194494}, {"type": "node", "id": 5525927436, "lat": 41.3880755, "lon": 2.1763052, "tags": {"addr:city": "Barcelona", "addr:housenumber": "28", "addr:postcode": "08003", "addr:street": "Carrer de Sant Pere M\u00e9s Alt", "amenity": "bar", "name": "B\u00e4r Sant Pere", "toilets:wheelchair": "yes", "wheelchair": "yes"}}, {"type": "node", "id": 5676005621, "lat": 41.3931048, "lon": 2.1910878, "tags": {"amenity": "bar", "name": "CACHO", "opening_hours": "Mo-Fr 13:00-24:00; Sa 12:00-24:00; Su 12:00-23:00", "outdoor_seating": "yes", "toilets": "yes"}}, {"type": "node", "id": 5880596385, "lat": 41.4010072, "lon": 2.1761471, "tags": {"addr:housenumber": "310", "addr:postcode": "08013", "addr:street": "Avinguda Diagonal", "amenity": "bar", "name:en": "En Diagonal Bar"}}, {"type": "node", "id": 5923835987, "lat": 41.3898967, "lon": 2.1789978, "tags": {"amenity": "bar", "name": "en apart\u00e9"}}, {"type": "node", "id": 6030376285, "lat": 41.398619, "lon": 2.18006, "tags": {"addr:housenumber": "731", "addr:street": "Gran Via de les Corts Catalanes (lateral muntanya)", "amenity": "bar", "name": "Bar Granvja", "name:ca": "Gran Via", "name:es": "Gran V\u00eda", "phone": "+34 9363226"}}, {"type": "node", "id": 6121076545, "lat": 41.4019324, "lon": 2.1795042, "tags": {"addr:housenumber": "7", "addr:street": "Carrer Enamorats", "amenity": "bar", "name": "Balcony"}}, {"type": "node", "id": 6121155277, "lat": 41.4061796, "lon": 2.1860894, "tags": {"amenity": "bar", "name": "Bar La Fusta"}}, {"type": "node", "id": 6122391672, "lat": 41.4079845, "lon": 2.186163, "tags": {"addr:housenumber": "584", "addr:street": "Carrer Arag\u00f3", "amenity": "bar", "name": "AKBAR"}}, {"type": "node", "id": 6125429032, "lat": 41.4080485, "lon": 2.1840719, "tags": {"amenity": "bar", "name": "Galicia Bar"}}, {"type": "node", "id": 6138906566, "lat": 41.3990235, "lon": 2.1944916, "tags": {"man_made": "surveillance", "surveillance:type": "camera"}}, {"type": "node", "id": 6138906835, "lat": 41.3989804, "lon": 2.1943079}, {"type": "node", "id": 6138906836, "lat": 41.3990757, "lon": 2.1943864}, {"type": "node", "id": 6138906883, "lat": 41.3989288, "lon": 2.1944148}, {"type": "node", "id": 6138906896, "lat": 41.3989667, "lon": 2.1944456, "tags": {"addr:housenumber": "101", "addr:postcode": "08018", "addr:street": "Carrer de Pere IV", "amenity": "cafe", "entrance": "yes", "name": "Poblenou Roasting Company"}}, {"type": "node", "id": 6179289415, "lat": 41.4006622, "lon": 2.1748892, "tags": {"addr:city": "Barcelona", "addr:country": "ES", "amenity": "bar", "name": "Casa Rufo's"}}, {"type": "node", "id": 6196317429, "lat": 41.4059417, "lon": 2.1860262, "tags": {"amenity": "bar", "description": "comprobar nombre", "name": "Bar 27"}}, {"type": "node", "id": 6333755193, "lat": 41.3987032, "lon": 2.1811514, "tags": {"amenity": "bar", "cuisine": "tapas", "name": "Bar Marina"}}, {"type": "node", "id": 6532207787, "lat": 41.4036679, "lon": 2.2021718, "tags": {"addr:street": "Carrer de Bilbao", "amenity": "bar", "check_date": "2023-04-01", "name": "Can Culleres"}}, {"type": "node", "id": 6532214487, "lat": 41.4039113, "lon": 2.201701, "tags": {"amenity": "bar", "name": "Susurro"}}, {"type": "node", "id": 6532297585, "lat": 41.4051228, "lon": 2.2006251, "tags": {"addr:street": "Carrer de Bilbao", "amenity": "bar", "name": "Molika"}}, {"type": "node", "id": 6533458685, "lat": 41.4045048, "lon": 2.2010302, "tags": {"addr:street": "Carrer de Bilbao", "amenity": "bar", "name": "Curro"}}, {"type": "node", "id": 6535101685, "lat": 41.4000317, "lon": 2.1956346, "tags": {"amenity": "bar", "name": "Catalunya", "name:ca": "Catalunya"}}, {"type": "node", "id": 6563307386, "lat": 41.4016002, "lon": 2.1889242, "tags": {"amenity": "bar", "name": "Eva-2"}}, {"type": "node", "id": 6750085589, "lat": 41.4066414, "lon": 2.1800529, "tags": {"addr:street": "Carrer de Cartagena", "amenity": "bar", "name": "Olimpo"}}, {"type": "node", "id": 6750095387, "lat": 41.4056447, "lon": 2.1796519, "tags": {"addr:housenumber": "246 bis", "addr:street": "Carrer de los Castillejos", "amenity": "bar", "check_date": "2023-05-10", "name": "El Cafete"}}, {"type": "node", "id": 6757278789, "lat": 41.3997955, "lon": 2.1753577, "tags": {"addr:street": "Carrer d'Arag\u00f3", "amenity": "bar", "name": "Taverna Chrison"}}, {"type": "node", "id": 6757314485, "lat": 41.4035327, "lon": 2.1803575, "tags": {"amenity": "bar", "check_date": "2023-10-18", "name": "Can Tansi"}}, {"type": "node", "id": 6805613287, "lat": 41.4064936, "lon": 2.176386, "tags": {"amenity": "bar", "internet_access": "wlan", "name": "Enoteca monkstation"}}, {"type": "node", "id": 6936466985, "lat": 41.4020809, "lon": 2.2010252, "tags": {"amenity": "bar", "name:en": "Madame George"}}, {"type": "node", "id": 7124857728, "lat": 41.3964797, "lon": 2.1851438, "tags": {"addr:city": "Barcelona", "addr:housenumber": "124", "addr:postcode": "08013", "addr:street": "Carrer de la Marina", "amenity": "bar", "check_date": "2024-09-24", "contact:instagram": "https://www.instagram.com/cabobarbcn", "internet_access": "wlan", "internet_access:fee": "customers", "level": "0", "name": "Cabo", "outdoor_seating": "yes", "payment:cash": "yes", "payment:credit_cards": "yes", "payment:debit_cards": "yes", "phone": "+34 936 76 23 54", "smoking": "outside", "website": "https://grupocabo.es/cabo-bar/", "wheelchair": "yes"}}, {"type": "node", "id": 7556637988, "lat": 41.4041586, "lon": 2.1968775, "tags": {"amenity": "bar", "name": "Doncurado"}}, {"type": "node", "id": 7556637989, "lat": 41.4038732, "lon": 2.1971787, "tags": {"amenity": "bar", "name": "SiamoQu\u00e1"}}, {"type": "node", "id": 7556742593, "lat": 41.4009756, "lon": 2.2000272, "tags": {"amenity": "bar", "indoor_seating": "yes", "name": "Menjador del Centre", "name:ca": "Menjador del Centre", "outdoor_seating": "yes"}}, {"type": "node", "id": 7556742600, "lat": 41.4039082, "lon": 2.1954534, "tags": {"addr:housenumber": "118", "addr:street": "Carrer de la Llacuna", "amenity": "bar", "name": "Honest poke", "opening_hours": "Mo-Su 10:30-23:00"}}, {"type": "node", "id": 7556742601, "lat": 41.4046908, "lon": 2.194394, "tags": {"amenity": "bar", "name": "El Petit Daniel"}}, {"type": "node", "id": 7559103786, "lat": 41.4073907, "lon": 2.1934984, "tags": {"amenity": "bar", "name": "Pyramid"}}, {"type": "node", "id": 7559104085, "lat": 41.4075001, "lon": 2.1936287, "tags": {"amenity": "bar", "name": "Mechita Sour"}}, {"type": "node", "id": 7563864197, "lat": 41.4037568, "lon": 2.1986742, "tags": {"amenity": "bar", "name": "la Tanda"}}, {"type": "node", "id": 7563962192, "lat": 41.4014488, "lon": 2.2009478, "tags": {"amenity": "bar", "indoor_seating": "yes", "name": "Passeig9", "outdoor_seating": "yes"}}, {"type": "node", "id": 7572644787, "lat": 41.3973555, "lon": 2.1856288, "tags": {"amenity": "bar", "name": "Cerveseria del Roser", "name:ca": "Cerveseria del Roser"}}, {"type": "node", "id": 7572733712, "lat": 41.3957533, "lon": 2.1819773, "tags": {"amenity": "bar", "name": "las 4Estaciones"}}, {"type": "node", "id": 7615982501, "lat": 41.4003896, "lon": 2.1978586, "tags": {"amenity": "bar", "name": "La Tavernicola"}}, {"type": "node", "id": 8046559285, "lat": 41.4023415, "lon": 2.1975419, "tags": {"amenity": "bar", "name": "Little Fern", "opening_hours": "Mo-Su 09:00-16:00"}}, {"type": "node", "id": 8049731595, "lat": 41.4018684, "lon": 2.2023424, "tags": {"amenity": "bar", "indoor_seating": "yes", "name": "Echegaray", "outdoor_seating": "no"}}, {"type": "node", "id": 8049731597, "lat": 41.4025485, "lon": 2.2010666, "tags": {"amenity": "bar", "name": "Nina"}}, {"type": "node", "id": 8061857487, "lat": 41.406702, "lon": 2.2015437, "tags": {"addr:postcode": "08005", "amenity": "bar", "name": "Sports bar", "name:es": "Sports Bar Italian Food", "phone": "936 39 90 70"}}, {"type": "node", "id": 8715376917, "lat": 41.389246, "lon": 2.1944464, "tags": {"amenity": "bar", "name": "Casi Esquina"}}, {"type": "node", "id": 8871044720, "lat": 41.4087359, "lon": 2.1751526, "tags": {"addr:housenumber": "611", "addr:street": "Carrer de C\u00f2rsega", "amenity": "bar", "name": "La Cervesaria Clandestina"}}, {"type": "node", "id": 9064017017, "lat": 41.3909909, "lon": 2.187867, "tags": {"addr:housenumber": "52", "addr:postcode": "08005", "addr:street": "Carrer de Wellington", "amenity": "bar", "check_date": "2024-06-19", "contact:instagram": "bubarbarcelona", "cuisine": "tapas;regional", "name": "Bubar", "outdoor_seating": "yes", "payment:cash": "yes", "payment:credit_cards": "yes", "payment:debit_cards": "yes", "phone": "+34675701049", "smoking": "outside", "toilets": "yes", "wheelchair": "yes"}}, {"type": "node", "id": 9230750652, "lat": 41.3936062, "lon": 2.1766939, "tags": {"amenity": "bar", "name": "local"}}, {"type": "node", "id": 9230934874, "lat": 41.3905009, "lon": 2.1801937, "tags": {"amenity": "bar", "check_date": "2023-10-10", "name": "Rec Comtal", "name:ca": "Rec Comtal"}}, {"type": "node", "id": 9230934875, "lat": 41.3897936, "lon": 2.1806881, "tags": {"amenity": "bar", "name": "65 Degrees"}}, {"type": "node", "id": 9236150781, "lat": 41.3886595, "lon": 2.1806213, "tags": {"amenity": "bar", "check_date": "2024-09-21", "name": "Festin"}}, {"type": "node", "id": 9376342919, "lat": 41.3966728, "lon": 2.1919552, "tags": {"addr:housenumber": "122", "addr:postcode": "08018", "addr:street": "Carrer de Pallars", "air_conditioning": "no", "amenity": "bar", "email": "hijoscain@hotmail.com", "indoor_seating": "yes", "name": "Hijos de cain Bar", "opening_hours": "Fr-Sa 22:30-03:00", "operator": "PH Fr,Sa 23:00-03:00", "outdoor_seating": "no", "payment:credit_cards": "yes", "payment:debit_cards": "yes", "smoking": "no", "website": "http://www.hijosdecain.es/", "wheelchair": "no"}}, {"type": "node", "id": 9376343220, "lat": 41.3963512, "lon": 2.1922632, "tags": {"addr:housenumber": "61", "addr:postcode": "08018", "addr:street": "Carrer de Pere IV", "amenity": "bar", "contact:facebook": "airbarpoblenou", "email": "airbarpoblenou@hotmail.com", "name": "Lounge Restaurant"}}, {"type": "node", "id": 9376372117, "lat": 41.3967903, "lon": 2.1921194, "tags": {"addr:housenumber": "122", "addr:postcode": "08018", "addr:street": "Carrer de Pallars", "air_conditioning": "no", "amenity": "bar", "contact:facebook": "D9bar", "contact:instagram": "d9poblenou", "email": "ramon@denou.bar", "indoor_seating": "yes", "name": "D9", "opening_hours": "Su-Th 18:00-02:30; Fr-Sa 18:00-03:00", "outdoor_seating": "yes", "payment:credit_cards": "yes", "payment:debit_cards": "yes", "phone": "+34 933 099 202;+34 687 955 816", "smoking": "outside", "website": "https://denou.bar/", "wheelchair": "no"}}, {"type": "node", "id": 9376642417, "lat": 41.3988768, "lon": 2.1953173, "tags": {"addr:housenumber": "92", "addr:postcode": "08005", "addr:street": "Carrer de Badajoz", "amenity": "bar", "contact:facebook": "ravenpoblenou", "name": "Raven Poblenou", "opening_hours": "Fr-Sa 23:00-03:30"}}, {"type": "node", "id": 9590876717, "lat": 41.3930591, "lon": 2.1899199, "tags": {"addr:postcode": "08005", "air_conditioning": "yes", "amenity": "bar", "name": "Ve De Gust", "name:ca": "Ve de Gust", "opening_hours": "Sa 09:00-00:30; Mo, We-Th 08:00-23:00; Fr 08:00-00:30; Su 09:00-23:00; Tu 08:00-16:00", "phone": "+34 936 27 23 27", "smoking": "outside", "website": "https://h5.clewm.net/?url=qr61.cn%2Fo1Ua8r%2FqI3ey4g&hasredirect=1", "wheelchair": "limited"}}, {"type": "node", "id": 10118537517, "lat": 41.3939461, "lon": 2.1787407, "tags": {"amenity": "bar", "name": "Bescuit"}}, {"type": "node", "id": 10169352800, "lat": 41.3891366, "lon": 2.1796504, "tags": {"addr:city": "Barcelona", "addr:housenumber": "2", "addr:postcode": "08003", "addr:street": "Carrer del Rec Comtal", "amenity": "bar", "cuisine": "spanish", "name": "Quillo", "opening_hours": "12:00-01:00", "phone": "+34 931 383 130", "website": "https://quillo-bar.com", "wheelchair": "limited"}}, {"type": "node", "id": 10171074275, "lat": 41.3898237, "lon": 2.1805681, "tags": {"amenity": "bar", "name": "Torres", "name:ca": "Torres"}}, {"type": "node", "id": 10171648195, "lat": 41.4031758, "lon": 2.2023883, "tags": {"amenity": "bar", "name": "El Trapeilla"}}, {"type": "node", "id": 10181211974, "lat": 41.3908805, "lon": 2.1783965, "tags": {"amenity": "bar", "name": "Mariona"}}, {"type": "node", "id": 10181211975, "lat": 41.3908292, "lon": 2.1782443, "tags": {"amenity": "bar", "name": "Baozi Bar"}}, {"type": "node", "id": 10202550005, "lat": 41.4009959, "lon": 2.1814915, "tags": {"amenity": "bar", "name": "Bar restaurante gaza"}}, {"type": "node", "id": 10785206630, "lat": 41.3947399, "lon": 2.1816521, "tags": {"amenity": "bar", "name": "La Llesca"}}, {"type": "node", "id": 10785247110, "lat": 41.3936986, "lon": 2.1789779, "tags": {"amenity": "bar", "name": "Bescuit"}}, {"type": "node", "id": 11565226969, "lat": 41.4073492, "lon": 2.1781014, "tags": {"addr:city": "Barcelona", "addr:housenumber": "505", "addr:postcode": "08025", "addr:street": "Carrer de Proven\u00e7a", "amenity": "bar", "brewery": "yes", "name": "Pivobar"}}, {"type": "node", "id": 12090218723, "lat": 41.4020152, "lon": 2.2009443, "tags": {"addr:city": "Barcelona", "addr:housenumber": "177", "addr:postcode": "08005", "addr:street": "Carrer de Pujades", "air_conditioning": "yes", "amenity": "bar", "brewery": "yes", "description": "Botanicus is an evolutionary cocktail bar born with the ambition of combining the world of botany with that of fermented products.", "email": "botanicusbarcelona@gmail.com", "image": "https://assets.zyrosite.com/m2WlapXP9Bh4zlZ9/logo-botanist-2023-mjEQqqpy4nCg6DLO.svg", "internet_access": "wlan", "name": "Botanicus Cocktail Bar", "opening_hours": "Mo-Su 18:00-03:00", "outdoor_seating": "yes", "payment:cards": "yes", "payment:cash": "yes", "website": "https://www.botanicusbcn.com/", "wheelchair": "yes"}}, {"type": "node", "id": 12373325901, "lat": 41.4068168, "lon": 2.1841962, "tags": {"amenity": "bar", "contact:city": "Barcelona", "contact:housenumber": "551", "contact:phone": "+34 650 32 31 65", "contact:postcode": "8026", "contact:street": "Carrer d'Arag\u00f3", "name": "BPM Bar", "website": "https://www.privateaser.es/local/51140-bpm-bar"}}, {"type": "node", "id": 12384358374, "lat": 41.400399, "lon": 2.1823507, "tags": {"amenity": "bar"}}, {"type": "node", "id": 12684307703, "lat": 41.4088531, "lon": 2.1792682, "tags": {"amenity": "bar", "contact:city": "Barcelona", "contact:housenumber": "277", "contact:phone": "+34 910 78 06 76", "contact:postcode": "08025", "contact:street": "Carrer Del Dos de Maig", "name": "Neverland Cocktail Bar", "website": "https://www.privateaser.es/local/51748-Neverland"}}, {"type": "node", "id": 12685592801, "lat": 41.3916665, "lon": 2.1916656, "tags": {"amenity": "bar", "name": "agachaito"}}, {"type": "way", "id": 132513778, "nodes": [1457557311, 1457557312, 1457557314, 1457557313, 1457557311], "tags": {"amenity": "bar", "building": "yes"}}, {"type": "way", "id": 136527051, "nodes": [1497569360, 1497569361, 1497569350, 1497569348, 1497569346, 1497569360], "tags": {"amenity": "bar", "building": "yes", "name": "Quiosc-bar Ciutadella Cascades", "name:ca": "Quiosc-bar Ciutadella Cascades"}}, {"type": "way", "id": 655182341, "nodes": [6138906835, 6138906836, 5522265621, 6138906566, 6138906896, 6138906883, 6138906835], "tags": {"amenity": "bar", "building": "industrial", "building:levels": "2", "name": "Comtu bar"}}]}