{"version": 0.6, "generator": "Overpass API 0.7.62.5 1bd436f1", "osm3s": {"timestamp_osm_base": "2025-03-24T01:50:36Z", "copyright": "The data included in this document is from www.openstreetmap.org. The data is made available under ODbL."}, "elements": [{"type": "node", "id": 216330105, "lat": 41.3857962, "lon": 2.1748362, "tags": {"amenity": "bar", "name": "Cala del Vermouth"}}, {"type": "node", "id": 648459390, "lat": 41.3830486, "lon": 2.178292, "tags": {"addr:housenumber": "20", "addr:postcode": "08002", "addr:street": "Carrer de la Dagueria", "amenity": "bar", "name": "Zim", "opening_hours": "Mo-Su 18:00-23:00"}}, {"type": "node", "id": 672763035, "lat": 41.3846643, "lon": 2.1702706, "tags": {"amenity": "bar", "name": "Boadas"}}, {"type": "node", "id": 818891229, "lat": 41.381599, "lon": 2.1744854, "tags": {"addr:housenumber": "27", "addr:street": "Carrer de la Boqueria", "amenity": "bar", "internet_access": "wlan", "internet_access:access": "customers", "internet_access:fee": "no", "name": "Travel Bar"}}, {"type": "node", "id": 827585077, "lat": 41.3830229, "lon": 2.1706642, "tags": {"addr:city": "Barcelona", "addr:housenumber": "7", "addr:postcode": "08001", "addr:street": "Carrer d'en Xucl\u00e0", "amenity": "bar", "drink:club-mate": "yes", "name": "Bar Mirinda"}}, {"type": "node", "id": 1082354548, "lat": 41.3798943, "lon": 2.17677, "tags": {"amenity": "bar", "name": "Cerveceria El Tequila"}}, {"type": "node", "id": 1314943380, "lat": 41.3870865, "lon": 2.1803497, "tags": {"addr:city": "Barcelona", "addr:housenumber": "35", "addr:postcode": "08003", "addr:street": "Carrer dels Carders", "air_conditioning": "no", "alt_name": "Espai Mescladis", "amenity": "bar", "brewery": "yes", "check_date": "2023-10-29", "contact:facebook": "espaimescladis", "contact:instagram": "https://www.instagram.com/espaismescladis", "drink:club-mate": "served", "email": "info@mescladis.org", "internet_access": "wlan", "internet_access:fee": "no", "internet_access:ssid": "Mescladis", "name": "Mesclad\u00eds del Pou", "opening_hours": "Mo-Fr 13:00-21:00; Sa,Su 11:00-21:00", "outdoor_seating": "yes", "payment:cash": "yes", "payment:mastercard": "yes", "payment:visa": "yes", "phone": "+34 933198732", "website": "https://www.mescladis.org/", "wheelchair": "yes"}}, {"type": "node", "id": 1497595784, "lat": 41.3857384, "lon": 2.1736392, "tags": {"addr:city": "Barcelona", "addr:housenumber": "3", "addr:postcode": "08002", "addr:street": "Carrer de Montsi\u00f3", "amenity": "bar", "email": "4gats@4gats.com", "name": "4Gats", "name:ca": "Els Quatre Gats", "name:en": "Els Quatre Gats", "name:ru": "\u041a\u0430\u0444\u0435 4 \u043a\u043e\u0442\u0430", "name:zh": "\u56db\u96bb\u8c93 \u5496\u5561\u9928", "old_name": "Els Quatre Gats", "opening_hours": "Tu 11:00-17:00; We-Fr 11:00-24:00; Sa 12:00-00:00; Su 12:00-17:00", "phone": "+34 933024140", "toilets:wheelchair": "no", "website": "https://www.4gats.com/", "wheelchair": "limited", "wikidata": "Q1333395", "wikimedia_commons": "Category:Els Quatre Gats", "wikipedia": "ca:Els Quatre Gats"}}, {"type": "node", "id": 2247741140, "lat": 41.3819109, "lon": 2.1767686, "tags": {"addr:housenumber": "2", "addr:postcode": "08002", "addr:street": "Carrer del Pas de l'Ensenyan\u00e7a", "amenity": "bar", "name": "El Paraigua", "source": "+34 933 02 11 31", "website": "https://www.elparaigua.com/"}}, {"type": "node", "id": 2247764339, "lat": 41.3823214, "lon": 2.1730348, "tags": {"addr:housenumber": "14", "addr:street": "Carrer Roca", "amenity": "bar", "name": "Blondie Bar", "source": "+34 636 81 55 81"}}, {"type": "node", "id": 2437938859, "lat": 41.3806763, "lon": 2.177069, "tags": {"addr:housenumber": "5", "addr:street": "Carrer de n'Arai", "amenity": "bar", "name": "Oviso", "wheelchair": "yes"}}, {"type": "node", "id": 2457866964, "lat": 41.3797385, "lon": 2.1751538, "tags": {"amenity": "bar", "harassment_prevention": "No Callem", "name": "Los Tarantos", "sexual_antiharassment_policy": "yes", "sexual_antiharassment_policy:name": "NoCallem"}}, {"type": "node", "id": 2465712772, "lat": 41.3806481, "lon": 2.1789874, "tags": {"addr:housenumber": "5", "addr:postcode": "08002", "addr:street": "Carrer de Milans", "amenity": "bar", "name": "Manchester"}}, {"type": "node", "id": 2479390681, "lat": 41.3801499, "lon": 2.1768532, "tags": {"addr:city": "Barcelona", "addr:housenumber": "49", "addr:postcode": "08002", "addr:street": "Carrer dels Escudellers", "amenity": "bar", "name": "Marula Caf\u00e8", "phone": "+34 933 18 76 90", "website": "https://marulacafe.com/", "wheelchair": "yes"}}, {"type": "node", "id": 2650437195, "lat": 41.3860376, "lon": 2.1674444, "tags": {"addr:city": "Barcelona", "addr:housenumber": "3", "addr:postcode": "08002", "addr:street": "Carrer de Bergara", "amenity": "bar", "name": "Belushi's", "website": "https://www.belushis.com/bars/barcelona"}}, {"type": "node", "id": 2652014534, "lat": 41.3895384, "lon": 2.1729617, "tags": {"addr:city": "Barcelona", "addr:country": "ES", "addr:housenumber": "5", "addr:postcode": "08010", "addr:street": "Pla\u00e7a d'Urquinaona", "amenity": "bar", "contact:website": "http://www.thegeorgepayne.com/", "name": "The George Payne", "opening_hours": "Mo-We 13:00-02:00; Th, Su 13:00-02:30; Fr, Sa 13:00-03:00", "wheelchair": "yes"}}, {"type": "node", "id": 2721077740, "lat": 41.3848861, "lon": 2.1667078, "tags": {"amenity": "bar", "indoor_seating": "yes", "name": "Bar Veni", "old_name": "Mucci's", "outdoor_seating": "yes"}}, {"type": "node", "id": 2821566629, "lat": 41.3813306, "lon": 2.1801063, "tags": {"addr:housenumber": "21", "addr:postcode": "08002", "addr:street": "Carrer d'en Gign\u00e0s", "amenity": "bar", "contact:website": "http://milkbarcelona.com/", "cuisine": "spanish", "internet_access": "wlan", "name": "Milk", "name:en": "Milk Bar & Bistro"}}, {"type": "node", "id": 2890108535, "lat": 41.3828225, "lon": 2.1683796, "tags": {"amenity": "bar", "name": "Raval bar", "name:ca": "Raval bar"}}, {"type": "node", "id": 2890111610, "lat": 41.3844766, "lon": 2.180301, "tags": {"amenity": "bar", "name": "Arena bar"}}, {"type": "node", "id": 2890111611, "lat": 41.3845612, "lon": 2.1799122, "tags": {"amenity": "bar", "name": "Lilipep"}}, {"type": "node", "id": 2892028392, "lat": 41.3825502, "lon": 2.16647, "tags": {"addr:housenumber": "27", "addr:street": "Pla\u00e7a dels \u00c0ngels", "amenity": "bar", "name": "Do\u00f1a Rosa", "opening_hours": "Mo-Th 10:30-00:00; Fr 10:30-01:00; Sa 10:00-01:00; Su 10:00-00:00"}}, {"type": "node", "id": 2892028393, "lat": 41.3825992, "lon": 2.1665452, "tags": {"amenity": "bar", "name": "Kino", "smoking": "separated"}}, {"type": "node", "id": 3074796331, "lat": 41.3801259, "lon": 2.1746721, "tags": {"addr:floor": "1st", "addr:housenumber": "3", "addr:street": "Pla\u00e7a Reial", "amenity": "bar", "name": "Barcelona Pipa Club", "opening_hours": "Mo-Su 23:00-04:00", "wikidata": "Q116871788"}}, {"type": "node", "id": 3101487170, "lat": 41.3806296, "lon": 2.167222, "tags": {"addr:city": "Barcelona", "addr:housenumber": "4-6", "addr:postcode": "08001", "addr:street": "Carrer de la Riera Alta", "amenity": "bar", "name": "Marmalade"}}, {"type": "node", "id": 3101523329, "lat": 41.3797882, "lon": 2.1662643, "tags": {"addr:city": "Barcelona", "addr:housenumber": "116", "addr:postcode": "08001", "addr:street": "Carrer del Carme", "amenity": "bar", "name": "Zelig"}}, {"type": "node", "id": 3353656154, "lat": 41.3819598, "lon": 2.1687235, "tags": {"amenity": "bar", "name": "Silenus"}}, {"type": "node", "id": 3491476947, "lat": 41.3856036, "lon": 2.1800221, "tags": {"addr:city": "Barcelona", "addr:housenumber": "2", "addr:street": "Carrer de Montcada", "amenity": "bar", "atm": "no", "cuisine": "tapas", "description": "Tapas a bar", "food": "yes", "internet_access": "wlan", "name": "Bar del Pla", "opening_hours": "Mo-Th 12:00-23:00; Fr-Sa 12:00-00:00", "outdoor_seating": "yes", "smoking": "outside", "source": "Local knowledge", "website": "https://www.bardelpla.cat/", "wheelchair": "limited"}}, {"type": "node", "id": 3987217352, "lat": 41.382757, "lon": 2.1785313, "tags": {"addr:city": "Barcelona", "addr:housenumber": "1", "addr:postcode": "08002", "addr:street": "Carrer de la Palma de Sant Just", "amenity": "bar", "name": "Ginger", "opening_hours": "Tu-Sa 19:30-02:30", "phone": "+34 93 310 53 09", "website": "http://ginger.cat/GINGER_BARCELONA/welcome_to_Ginger_Barcelona.html"}}, {"type": "node", "id": 4029816789, "lat": 41.3845299, "lon": 2.1805557, "tags": {"addr:housenumber": "6", "addr:street": "Carrer dels Banys Vells", "amenity": "bar", "cuisine": "arab;argentinian", "entrance": "yes", "name": "Rubi Bar", "phone": "+34-647737707", "toilets:wheelchair": "no", "wheelchair": "limited"}}, {"type": "node", "id": 4130741098, "lat": 41.3850373, "lon": 2.1662783, "tags": {"addr:housenumber": "70", "addr:street": "Carrer dels Tallers", "amenity": "bar", "name": "Cerveceria La Surena"}}, {"type": "node", "id": 4137545690, "lat": 41.3886077, "lon": 2.1801454, "tags": {"addr:housenumber": "10", "addr:street": "Carrer de les Basses de Sant Pere", "amenity": "bar", "name": "Paspartu"}}, {"type": "node", "id": 4172561990, "lat": 41.3809266, "lon": 2.1754554, "tags": {"addr:housenumber": "9", "addr:street": "Carrer d'en Rauric", "amenity": "bar", "name": "First bar"}}, {"type": "node", "id": 4190446294, "lat": 41.380071, "lon": 2.1801819, "tags": {"addr:housenumber": "13", "addr:postcode": "08002", "addr:street": "Carrer de la Merc\u00e8", "amenity": "bar", "internet_access": "wlan", "name": "El Bomb\u00f3n"}}, {"type": "node", "id": 4190964190, "lat": 41.3886068, "lon": 2.1801679, "tags": {"addr:housenumber": "10", "addr:street": "Carrer de les Basses de Sant Pere", "amenity": "bar", "name": "Ale&Hop", "opening_hours": "Mo-We 17:00-01:30; Th 17:00-02:30; Fr 17:00-03:00; Sa 13:00-03:00; Su 13:00-01:30"}}, {"type": "node", "id": 4254675492, "lat": 41.387328, "lon": 2.1679739, "tags": {"addr:housenumber": "37", "addr:postcode": "08007", "addr:street": "Ronda de la Universitat", "amenity": "bar", "cuisine": "burger", "email": "latavernadebarcelona@hotmail.com", "name": "La tavern de barcelona", "name:ca": "La Taverna de Barcelona", "name:es": "La Taverna de Barcelona", "phone": "+34 933 01 76 53"}}, {"type": "node", "id": 4326986691, "lat": 41.3820911, "lon": 2.1685814, "tags": {"amenity": "bar", "name": "Bar Victoria"}}, {"type": "node", "id": 4349886673, "lat": 41.38047, "lon": 2.1770302, "tags": {"addr:housenumber": "3", "addr:street": "Carrer de n'Arai", "amenity": "bar", "name": "Dionisos", "wheelchair": "yes"}}, {"type": "node", "id": 4349888455, "lat": 41.3805356, "lon": 2.1770355, "tags": {"addr:housenumber": "3", "addr:street": "Carrer de n'Arai", "amenity": "bar", "name": "Bar Lisa"}}, {"type": "node", "id": 4387192496, "lat": 41.385131, "lon": 2.1778655, "tags": {"addr:city": "Barcelona", "addr:floor": "8", "addr:housenumber": "30", "addr:postcode": "08003", "addr:street": "Via Laietana", "amenity": "bar", "bar": "yes", "brewery": "various", "check_date": "2024-08-29", "cuisine": "regional;mediterranean", "description": "En el octavo piso de nuestro hotel, sobre las animadas calles del Barrio G\u00f3tico, La Terraza del Central te invita a disfrutar de cocina mediterr\u00e1nea al fresco, exquisitos c\u00f3cteles y vistas impresionantes. Con un ambiente relajado, es el lugar perfecto par", "email": "laterraza@grandhotelcentral.com", "image": "https://www.grandhotelcentral.com/data/webp/white.png-e2293a1c670abc191fcc4f21b53287e6.webp", "name": "La Terraza del Central", "opening_hours": "Mo-Su 09:00-24:00", "opening_hours:kitchen": "Cocina mediterr\u00e1nea al fresco, exquisitos c\u00f3cteles", "payment:cash": "yes", "payment:contactless": "yes", "payment:credit_cards": "yes", "payment:debit_cards": "yes", "payment:mastercard": "yes", "payment:visa": "yes", "phone": "+34 932 957 900", "reservation": "recommended", "website": "https://www.grandhotelcentral.com/es/rooftop-barcelona/", "website:menu": "https://www.grandhotelcentral.com/downloads/laterrazadelcentralmenu.pdf"}}, {"type": "node", "id": 4442168589, "lat": 41.3839256, "lon": 2.1774566, "tags": {"addr:housenumber": "13", "addr:street": "Carrer del Veguer", "amenity": "bar", "name": "L'Antiquari", "name:ca": "L'Antiquari", "name:es": "L'Antiquari"}}, {"type": "node", "id": 4646610690, "lat": 41.3869809, "lon": 2.1802947, "tags": {"addr:housenumber": "31", "addr:street": "Carrer dels Carders", "amenity": "bar", "name": "Space Cowboy"}}, {"type": "node", "id": 4703636561, "lat": 41.3818238, "lon": 2.1797544, "tags": {"addr:housenumber": "6", "addr:postcode": "08002", "addr:street": "Baixada de Viladecols", "amenity": "bar", "name": "Carlos and Mathilda"}}, {"type": "node", "id": 4726582797, "lat": 41.3892191, "lon": 2.1783959, "tags": {"amenity": "bar", "name": "Andorra", "name:es": "Andorra"}}, {"type": "node", "id": 4726582799, "lat": 41.3872998, "lon": 2.1792771, "tags": {"amenity": "bar", "name": "Bodega Jan\u00e9", "name:es": "Bodega Jan\u00e9"}}, {"type": "node", "id": 4726583197, "lat": 41.3895056, "lon": 2.1779383, "tags": {"amenity": "bar", "name": "Obrador", "name:ca": "Obrador"}}, {"type": "node", "id": 4726583198, "lat": 41.3879295, "lon": 2.1794342, "tags": {"amenity": "bar"}}, {"type": "node", "id": 4745636221, "lat": 41.3886394, "lon": 2.1739797, "tags": {"amenity": "bar", "cuisine": "burger;sandwich;breakfast;tapas;coffee_shop", "name": "Bar tim\u00f3n", "name:es": "Bar tim\u00f3n"}}, {"type": "node", "id": 4755496722, "lat": 41.3845759, "lon": 2.1695206, "tags": {"amenity": "bar", "name": "Drapaire", "name:es": "Drapaire"}}, {"type": "node", "id": 4787898099, "lat": 41.3812476, "lon": 2.1668432, "tags": {"addr:city": "Barcelona", "addr:housenumber": "1", "addr:postcode": "08001", "addr:street": "Pla\u00e7a Emili Vendrell", "amenity": "bar", "name": "Two Schmuks", "name:en": "Two Schmucks"}}, {"type": "node", "id": 4851287027, "lat": 41.3871699, "lon": 2.1760883, "tags": {"amenity": "bar", "name": "Bar L'antic Teatre", "name:ca": "Bar L'antic Teatre"}}, {"type": "node", "id": 5028957224, "lat": 41.3872515, "lon": 2.1676245, "tags": {"addr:housenumber": "35", "addr:street": "Ronda de la Universitat", "amenity": "bar", "name": "Milano", "name:es": "Milano"}}, {"type": "node", "id": 5062286421, "lat": 41.3821981, "lon": 2.1758384, "tags": {"addr:housenumber": "11", "addr:postcode": "08002", "addr:street": "Carrer del Call", "amenity": "bar", "name": "Rey del Mojito"}}, {"type": "node", "id": 5082607261, "lat": 41.3872947, "lon": 2.1804299, "tags": {"addr:housenumber": "43", "addr:street": "Carrer dels Carders", "amenity": "bar", "cuisine": "italian", "description": "Cocktails und kleine Happen zu essen, Craft Beer Auswahl", "name": "Ina", "opening_hours": "Mo, We-Fr 09:30-16:00, 19:00-01:30; Sa 09:30-01:30; Su 09:30-23:00", "phone": "+34663476017"}}, {"type": "node", "id": 5085619781, "lat": 41.381186, "lon": 2.1742004, "tags": {"amenity": "bar"}}, {"type": "node", "id": 5155671352, "lat": 41.3846098, "lon": 2.1772919, "tags": {"addr:housenumber": "8", "addr:postcode": "08002", "addr:street": "Carrer de la Tapineria", "amenity": "bar", "check_date": "2024-07-20", "name": "Spritz", "wheelchair": "limited"}}, {"type": "node", "id": 5156647127, "lat": 41.3847262, "lon": 2.1789496, "tags": {"addr:street": "Carrer de la B\u00f2ria", "amenity": "bar", "name": "Boria", "name:ca": "Boria", "wheelchair": "no"}}, {"type": "node", "id": 5156690623, "lat": 41.3849827, "lon": 2.1791939, "tags": {"addr:street": "Pla\u00e7a de la Llana", "amenity": "bar", "name": "Tower bar", "name:ca": "Tower bar", "wheelchair": "limited"}}, {"type": "node", "id": 5168232325, "lat": 41.3832429, "lon": 2.1775174, "tags": {"addr:housenumber": "16", "addr:postcode": "08002", "addr:street": "Carrer de la Llibreteria", "amenity": "bar", "check_date": "2023-04-28", "name": "Mes\u00f3n del Caf\u00e9"}}, {"type": "node", "id": 5168232523, "lat": 41.3834934, "lon": 2.1776063, "tags": {"addr:housenumber": "23", "addr:postcode": "08002", "addr:street": "Carrer de la Llibreteria", "amenity": "bar", "name": "Bar Brusi"}}, {"type": "node", "id": 5208710142, "lat": 41.3828913, "lon": 2.175531, "tags": {"addr:housenumber": "14", "addr:postcode": "08002", "addr:street": "Carrer de Sant Dom\u00e8nec del Call", "amenity": "bar", "name": "La Alcoba Azul"}}, {"type": "node", "id": 5210881000, "lat": 41.3810509, "lon": 2.1805139, "tags": {"addr:city": "Barcelona", "addr:housenumber": "46", "addr:postcode": "08002", "addr:street": "Carrer Ample", "alt_name": "The Bollocks", "amenity": "bar", "description": "Rock, Coctails, Pinballs i Burgers", "email": "bollocksbcn@gmail.com", "happy_hours": "Mo-Su 19:00-22:00", "name": "Bollocks", "opening_hours": "Mo-Th,Su 19:00-02:30; Fr-Sa 19:00-03:00", "phone": "+34 663710095", "website": "https://www.bollocksbar.com/"}}, {"type": "node", "id": 5241133621, "lat": 41.3802566, "lon": 2.1725439, "tags": {"amenity": "bar", "name": "Bodega Montse", "name:ca": "Bodega Montse"}}, {"type": "node", "id": 5271977223, "lat": 41.3797222, "lon": 2.1752424, "tags": {"addr:housenumber": "18", "addr:postcode": "08002", "addr:street": "Pla\u00e7a Reial", "amenity": "bar", "check_date": "2024-07-20", "fixme": "quitar el duplicado m\u00e1s antiguo y fusionar", "harassment_prevention": "No Callem", "name": "Jamboree Jazz & Dance Club", "name:ca": "Jamboree Jazz & Dance Club", "name:en": "Jamboree Jazz & Dance Club", "name:es": "Jamboree Jazz & Dance Club", "phone": "+34 933041210", "sexual_antiharassment_policy": "yes", "sexual_antiharassment_policy:name": "NoCallem", "website": "https://jamboreejazz.com"}}, {"type": "node", "id": 5274307823, "lat": 41.3811106, "lon": 2.1674275, "tags": {"amenity": "bar", "name": "33/45"}}, {"type": "node", "id": 5312370356, "lat": 41.3855156, "lon": 2.1751627, "tags": {"amenity": "bar", "name": "Gala den Vermut", "name:ca": "Cala del Vermut", "name:es": "Cala del Vermut"}}, {"type": "node", "id": 5312370811, "lat": 41.3859393, "lon": 2.1747648, "tags": {"amenity": "bar", "name": "Cala del Vermut 2", "name:ca": "Bodega del Vermut", "name:en": "Bodega del Vermut", "name:es": "Bodega del Vermut"}}, {"type": "node", "id": 5468395621, "lat": 41.3843361, "lon": 2.1800667, "tags": {"addr:housenumber": "13", "addr:postcode": "08003", "addr:street": "Carrer dels Vigatans", "amenity": "bar", "internet_access": "wlan", "name": "Dux Gin & Cocktail Bar Barcelona", "opening_hours": "Su-Th 18:30-02:00; Fr-Sa 18:30-02:30", "website": "https://duxborne.com"}}, {"type": "node", "id": 5518705738, "lat": 41.3832809, "lon": 2.1683982, "tags": {"amenity": "bar", "name": "La central"}}, {"type": "node", "id": 5525927436, "lat": 41.3880755, "lon": 2.1763052, "tags": {"addr:city": "Barcelona", "addr:housenumber": "28", "addr:postcode": "08003", "addr:street": "Carrer de Sant Pere M\u00e9s Alt", "amenity": "bar", "name": "B\u00e4r Sant Pere", "toilets:wheelchair": "yes", "wheelchair": "yes"}}, {"type": "node", "id": 5606506169, "lat": 41.3803881, "lon": 2.1789886, "tags": {"addr:city": "Barcelona", "addr:housenumber": "35", "addr:postcode": "08002", "addr:street": "Carrer d'Aviny\u00f3", "amenity": "bar", "indoor_seating": "yes", "name": "Sincopa", "outdoor_seating": "no", "phone": "+34 932 68 75 60"}}, {"type": "node", "id": 5785061644, "lat": 41.3834738, "lon": 2.1664261, "tags": {"amenity": "bar", "name": "cafeteria Octubre"}}, {"type": "node", "id": 5916216006, "lat": 41.3843987, "lon": 2.1696272, "tags": {"addr:street": "Carrer de les Sitges", "amenity": "bar", "name": "Caribbean Club Cocktail Bar"}}, {"type": "node", "id": 5923835987, "lat": 41.3898967, "lon": 2.1789978, "tags": {"amenity": "bar", "name": "en apart\u00e9"}}, {"type": "node", "id": 6020170185, "lat": 41.3828611, "lon": 2.1740498, "tags": {"amenity": "bar", "name:ru": "ENRIQUE TOMAS. Pernileria-Jamineria"}}, {"type": "node", "id": 6052329485, "lat": 41.3832428, "lon": 2.1781566, "tags": {"addr:housenumber": "7", "addr:postcode": "08002", "addr:street": "Carrer de la Dagueria", "amenity": "bar", "name": "Bar O'Ceo"}}, {"type": "node", "id": 6064402762, "lat": 41.3814694, "lon": 2.1767447, "tags": {"addr:housenumber": "6", "addr:postcode": "08002", "addr:street": "Baixada de Sant Miquel", "amenity": "bar", "entrance": "yes", "name": "Enkel"}}, {"type": "node", "id": 6211350417, "lat": 41.3813072, "lon": 2.18053, "tags": {"addr:housenumber": "53", "addr:postcode": "08002", "addr:street": "Carrer Ample", "amenity": "bar", "name": "Granja Bar Los Amigos"}}, {"type": "node", "id": 6281806886, "lat": 41.3818444, "lon": 2.170849, "tags": {"amenity": "bar", "name": "L\u2018OW Boqueria"}}, {"type": "node", "id": 6281807588, "lat": 41.3829971, "lon": 2.170653, "tags": {"addr:housenumber": "7", "addr:postcode": "08001", "addr:street": "Carrer d'en Xucl\u00e0", "amenity": "bar", "name": "Gats", "phone": "+34931440044"}}, {"type": "node", "id": 6281807591, "lat": 41.3805982, "lon": 2.1665211, "tags": {"amenity": "bar", "name": "La Ravala", "name:es": "La Ravela"}}, {"type": "node", "id": 6284037385, "lat": 41.3798131, "lon": 2.1685175, "tags": {"addr:housenumber": "1", "addr:street": "Rambla del Raval", "amenity": "bar", "name": "Bar 1800", "phone": "+34 934424435"}}, {"type": "node", "id": 6486643797, "lat": 41.385028, "lon": 2.1663563, "tags": {"amenity": "bar", "name": "BURGERBAR", "name:en": "Nevermind Bar"}}, {"type": "node", "id": 6516250453, "lat": 41.3838121, "lon": 2.1673102, "tags": {"amenity": "bar"}}, {"type": "node", "id": 6651539988, "lat": 41.3806023, "lon": 2.1760057, "tags": {"amenity": "bar", "internet_access": "wlan", "name": "nevermind"}}, {"type": "node", "id": 6728731685, "lat": 41.3898929, "lon": 2.1706612, "tags": {"amenity": "bar", "name": "Bobby's Free"}}, {"type": "node", "id": 6913157187, "lat": 41.3827431, "lon": 2.1759968, "tags": {"addr:housenumber": "3", "addr:street": "Carrer de la Fruita", "amenity": "bar", "name": "Anduri\u00f1a"}}, {"type": "node", "id": 7006835685, "lat": 41.3805215, "lon": 2.1781997, "tags": {"amenity": "bar", "name": "la burnessa"}}, {"type": "node", "id": 7040898590, "lat": 41.3799725, "lon": 2.1801437, "tags": {"amenity": "bar", "name": "bar Celia pulperia"}}, {"type": "node", "id": 7040898592, "lat": 41.3813764, "lon": 2.1796144, "tags": {"amenity": "bar", "name": "la maison"}}, {"type": "node", "id": 8433021718, "lat": 41.380344, "lon": 2.1794211, "tags": {"amenity": "bar", "name": "Las Cuevas de Los Rajahs", "opening_hours": "19:00-03:00"}}, {"type": "node", "id": 8765272511, "lat": 41.3832276, "lon": 2.1683303, "tags": {"addr:city": "Barcelona", "addr:housenumber": "16", "addr:postcode": "08001", "addr:street": "Carrer d'Elisabets", "amenity": "bar", "cuisine": "tapas", "name": "Bar La Masia", "opening_hours": "Mo-Sa 11:00-23:00", "phone": "+34931279618"}}, {"type": "node", "id": 8969115338, "lat": 41.3815531, "lon": 2.1669188, "tags": {"addr:housenumber": "12", "addr:street": "Carrer de Joaqu\u00edn Costa", "amenity": "bar", "name": "Carnal"}}, {"type": "node", "id": 8999571617, "lat": 41.3852677, "lon": 2.1805362, "tags": {"addr:housenumber": "14", "addr:postcode": "08003", "addr:street": "Carrer de la Princesa", "amenity": "bar", "name": "Bar Brutal", "opening_hours": "Mo, We-Th 19:00-00:30; Fr-Su 13:00-00:30"}}, {"type": "node", "id": 9097644801, "lat": 41.3842445, "lon": 2.1697428, "tags": {"addr:city": "Barcelona", "addr:housenumber": "3", "addr:street": "Carrer de les Sitges", "amenity": "bar", "description": "Whisky & Cocktails in Barcelona Since 1969", "name": "La Whiskeria", "outdoor_seating": "no", "website": "http://lawhiskeria.es/"}}, {"type": "node", "id": 10008275818, "lat": 41.3808865, "lon": 2.1791969, "tags": {"amenity": "bar", "name:en": "bar 18"}}, {"type": "node", "id": 10169352800, "lat": 41.3891366, "lon": 2.1796504, "tags": {"addr:city": "Barcelona", "addr:housenumber": "2", "addr:postcode": "08003", "addr:street": "Carrer del Rec Comtal", "amenity": "bar", "cuisine": "spanish", "name": "Quillo", "opening_hours": "12:00-01:00", "phone": "+34 931 383 130", "website": "https://quillo-bar.com", "wheelchair": "limited"}}, {"type": "node", "id": 10171074275, "lat": 41.3898237, "lon": 2.1805681, "tags": {"amenity": "bar", "name": "Torres", "name:ca": "Torres"}}, {"type": "node", "id": 10174431691, "lat": 41.3870993, "lon": 2.1799242, "tags": {"amenity": "bar", "cuisine": "italian", "name": "Zero Nove Cinque"}}, {"type": "node", "id": 10176586129, "lat": 41.3824601, "lon": 2.1743591, "tags": {"amenity": "bar", "name": "Bar Mono"}}, {"type": "node", "id": 10177244834, "lat": 41.3861463, "lon": 2.1799556, "tags": {"amenity": "bar", "name": "Piel de Gallina"}}, {"type": "node", "id": 10178145293, "lat": 41.3828093, "lon": 2.1664756, "tags": {"amenity": "bar", "indoor_seating": "yes", "name": "MACBA", "name:ca": "MACBA", "outdoor_seating": "yes", "wheelchair": "no"}}, {"type": "node", "id": 10721064807, "lat": 41.3893117, "lon": 2.1708667, "tags": {"addr:housenumber": "22", "addr:street": "Carrer de Casp", "amenity": "bar", "contact:facebook": "bonavidabar", "cuisine": "coffee_shop;tapas", "email": "info@bonavidabcn.com", "name": "Bonavida", "outdoor_seating": "yes", "phone": "+34 605 55 73 23", "toilets": "yes", "website": "https://www.bonavidabcn.com/"}}, {"type": "node", "id": 10834224105, "lat": 41.388072, "lon": 2.1672595, "tags": {"addr:housenumber": "15", "addr:street": "Rambla de Catalunya", "amenity": "bar", "name": "Belbo dos besos", "opening_hours": "Mo-Su 13:00-23:00"}}, {"type": "node", "id": 11089452500, "lat": 41.3836071, "lon": 2.1690886, "tags": {"amenity": "bar", "name": "Manoda"}}, {"type": "node", "id": 11301059521, "lat": 41.3797952, "lon": 2.1669738, "tags": {"amenity": "bar", "name": "Big Bang Bar"}}, {"type": "node", "id": 11352239769, "lat": 41.3800163, "lon": 2.180179, "tags": {"addr:housenumber": "13", "addr:street": "Carrer de la Merc\u00e8", "amenity": "bar", "name": "Casa del Molinero"}}, {"type": "node", "id": 11425756169, "lat": 41.3858798, "lon": 2.1792822, "tags": {"amenity": "bar"}}, {"type": "node", "id": 11964992970, "lat": 41.3842823, "lon": 2.1800016, "tags": {"addr:housenumber": "8", "addr:postcode": "08003", "addr:street": "Carrer dels Vigatans", "amenity": "bar", "name": "Animal del Vi"}}, {"type": "node", "id": 12069703462, "lat": 41.3854345, "lon": 2.1786214, "tags": {"addr:city": "Barcelona", "addr:housenumber": "2", "addr:postcode": "08003", "addr:street": "Pla\u00e7a de Santa Caterina", "amenity": "bar", "cuisine": "mediterranean;local", "name": "Lupara", "opening_hours": "Tu-Sa 10:00-01:00, Sun 12:00-18:00"}}, {"type": "node", "id": 12069715583, "lat": 41.3854153, "lon": 2.1787973, "tags": {"addr:city": "Barcelona", "addr:housenumber": "1", "addr:postcode": "08003", "addr:street": "Pla\u00e7a de Santa Caterina", "air_conditioning": "yes", "amenity": "bar", "cuisine": "mediterranean;local", "description": "Cocktail bar with authentic food in the heart of Barcelona. We blend the art of mixology with the warmth of friendly, but top-tier service, ensuring every visit is memorable. Our menu is not your usual tapas - more elaborate and with our twist.", "email": "mail@magma.barcelona", "internet_access": "wlan", "name": "Magma Bar", "opening_hours": "Tu-Sa 18:00-02:30", "phone": "+34645960430", "website": "https://magma.barcelona/"}}]}